{"table":[{"source":"yellow page","service_name":"Pronature Luskville","category":"badminton training","phone":"819-455-9255","address":"2930 rte 148, Luskville, QC J0X 2G0","postalcode":"J0X 2G0","website":" ","working_hour":"Monday 9:00 am - 6:00 pm   Tuesday 9:00 am - 6:00 pm   Wednesday 9:00 am - 6:00 pm   Thursday 9:00 am - 8:00 pm   Friday 9:00 am - 9:00 pm   Saturday 9:00 am - 5:00 pm   Sunday 10:00 am - 5:00 pm","latitude":"45.537771","longitude":"-76.018661"},{"source":"yellow page","service_name":"Play It Again Sports","category":"badminton training","phone":"613-623-1599","address":"4 Elgin St W, Arnprior, ON K7S 1N3","postalcode":"K7S 1N3","website":"http://www.playitagainsportsArnprior-Pembroke.com","working_hour":"","latitude":"45.432937","longitude":"-76.353434"},{"source":"yellow page","service_name":"Gunco Jason Spencer Reg'd Gunsmith","category":"badminton training","phone":"613-686-3629","address":"190 Colonnade Rd, Nepean, ON K2E 7J5","postalcode":"K2E 7J5","website":" ","working_hour":"","latitude":"45.341386","longitude":"-75.716968"},{"source":"yellow page","service_name":"Le Coin Badminton","category":"badminton training","phone":"450-646-6468","address":"3029, ch de Chambly, Longueuil, QC J4L 1N3","postalcode":"J4L 1N3","website":" ","working_hour":"Monday 10:00 am - 5:00 pm   Tuesday 10:00 am - 5:00 pm   Wednesday 10:00 am - 5:00 pm   Thursday 10:00 am - 9:00 pm   Friday 10:00 am - 9:00 pm   Saturday 10:00 am - 5:00 pm   Sunday 10:00 am - 5:00 pm","latitude":"45.5186977","longitude":"-73.4559767"},{"source":"yellow page","service_name":"PG Sports","category":"badminton training","phone":"613-384-2076","address":"820 Gardiners Rd, Kingston, ON K7M 3X9","postalcode":"K7M 3X9","website":"http://www.pgsports.net","working_hour":"","latitude":"44.252138","longitude":"-76.56821"},{"source":"yellow page","service_name":"Play It Again Sports","category":"badminton training","phone":"613-544-7529","address":"1-1300F Bath Rd, Kingston, ON K7M 4X4","postalcode":"K7M 4X4","website":"http://www.playitagainsports.com/","working_hour":"","latitude":"44.2380597","longitude":"-76.5442449"},{"source":"yellow page","service_name":"Soccer Plus International","category":"badminton training","phone":"613-634-9886","address":"2780A Princess St, Kingston, ON K7P 1W9","postalcode":"K7P 1W9","website":"http://www.soccerplusinternational.com/","working_hour":"","latitude":"44.2592849","longitude":"-76.5805853"},{"source":"yellow page","service_name":"FL Sports","category":"badminton training","phone":"613-389-9900","address":"598 Cataraqui Woods Dr, Kingston, ON K7P 1T8","postalcode":"K7P 1T8","website":" ","working_hour":"","latitude":"44.267406","longitude":"-76.564872"},{"source":"yellow page","service_name":"Runners' Choice","category":"badminton training","phone":"613-542-2410","address":"56 Brock St, Kingston, ON K7L 1R9","postalcode":"K7L 1R9","website":"http://runnerschoicekingston.com","working_hour":"","latitude":"44.230547","longitude":"-76.481688"},{"source":"yellow page","service_name":"The Soccer Den","category":"badminton training","phone":"613-498-1440","address":"163 Ormond St, Brockville, ON K6V 2L2","postalcode":"K6V 2L2","website":"http://www.thesoccerden.com","working_hour":"","latitude":"44.5982238","longitude":"-75.6843072"},{"source":"yellow page","service_name":"Zumiez","category":"badminton training","phone":"6133893380","address":"945 Gardiners Rd, Kingston, ON K7M 7H4","postalcode":"K7M 7H4","website":" ","working_hour":"","latitude":"44.256425","longitude":"-76.568771"},{"source":"yellow page","service_name":"Kingston Bladz Skate Shop","category":"badminton training","phone":"613-634-6340","address":"1281B Midland Ave, Kingston, ON K7P 2Y1","postalcode":"K7P 2Y1","website":" ","working_hour":"","latitude":"44.2689958","longitude":"-76.5741602"},{"source":"yellow page","service_name":"Running Room","category":"badminton training","phone":"613-547-3666","address":"277 Princess St, Kingston, ON K7L 1B4","postalcode":"K7L 1B4","website":"http://www.runningroom.com","working_hour":"","latitude":"44.232504","longitude":"-76.488292"},{"source":"yellow page","service_name":"Adidas","category":"badminton training","phone":"6133441243","address":"14C-97 Dalton Ave, Kingston, ON K7K 0C4","postalcode":"K7K 0C4","website":"http://www.shopadidas.ca","working_hour":"","latitude":"44.266434","longitude":"-76.505146"},{"source":"yellow page","service_name":"Racquet Science","category":"badminton training","phone":"613-766-3231","address":"332 Barrie St, Kingston, ON K7K 3T1","postalcode":"K7K 3T1","website":"http://www.racquetscience.ca/","working_hour":"Tuesday 10:00 am - 6:00 pm   Wednesday 10:00 am - 6:00 pm   Thursday 10:00 am - 6:00 pm   Friday 10:00 am - 6:00 pm   Saturday 9:00 am - 3:00 pm","latitude":"44.233343","longitude":"-76.49061"},{"source":"yellow page","service_name":"Oil Thigh Designs","category":"badminton training","phone":"613-546-4328","address":"195 University Ave, Kingston, ON K7L 3P5","postalcode":"K7L 3P5","website":" ","working_hour":"","latitude":"44.229706","longitude":"-76.495613"},{"source":"yellow page","service_name":"Atmosphere","category":"badminton training","phone":"6136344263","address":"628 Gardiners Rd, Kingston, ON K7M 3X9","postalcode":"K7M 3X9","website":" ","working_hour":"","latitude":"44.24424","longitude":"-76.567837"},{"source":"yellow page","service_name":"Roots","category":"badminton training","phone":"613-546-7668","address":"229 Princess St, Kingston, ON K7L 1B3","postalcode":"K7L 1B3","website":" ","working_hour":"","latitude":"44.232334","longitude":"-76.486587"},{"source":"yellow page","service_name":"Reebok","category":"badminton training","phone":"613-634-7052","address":"97 Dalton Ave, Kingston, ON K7K 0C4","postalcode":"K7K 0C4","website":"http://www.reebok.com","working_hour":"","latitude":"44.266434","longitude":"-76.505146"},{"source":"yellow page","service_name":"Urban Outfitters","category":"badminton training","phone":"6135497621","address":"201 Princess St, Kingston, ON K7L 1B3","postalcode":"K7L 1B3","website":"http://www.urbanoutfitters.com","working_hour":"","latitude":"44.232248","longitude":"-76.485819"},{"source":"yellow page","service_name":"Sports Experts","category":"badminton training","phone":"613-342-2275","address":"220 Crocker Cres, Brockville, ON K6V 0A4","postalcode":"K6V 0A4","website":"http://www.sportsexperts.ca/","working_hour":"","latitude":"44.612882","longitude":"-75.689076"},{"source":"yellow page","service_name":"Sport Chek","category":"badminton training","phone":"6133840160","address":"945 Gardiners Rd, Kingston, ON K7M 7H4","postalcode":"K7M 7H4","website":"http://sportchek.ca","working_hour":"","latitude":"44.256425","longitude":"-76.568771"},{"source":"yellow page","service_name":"Boathouse","category":"badminton training","phone":"6133845079","address":"945 Gardiners Rd, Kingston, ON K7M 7H4","postalcode":"K7M 7H4","website":"http://boathousestores.com","working_hour":"","latitude":"44.256425","longitude":"-76.568771"},{"source":"yellow page","service_name":"The Sports Madhouse","category":"badminton training","phone":"613-354-3663","address":"17 McPherson Drive, Napanee, ON K7R 3L1","postalcode":"K7R 3L1","website":" ","working_hour":"Monday 10:00 am - 6:00 pm   Tuesday 10:00 am - 6:00 pm   Wednesday 10:00 am - 6:00 pm   Thursday 10:00 am - 6:00 pm   Friday 10:00 am - 7:00 pm   Saturday 9:00 am - 5:00 pm   Sunday 11:00 am - 5:00 pm","latitude":"44.2595266","longitude":"-76.9705319"},{"source":"yellow page","service_name":"Born 2 Dance Boutique","category":"badminton training","phone":"613-532-8892","address":"23 Dundas St E, Dundas, ON L9H 7H8","postalcode":"L9H 7H8","website":" ","working_hour":"","latitude":"44.247773","longitude":"-76.9496526"},{"source":"yellow page","service_name":"Play It Again Sports","category":"badminton training","phone":"613-732-1770","address":"45 Pembroke St W, Pembroke, ON K8A 5M5","postalcode":"K8A 5M5","website":"http://www.PlayitagainSportsArnprior-Pembroke.com","working_hour":"","latitude":"45.8260841","longitude":"-77.1136768"},{"source":"yellow page","service_name":"Outdoor Bound Outfitter","category":"badminton training","phone":"6136285454","address":"291 Bridge, Eganville, ON K0J 1T0","postalcode":"K0J 1T0","website":" ","working_hour":"","latitude":"45.540298","longitude":"-77.100783"},{"source":"yellow page","service_name":"DeRoche Sports World","category":"badminton training","phone":"613-476-2735","address":"376 Main St, Picton, ON K0K 2T0","postalcode":"K0K 2T0","website":" ","working_hour":"","latitude":"43.95061","longitude":"-77.203992"},{"source":"yellow page","service_name":"Canadian Sport Subs","category":"badminton training","phone":"343-600-0227","address":"51 Pinnacle St S, Belleville, ON K8N 3A1","postalcode":"K8N 3A1","website":" ","working_hour":"Monday 10:00 am - 5:00 pm   Tuesday 10:00 am - 5:00 pm   Wednesday 10:00 am - 5:00 pm   Thursday 10:00 am - 5:00 pm   Friday 10:00 am - 5:00 pm   Saturday 10:00 am - 3:00 pm","latitude":"44.158096","longitude":"-77.3797701"},{"source":"yellow page","service_name":"Duvall & Clark Sportswear & Equipment","category":"badminton training","phone":"613-968-3340","address":"274 Airport Pky, Belleville, ON K8N 4Z6","postalcode":"K8N 4Z6","website":" ","working_hour":"Monday 9:30 am - 6:00 pm   Tuesday 9:30 am - 6:00 pm   Wednesday 9:30 am - 6:00 pm   Thursday 9:30 am - 6:00 pm   Friday 9:30 am - 6:00 pm   Saturday 9:00 am - 5:00 pm","latitude":"44.1934327","longitude":"-77.3201923"},{"source":"yellow page","service_name":"AM Sports Napanee Limited","category":"badminton training","phone":"613-354-6276","address":"16 McPherson Dr, Napanee, ON K7R 3L1","postalcode":"K7R 3L1","website":"http://www.amsports.ca/","working_hour":"Monday 10:00 am - 8:00 pm   Tuesday 10:00 am - 8:00 pm   Wednesday 10:00 am - 8:00 pm   Thursday 10:00 am - 8:00 pm   Friday 10:00 am - 8:00 pm   Saturday 10:00 am - 8:00 pm","latitude":"44.2594955","longitude":"-76.9705438"},{"source":"yellow page","service_name":"Sport Chek","category":"badminton training","phone":"613-962-3113","address":"390 N Front St, Belleville, ON K8P 3E1","postalcode":"K8P 3E1","website":"http://www.sportchek.ca","working_hour":"","latitude":"44.1681773","longitude":"-77.3858737"},{"source":"yellow page","service_name":"Sport Mart","category":"badminton training","phone":"613-969-8922","address":"190 Bell Blvd, Belleville, ON K8P 5L2","postalcode":"K8P 5L2","website":"http://www.sportmart.ca","working_hour":"","latitude":"44.1852806","longitude":"-77.4093322"},{"source":"yellow page","service_name":"Old Navy","category":"badminton training","phone":"613-962-0484","address":"390 North Front St, Belleville, ON K8P 3E1","postalcode":"K8P 3E1","website":"http://oldnavy.gapcanada.ca","working_hour":"","latitude":"44.188332","longitude":"-77.3964436"},{"source":"yellow page","service_name":"JoAnne Sharpley's Source For Sports","category":"badminton training","phone":"705-457-3933","address":"206 Highland Street, Haliburton, ON K0M 1S0","postalcode":"K0M 1S0","website":"http://www.sourceforsports.com/Stores/123-JoAnne-Sharpleys-Haliburton-Source-For-Sports.aspx","working_hour":"","latitude":"45.0461797","longitude":"-78.5093289"},{"source":"yellow page","service_name":"Chesher's Outdoor Store","category":"badminton training","phone":"6133321613","address":"27440 Hwy 62, Bancroft, ON K0L 1C0","postalcode":"K0L 1C0","website":"http://www.cheshersoutdoor.com","working_hour":"","latitude":"45.0411271","longitude":"-77.8301693"},{"source":"yellow page","service_name":"Lee's Badminton Training Centre","category":"badminton training","phone":"905-940-0703","address":"3-80D Centurian Dr, Markham, ON L3R 8C1","postalcode":"L3R 8C1","website":"http://www.leesbadminton.ca","working_hour":"Monday 10:00 am - 11:00 pm   Tuesday 10:00 am - 11:00 pm   Wednesday 10:00 am - 11:00 pm   Thursday 10:00 am - 11:00 pm   Friday 10:00 am - 12:00 am   Saturday 9:30 am - 11:00 pm   Sunday 10:00 am - 9:00 pm","latitude":"43.8523079","longitude":"-79.3639233"},{"source":"yellow page","service_name":"Game On","category":"badminton training","phone":"613-695-4263","address":"1200 St. Laurent Blvd, Ottawa, ON K1K 3B8","postalcode":"K1K 3B8","website":" ","working_hour":"","latitude":"45.423347","longitude":"-75.63691"},{"source":"yellow page","service_name":"Marc Sports La Source du Sport","category":"badminton training","phone":"819-663-1069","address":"455, boul Maloney E, Gatineau, QC J8P 6Z8","postalcode":"J8P 6Z8","website":" ","working_hour":"Monday 9:00 am - 6:00 pm   Tuesday 9:00 am - 6:00 pm   Wednesday 9:00 am - 6:00 pm   Thursday 9:00 am - 9:00 pm   Friday 9:00 am - 9:00 pm   Saturday 9:00 am - 5:00 pm   Sunday 11:00 am - 4:00 pm   Closed On Sundays From June 24th To mid-August","latitude":"45.484865","longitude":"-75.636266"},{"source":"yellow page","service_name":"The Stabilizer","category":"badminton training","phone":"613-748-5447","address":"1704 Jobin Cres, Ottawa, ON K1J 1C5","postalcode":"K1J 1C5","website":" ","working_hour":"","latitude":"45.428706","longitude":"-75.618372"},{"source":"yellow page","service_name":"Play It Again Sports","category":"badminton training","phone":"613-837-7529","address":"3885 Innes Rd, Orleans, ON K1C 1T1","postalcode":"K1C 1T1","website":"http://playitagainsportsottawa.com","working_hour":"","latitude":"45.4531158","longitude":"-75.5112784"},{"source":"yellow page","service_name":"Zumiez","category":"badminton training","phone":"6137423722","address":"1200 St. Laurent Blvd, Ottawa, ON K1K 3B8","postalcode":"K1K 3B8","website":" ","working_hour":"","latitude":"45.423347","longitude":"-75.63691"},{"source":"yellow page","service_name":"Apple Saddlery","category":"badminton training","phone":"613-744-4040","address":"1875 Innes Rd, Gloucester, ON K1B 4C6","postalcode":"K1B 4C6","website":"http://www.applesaddlery.com","working_hour":"","latitude":"45.419165","longitude":"-75.59988"},{"source":"yellow page","service_name":"Tommy And Lefebvre Sports Shops","category":"badminton training","phone":"613-260-9111","address":"2525 Lancaster Rd, Ottawa, ON K1B 4L5","postalcode":"K1B 4L5","website":" ","working_hour":"","latitude":"45.401352","longitude":"-75.614895"},{"source":"yellow page","service_name":"V S P Sports","category":"badminton training","phone":"613-749-6885","address":"505 Industrial Ave, Ottawa, ON K1G 0Z1","postalcode":"K1G 0Z1","website":"http://www.vsp.net","working_hour":"","latitude":"45.411758","longitude":"-75.647465"},{"source":"yellow page","service_name":"Lacroix Source for Sports","category":"badminton training","phone":"613-824-5196","address":"2062 St. Joseph Blvd, Orleans, ON K1C 1E6","postalcode":"K1C 1E6","website":" ","working_hour":"","latitude":"45.465771","longitude":"-75.536543"},{"source":"yellow page","service_name":"The Corner Shop","category":"badminton training","phone":"613-292-1662","address":"525 cote St, Ottawa, ON K1K 0Z8","postalcode":"K1K 0Z8","website":" ","working_hour":"","latitude":"45.4355503","longitude":"-75.6463313"},{"source":"yellow page","service_name":"Sports Experts","category":"badminton training","phone":"6132375760","address":"242-50 Rideau St, Ottawa, ON K1N 9J7","postalcode":"K1N 9J7","website":" ","working_hour":"","latitude":"45.443951","longitude":"-75.679021"},{"source":"yellow page","service_name":"Sport Chek","category":"badminton training","phone":"613-741-3378","address":"Y005-1200 St. Laurent Blvd, Ottawa, ON K1K 3B8","postalcode":"K1K 3B8","website":" ","working_hour":"","latitude":"45.422504","longitude":"-75.637905"},{"source":"yellow page","service_name":"Sport Mart","category":"badminton training","phone":"613-842-9995","address":"2-2280 City Park Dr, Gloucester, ON K1J 1J6","postalcode":"K1J 1J6","website":"http://sportmart.ca","working_hour":"","latitude":"45.43079","longitude":"-75.611273"},{"source":"yellow page","service_name":"West 49","category":"badminton training","phone":"613-590-7866","address":"110 place d'Orléans Dr, Orléans, ON K1C 2L9","postalcode":"K1C 2L9","website":"http://www.west49.com/","working_hour":"","latitude":"45.479578","longitude":"-75.51685"},{"source":"yellow page","service_name":"Lacroix Source For Sports","category":"badminton training","phone":"6138241413","address":"2062 St Joseph Blvd, Ottawa, ON","postalcode":"","website":" ","working_hour":"","latitude":"45.465771","longitude":"-75.536543"},{"source":"yellow page","service_name":"Foot Locker","category":"badminton training","phone":"613-824-3665","address":"110 place d'Orléans Dr, Orléans, ON K1C 2L9","postalcode":"K1C 2L9","website":" ","working_hour":"","latitude":"45.479578","longitude":"-75.51685"},{"source":"yellow page","service_name":"Figure 8 / Hockey One Skate Specialists","category":"badminton training","phone":"613-912-3217","address":"380 Industrial Ave, Ottawa, ON K1G 0Y9","postalcode":"K1G 0Y9","website":" ","working_hour":"Monday 9:00 am - 6:00 pm   Tuesday 9:00 am - 6:00 pm   Wednesday 9:00 am - 9:00 pm   Thursday 9:00 am - 9:00 pm   Friday 9:00 am - 9:00 pm   Saturday 9:00 am - 5:00 pm   Sunday 11:00 am - 5:00 pm","latitude":"45.4110412612","longitude":"-75.65260315"},{"source":"yellow page","service_name":"Sport Chek","category":"badminton training","phone":"613-824-9933","address":"2400-110 place d'Orléans Dr, Orléans, ON K1C 2L9","postalcode":"K1C 2L9","website":"http://sportchek.ca","working_hour":"","latitude":"45.479578","longitude":"-75.51685"},{"source":"yellow page","service_name":"West 49","category":"badminton training","phone":"6137411381","address":"1200 St. Laurent Blvd, Ottawa, ON K1K 3B8","postalcode":"K1K 3B8","website":"http://www.west49.com/","working_hour":"","latitude":"45.423347","longitude":"-75.63691"},{"source":"yellow page","service_name":"Autoracks Ottawa","category":"badminton training","phone":"613-722-5759","address":"2249 Gladwin Cres, Ottawa, ON K1B 4K9","postalcode":"K1B 4K9","website":" ","working_hour":"","latitude":"45.4037237","longitude":"-75.6239812"},{"source":"yellow page","service_name":"Sports Experts - Atmosphere","category":"badminton training","phone":"613-590-0755","address":"4338, Innes Rd, Orleans, ON K4A 3W3","postalcode":"K4A 3W3","website":" ","working_hour":"","latitude":"45.45947","longitude":"-75.492462"},{"source":"yellow page","service_name":"Houle Sports","category":"badminton training","phone":"613-830-6663","address":"2026 Lanthier Dr, Ottawa, ON","postalcode":"","website":" ","working_hour":"","latitude":"45.457822","longitude":"-75.49225"},{"source":"yellow page","service_name":"Eddie Bauer","category":"badminton training","phone":"6138410460","address":"700-110 place d'Orléans Drive, Orléans, ON K1C 2L9","postalcode":"K1C 2L9","website":"http://www.eddiebauer.com","working_hour":"","latitude":"45.479578","longitude":"-75.51685"},{"source":"yellow page","service_name":"Kiddie Kobbler","category":"badminton training","phone":"613-834-8876","address":"110 place d'Orléans Dr, Orléans, ON K1C 2L9","postalcode":"K1C 2L9","website":" ","working_hour":"Monday 9:30 am - 8:00 pm   Tuesday 9:30 am - 8:00 pm   Wednesday 9:30 am - 8:00 pm   Thursday 9:30 am - 8:00 pm   Friday 9:30 am - 8:00 pm   Saturday 9:30 am - 6:00 pm   Sunday 11:00 am - 5:00 pm","latitude":"45.479578","longitude":"-75.51685"},{"source":"yellow page","service_name":"Running Room","category":"badminton training","phone":"613-830-7539","address":"411-260 Centrum Blvd, Orleans, ON K1E 3P4","postalcode":"K1E 3P4","website":" ","working_hour":"","latitude":"45.480703","longitude":"-75.509469"},{"source":"yellow page","service_name":"SM Sports Plus","category":"badminton training","phone":"819-635-3158","address":"97, rue Mercier, Val-des-Monts, QC J8N 7T9","postalcode":"J8N 7T9","website":" ","working_hour":"Monday 9:00 am - 5:00 pm   Tuesday 9:00 am - 5:00 pm   Wednesday 9:00 am - 5:00 pm   Thursday 9:00 am - 5:00 pm   Friday 9:00 am - 5:00 pm","latitude":"45.55902","longitude":"-75.62366"},{"source":"yellow page","service_name":"Play It Again Sports","category":"badminton training","phone":"613-731-6006","address":"1701 Bank St, Ottawa, ON K1V 7Z4","postalcode":"K1V 7Z4","website":"http://playitagainsportsottawa.com","working_hour":"","latitude":"45.375124","longitude":"-75.665751"},{"source":"yellow page","service_name":"Wilansky Hockey Equipment","category":"badminton training","phone":"613-816-3925","address":"Ottawa, ON K1T 0L2","postalcode":"K1T 0L2","website":" ","working_hour":"","latitude":"45.329124","longitude":"-75.591776"},{"source":"yellow page","service_name":"Disalvo Sports Soccer Store","category":"badminton training","phone":"613-523-0826","address":"1408 Bank St, Ottawa, ON K1H 7Y9","postalcode":"K1H 7Y9","website":" ","working_hour":"","latitude":"45.383006","longitude":"-75.671306"},{"source":"yellow page","service_name":"Rebec And Kroes Cycle And Sport","category":"badminton training","phone":"6135213791","address":"15B-2679 Alta Vista Dr, Ottawa, ON K1V 7T5","postalcode":"K1V 7T5","website":"http://www.rebecandkroes.com","working_hour":"","latitude":"45.3731095","longitude":"-75.6633974"},{"source":"yellow page","service_name":"Performance Tennis","category":"badminton training","phone":"613-612-0910","address":"70A Leonard Ave, Ottawa, ON K1S 4V6","postalcode":"K1S 4V6","website":" ","working_hour":"","latitude":"45.3915866","longitude":"-75.6877759"},{"source":"yellow page","service_name":"Brio Bodywear","category":"badminton training","phone":"613-567-9291","address":"911 Bank St, Ottawa, ON K1S 3W5","postalcode":"K1S 3W5","website":"http://www.briobodywear.ca","working_hour":"Monday 10:00 am - 6:00 pm   Tuesday 10:00 am - 6:00 pm   Wednesday 10:00 am - 6:00 pm   Thursday 10:00 am - 6:00 pm   Friday 10:00 am - 8:00 pm   Saturday 10:00 am - 5:30 pm   Sunday 12:00 pm - 4:00 pm","latitude":"45.400185","longitude":"-75.686758"},{"source":"yellow page","service_name":"Pro Hockey Life","category":"badminton training","phone":"613-526-5225","address":"2420 Bank St, Ottawa, ON K1V 8S1","postalcode":"K1V 8S1","website":" ","working_hour":"","latitude":"45.3544","longitude":"-75.649393"},{"source":"yellow page","service_name":"Kunstadt Sports","category":"badminton training","phone":"613-260-0696","address":"1583 Bank St, Ottawa, ON K1H 7Z3","postalcode":"K1H 7Z3","website":" ","working_hour":"","latitude":"45.379034","longitude":"-75.667653"},{"source":"yellow page","service_name":"Pro Fix Sports","category":"badminton training","phone":"613-667-3010","address":"28 Wales Dr, ON K0C 1M0","postalcode":"K0C 1M0","website":" ","working_hour":"","latitude":"45.3958752","longitude":"-75.7071065"},{"source":"yellow page","service_name":"Preston Soccer","category":"badminton training","phone":"613-321-7545","address":"155 Preston St, Ottawa, ON K1R 7P6","postalcode":"K1R 7P6","website":" ","working_hour":"","latitude":"45.4071488","longitude":"-75.7134455"},{"source":"yellow page","service_name":"Sports 4","category":"badminton training","phone":"613-234-6562","address":"149 Bank St, Ottawa, ON K1P 5N7","postalcode":"K1P 5N7","website":" ","working_hour":"Monday 9:30 am - 6:00 pm   Tuesday 9:30 am - 6:00 pm   Wednesday 9:30 am - 6:00 pm   Thursday 9:30 am - 8:00 pm   Friday 9:30 am - 8:00 pm   Saturday 9:30 am - 5:30 pm   Sunday 12:00 pm - 5:00 pm","latitude":"45.418961","longitude":"-75.699416"},{"source":"yellow page","service_name":"PHG Sports Maritime","category":"badminton training","phone":"9025803667","address":"NS","postalcode":"","website":" ","working_hour":"","latitude":"45.420421","longitude":"-75.692432"},{"source":"yellow page","service_name":"Baseball Town","category":"badminton training","phone":"613-563-9998","address":"464 Bank St, Ottawa, ON K2P 1Z3","postalcode":"K2P 1Z3","website":" ","working_hour":"","latitude":"45.411122","longitude":"-75.692997"},{"source":"yellow page","service_name":"Running Room Canada Inc","category":"badminton training","phone":"613-233-5165","address":"160 Slater St, Ottawa, ON K1P 5H8","postalcode":"K1P 5H8","website":" ","working_hour":"","latitude":"45.4203182","longitude":"-75.6974753"},{"source":"yellow page","service_name":"Kunstadt Sports","category":"badminton training","phone":"613-233-4820","address":"680 Bank St, Ottawa, ON K1S 3T9","postalcode":"K1S 3T9","website":"http://kunstadt.com","working_hour":"Monday 9:30 am - 9:00 pm   Tuesday 9:30 am - 9:00 pm   Wednesday 9:30 am - 9:00 pm   Thursday 9:30 am - 9:00 pm   Friday 9:30 am - 9:00 pm   Saturday 9:30 am - 6:00 pm   Sunday 11:00 am - 5:00 pm","latitude":"45.405577","longitude":"-75.689833"},{"source":"yellow page","service_name":"Running Room","category":"badminton training","phone":"613-233-5617","address":"901 Bank St, Ottawa, ON K1S 3W5","postalcode":"K1S 3W5","website":" ","working_hour":"","latitude":"45.400375","longitude":"-75.686757"},{"source":"yellow page","service_name":"Foster's Sports Centre Ltd","category":"badminton training","phone":"613-236-9611","address":"305 Bank St, Ottawa, ON K2P 1X7","postalcode":"K2P 1X7","website":"http://www.fosterssports.ca","working_hour":"","latitude":"45.41485","longitude":"-75.695911"},{"source":"yellow page","service_name":"Arlie's Sport","category":"badminton training","phone":"613-565-0681","address":"50 Rideau St, Ottawa, ON K1N 9J7","postalcode":"K1N 9J7","website":" ","working_hour":"","latitude":"45.4259914","longitude":"-75.6921741"},{"source":"yellow page","service_name":"Athletes World Fila Shop","category":"badminton training","phone":"6135694172","address":"50 Rideau St, Ottawa, ON K1N 9J7","postalcode":"K1N 9J7","website":" ","working_hour":"","latitude":"45.4259914","longitude":"-75.6921741"},{"source":"yellow page","service_name":"Urban Outfitters","category":"badminton training","phone":"6136953262","address":"135 Rideau St, Ottawa, ON K1N 5X4","postalcode":"K1N 5X4","website":"http://www.urbanoutfitters.com/","working_hour":"","latitude":"45.4268343","longitude":"-75.6902981"},{"source":"yellow page","service_name":"Avalanche","category":"badminton training","phone":"8192432207","address":"1100 boul Maloney O, Gatineau, QC J8T 6G3","postalcode":"J8T 6G3","website":" ","working_hour":"","latitude":"45.477341","longitude":"-75.69803"},{"source":"yellow page","service_name":"Tommy And Lefebvre Sport Shops","category":"badminton training","phone":"819-568-3595","address":"530, boul de la Gappe, Gatineau, QC J8T 8A8","postalcode":"J8T 8A8","website":"http://www.tandl.com","working_hour":"","latitude":"45.479373","longitude":"-75.695248"},{"source":"yellow page","service_name":"Elgin Sports","category":"badminton training","phone":"613-563-3999","address":"1-250 Albert St, Ottawa, ON K1P 6M1","postalcode":"K1P 6M1","website":" ","working_hour":"","latitude":"45.419719","longitude":"-75.700227"},{"source":"yellow page","service_name":"S 3","category":"badminton training","phone":"819-568-1333","address":"1100, boul Maloney O, Gatineau, QC J8T 6G3","postalcode":"J8T 6G3","website":" ","working_hour":"","latitude":"45.477341","longitude":"-75.69803"},{"source":"yellow page","service_name":"Xtreme Energy","category":"badminton training","phone":"819-246-8880","address":"1100, boul Maloney O, Gatineau, QC J8T 6G3","postalcode":"J8T 6G3","website":" ","working_hour":"","latitude":"45.477341","longitude":"-75.69803"},{"source":"yellow page","service_name":"Sports Experts - Atmosphere","category":"badminton training","phone":"819-243-3711","address":"1100, boul Maloney O, Gatineau, QC J8T 6G3","postalcode":"J8T 6G3","website":"http://www.atmospherepleinair.ca","working_hour":"","latitude":"45.477341","longitude":"-75.69803"},{"source":"yellow page","service_name":"Pecco's","category":"badminton training","phone":"819-771-8933","address":"85, prom du Portage, Gatineau, QC J8X 2K2","postalcode":"J8X 2K2","website":" ","working_hour":"Monday 9:00 am - 6:00 pm   Tuesday 9:00 am - 6:00 pm   Wednesday 9:00 am - 6:00 pm   Thursday 9:00 am - 8:00 pm   Friday 9:00 am - 8:00 pm   Saturday 9:00 am - 5:00 pm","latitude":"45.425211","longitude":"-75.717758"},{"source":"yellow page","service_name":"La Maison de la Couture et Boutique de Vêtements Lolë","category":"badminton training","phone":"819-771-7776","address":"333 boul Saint-Joseph, Gatineau, QC J8Y 3Z2","postalcode":"J8Y 3Z2","website":" ","working_hour":"Monday 9:30 am - 6:00 pm   Tuesday 9:30 am - 6:00 pm   Wednesday 9:30 am - 6:00 pm   Thursday 9:30 am - 6:00 pm   Friday 9:30 am - 6:00 pm   Saturday 10:00 am - 4:00 pm","latitude":"45.4413336","longitude":"-75.7328005"},{"source":"yellow page","service_name":"Sport Echange Outaouais Inc","category":"badminton training","phone":"819-414-2869","address":"1065, boul de la Carrière, Gatineau, QC J8Y 6V5","postalcode":"J8Y 6V5","website":" ","working_hour":"Monday 10:00 am - 6:00 pm   Tuesday 10:00 am - 6:00 pm   Wednesday 10:00 am - 6:00 pm   Thursday 10:00 am - 8:00 pm   Friday 10:00 am - 8:00 pm   Saturday 9:00 am - 5:00 pm   Sunday 11:00 am - 5:00 pm","latitude":"45.459198","longitude":"-75.733963"},{"source":"yellow page","service_name":"Golf Clearance Warehouse","category":"badminton training","phone":"613-963-0579","address":"150 Katimavik Rd, Kanata, ON K2L 2N2","postalcode":"K2L 2N2","website":" ","working_hour":"","latitude":"45.311929","longitude":"-75.894416"},{"source":"yellow page","service_name":"Adidas Canada Ltd","category":"badminton training","phone":"6138312240","address":"8555 Campeau Dr, Kanata, ON K2T 0K5","postalcode":"K2T 0K5","website":" ","working_hour":"","latitude":"45.319314","longitude":"-75.934338"},{"source":"yellow page","service_name":"Sport Chek","category":"badminton training","phone":"6132711513","address":"Q1-785 Kanata Ave, Kanata, ON K2T 1H9","postalcode":"K2T 1H9","website":"http://www.sportchek.ca","working_hour":"","latitude":"45.312158","longitude":"-75.910747"},{"source":"yellow page","service_name":"Pro Hockey Life","category":"badminton training","phone":"613-595-0550","address":"140 Roland Michener Dr, Ottawa, ON K2T 1K4","postalcode":"K2T 1K4","website":" ","working_hour":"","latitude":"45.308725","longitude":"-75.91145"},{"source":"yellow page","service_name":"Clubhouse","category":"badminton training","phone":"613-836-1505","address":"145 Roland Michener Dr, Kanata, ON K2T 1G7","postalcode":"K2T 1G7","website":"http://www.morethanjustcaps.com","working_hour":"","latitude":"45.3086704","longitude":"-75.9126881"},{"source":"yellow page","service_name":"Nike","category":"badminton training","phone":"6138366629","address":"8555 Campeau Dr, Kanata, ON K2T 0K5","postalcode":"K2T 0K5","website":" ","working_hour":"","latitude":"45.319314","longitude":"-75.934338"},{"source":"yellow page","service_name":"Sport Mart","category":"badminton training","phone":"613-270-0960","address":"1-145 Roland Michener Dr, Kanata, ON K2T 1G7","postalcode":"K2T 1G7","website":"http://sportmart.ca","working_hour":"","latitude":"45.3086704","longitude":"-75.9126881"},{"source":"yellow page","service_name":"Kunstadt Sports","category":"badminton training","phone":"613-831-2059","address":"12-462 Hazeldean Rd, Kanata, ON K2L 1V3","postalcode":"K2L 1V3","website":" ","working_hour":"Monday 9:30 am - 9:00 pm   Tuesday 9:30 am - 9:00 pm   Wednesday 9:30 am - 9:00 pm   Thursday 9:30 am - 9:00 pm   Friday 9:30 am - 9:00 pm   Saturday 9:30 am - 6:00 pm   Sunday 11:00 am - 5:00 pm","latitude":"45.29909","longitude":"-75.88678"},{"source":"yellow page","service_name":"Sports Experts","category":"badminton training","phone":"613-829-7680","address":"100 Bayshore Dr, Ottawa, ON K2B 8C1","postalcode":"K2B 8C1","website":"http://www.sportsexperts.ca/","working_hour":"","latitude":"45.348855","longitude":"-75.804625"},{"source":"yellow page","service_name":"Medical Data Carrier","category":"badminton training","phone":"613-709-2941","address":"400-303 Moodie Dr, Ottawa, ON K2H 9R4","postalcode":"K2H 9R4","website":" ","working_hour":"","latitude":"45.3264914","longitude":"-75.8356797"},{"source":"yellow page","service_name":"Rink Pro Sports Inc","category":"badminton training","phone":"613-831-8936","address":"6081 Hazeldean, Stittsville, ON K2S 1B9","postalcode":"K2S 1B9","website":"http://www.rink-pro.com","working_hour":"","latitude":"45.271759","longitude":"-75.931454"},{"source":"yellow page","service_name":"Zumiez","category":"badminton training","phone":"6138200882","address":"C15-100 Bayshore Dr, Nepean, ON K2B 8C1","postalcode":"K2B 8C1","website":" ","working_hour":"","latitude":"45.347668","longitude":"-75.806394"},{"source":"yellow page","service_name":"Nike Factory Store","category":"badminton training","phone":"6138317415","address":"290-8555 Campeau Dr, Kanata, ON K2T 1B7","postalcode":"K2T 1B7","website":" ","working_hour":"","latitude":"45.297774","longitude":"-75.93646"},{"source":"yellow page","service_name":"Active","category":"badminton training","phone":"613-271-7597","address":"400 Earl Grey Dr, Kanata, ON K2T 1B9","postalcode":"K2T 1B9","website":" ","working_hour":"","latitude":"45.3102398","longitude":"-75.9117728"},{"source":"yellow page","service_name":"Puma Canada Inc","category":"badminton training","phone":"6138312219","address":"8555 Campeau Dr, Kanata, ON K2T 1B7","postalcode":"K2T 1B7","website":" ","working_hour":"","latitude":"45.307639","longitude":"-75.919011"},{"source":"yellow page","service_name":"Adidas","category":"badminton training","phone":"6138312240","address":"410-333 Huntmar Drive, Ottawa, ON K0A 1L0","postalcode":"K0A 1L0","website":" ","working_hour":"","latitude":"45.299847","longitude":"-75.934359"},{"source":"yellow page","service_name":"Planète Foot Eurosport","category":"badminton training","phone":"819-414-3676","address":"150, rue Montcalm, Gatineau, QC J8X 2M2","postalcode":"J8X 2M2","website":" ","working_hour":"Monday 12:00 pm - 6:00 pm   Tuesday 12:00 pm - 6:00 pm   Wednesday 12:00 pm - 6:00 pm   Thursday 12:00 pm - 8:00 pm   Friday 12:00 pm - 8:00 pm   Saturday 10:00 am - 5:00 pm   Sunday 10:00 am - 5:00 pm","latitude":"45.429191","longitude":"-75.725872"},{"source":"yellow page","service_name":"Play It Again Sports","category":"badminton training","phone":"613-599-9937","address":"488 Terry Fox, Kanata, ON K2T 1L3","postalcode":"K2T 1L3","website":"http://playitagainsportsottawa.com","working_hour":"","latitude":"45.309727","longitude":"-75.921145"},{"source":"yellow page","service_name":"West 49","category":"badminton training","phone":"613-596-4422","address":"100 Bayshore Dr, Ottawa, ON K2B 8C1","postalcode":"K2B 8C1","website":" ","working_hour":"","latitude":"45.348855","longitude":"-75.804625"},{"source":"yellow page","service_name":"Zumiez","category":"badminton training","phone":"6138312019","address":"8555 Campeau Dr, Kanata, ON K2T 1B7","postalcode":"K2T 1B7","website":" ","working_hour":"","latitude":"45.307639","longitude":"-75.919011"},{"source":"yellow page","service_name":"Duguay Sports Inc","category":"badminton training","phone":"819-412-1253","address":"400, boul Alexandre-Taché, Gatineau, QC J9A 1M5","postalcode":"J9A 1M5","website":"http://www.duguaysports.com","working_hour":"Monday 9:00 am - 6:00 pm   Tuesday 9:00 am - 6:00 pm   Wednesday 9:00 am - 6:00 pm   Thursday 9:00 am - 9:00 pm   Friday 9:00 am - 9:00 pm   Saturday 9:00 am - 5:00 pm   Sunday 10:00 am - 4:00 pm","latitude":"45.4214554","longitude":"-75.7469716"},{"source":"yellow page","service_name":"VIP Plein Air S G Surplus d'Armée","category":"badminton training","phone":"819-778-3497","address":"121, boul Saint-Joseph, Gatineau, QC J8Y 3W7","postalcode":"J8Y 3W7","website":" ","working_hour":"Monday 9:30 am - 6:00 pm   Tuesday 9:30 am - 6:00 pm   Wednesday 9:30 am - 6:00 pm   Thursday 9:30 am - 9:00 pm   Friday 9:30 am - 9:00 pm   Saturday 9:30 am - 5:00 pm   Sunday 11:00 am - 5:00 pm","latitude":"45.4312655","longitude":"-75.7333516"},{"source":"yellow page","service_name":"Tim's Used Sports","category":"badminton training","phone":"613-729-9005","address":"1280 Wellington St W, Ottawa, ON K1Y 3A7","postalcode":"K1Y 3A7","website":"http://timsusedsports.ca/","working_hour":"24 hours a day - 7 days a week   Call Us","latitude":"45.3990356","longitude":"-75.7349032"},{"source":"yellow page","service_name":"Wooki Ca","category":"badminton training","phone":"819-205-7244","address":"Maître-73, boul Saint-Joseph, Gatineau, QC J8Y 3W3","postalcode":"J8Y 3W3","website":" ","working_hour":"","latitude":"45.428543","longitude":"-75.733555"},{"source":"yellow page","service_name":"SportVision","category":"badminton training","phone":"613-738-0714","address":"200 Colonnade Rd, Nepean, ON K2E 7M1","postalcode":"K2E 7M1","website":" ","working_hour":"","latitude":"45.3418973","longitude":"-75.7128569"},{"source":"yellow page","service_name":"Running Room Canada Inc","category":"badminton training","phone":"613-228-3100","address":"1518 Merivale Rd, Nepean, ON K2G 3J6","postalcode":"K2G 3J6","website":" ","working_hour":"","latitude":"45.356569","longitude":"-75.7369452"},{"source":"yellow page","service_name":"Sport Mart","category":"badminton training","phone":"613-226-7255","address":"1651 Merivale Rd, Ottawa, ON K2G 3K2","postalcode":"K2G 3K2","website":"http://sportmart.ca","working_hour":"","latitude":"45.349561","longitude":"-75.7326003"},{"source":"yellow page","service_name":"Clubhouse","category":"badminton training","phone":"613-224-9293","address":"1556 Merivale Rd, Nepean, ON K2G 3J8","postalcode":"K2G 3J8","website":"http://www.morethanjustcaps.com","working_hour":"","latitude":"45.353652","longitude":"-75.735212"},{"source":"yellow page","service_name":"Fgl Sports Ltd","category":"badminton training","phone":"6132262586","address":"1642 Merivale Rd, Nepean, ON K2G 4A1","postalcode":"K2G 4A1","website":" ","working_hour":"","latitude":"45.345851","longitude":"-75.730563"},{"source":"yellow page","service_name":"New Balance Ottawa","category":"badminton training","phone":"6132242424","address":"1371 Woodroffe Ave, Nepean, ON K2G 1V7","postalcode":"K2G 1V7","website":"http://www.newbalance.com","working_hour":"","latitude":"45.3497109","longitude":"-75.7616877"},{"source":"yellow page","service_name":"Sport Mart","category":"badminton training","phone":"613-226-7255","address":"1651 Mervale Rd","postalcode":"","website":" ","working_hour":"","latitude":"45.349561","longitude":"-75.7326003"},{"source":"yellow page","service_name":"Cycle Power","category":"badminton training","phone":"6137222453","address":"1574 Carling Ave, Ottawa, ON K1Z 7M4","postalcode":"K1Z 7M4","website":"http://www.cyclepower.ca","working_hour":"","latitude":"45.3813862","longitude":"-75.7446271"},{"source":"yellow page","service_name":"In 2 Sports","category":"badminton training","phone":"6136804625","address":"1558C Merivale Rd, Nepean, ON K2G 3J9","postalcode":"K2G 3J9","website":" ","working_hour":"","latitude":"45.3533114","longitude":"-75.7350224"},{"source":"yellow page","service_name":"Sport Chek","category":"badminton training","phone":"6132256674","address":"0580-1642 Merivale Rd, Nepean, ON K2G 4A1","postalcode":"K2G 4A1","website":" ","working_hour":"","latitude":"45.345851","longitude":"-75.730563"},{"source":"yellow page","service_name":"Play It Again Sports","category":"badminton training","phone":"613-843-9711","address":"3161 Greenbank Rd, Nepean, ON K2J 4H9","postalcode":"K2J 4H9","website":"http://playitagainsportsottawa.com","working_hour":"","latitude":"45.269843","longitude":"-75.745909"},{"source":"yellow page","service_name":"Source For Sports","category":"badminton training","phone":"6138236746","address":"1581 Greenbank Rd, Nepean, ON K2J 4Y6","postalcode":"K2J 4Y6","website":" ","working_hour":"","latitude":"45.273388","longitude":"-75.748023"},{"source":"yellow page","service_name":"Barrhaven Source For Sports","category":"badminton training","phone":"6138239022","address":"1581 Greenbank Rd, Nepean, ON K2J 4Y6","postalcode":"K2J 4Y6","website":" ","working_hour":"","latitude":"45.273388","longitude":"-75.748023"},{"source":"yellow page","service_name":"Sport Chek","category":"badminton training","phone":"613-825-7873","address":"2-125 Riocan Ave, Nepean, ON K2J 5G5","postalcode":"K2J 5G5","website":" ","working_hour":"Monday 8:00 am - 9:00 pm   Tuesday 8:00 am - 9:00 pm   Wednesday 8:00 am - 9:00 pm   Thursday 8:00 am - 9:00 pm   Friday 8:00 am - 9:00 pm   Saturday 9:00 am - 5:00 pm   Sunday 9:00 am - 5:00 pm","latitude":"45.269741","longitude":"-75.739238"},{"source":"yellow page","service_name":"Gear Garage","category":"badminton training","phone":"613-722-1874","address":"376 Madison Ave, Ottawa, ON K2A 0B7","postalcode":"K2A 0B7","website":"http://www.expeditionshoppe.com","working_hour":"Monday 12:00 pm - 6:00 pm   Tuesday 12:00 pm - 6:00 pm   Wednesday 12:00 pm - 6:00 pm   Thursday 12:00 pm - 8:00 pm   Friday 12:00 pm - 8:00 pm   Saturday 12:00 pm - 6:00 pm   Sunday 12:00 pm - 5:00 pm","latitude":"45.392053","longitude":"-75.756009"},{"source":"yellow page","service_name":"The Expedition Shoppe","category":"badminton training","phone":"613-722-0166","address":"369 Richmond Rd, Ottawa, ON K2A 0E7","postalcode":"K2A 0E7","website":" ","working_hour":"","latitude":"45.391464","longitude":"-75.755232"},{"source":"yellow page","service_name":"Chlorophylle","category":"badminton training","phone":"613-761-6094","address":"382 Richmond Rd, Ottawa, ON K2A 0E8","postalcode":"K2A 0E8","website":" ","working_hour":"","latitude":"45.391079","longitude":"-75.755709"},{"source":"yellow page","service_name":"Valiquette's Source For Sports","category":"badminton training","phone":"6137255352","address":"1740 Carling Ave, Ottawa, ON K2A 1E1","postalcode":"K2A 1E1","website":" ","working_hour":"Monday 10:00 am - 9:00 pm   Tuesday 10:00 am - 9:00 pm   Wednesday 10:00 am - 9:00 pm   Thursday 10:00 am - 9:00 pm   Friday 10:00 am - 9:00 pm   Saturday 9:00 am - 6:00 pm   Sunday 11:00 am - 5:00 pm","latitude":"45.378085","longitude":"-75.752288"},{"source":"yellow page","service_name":"Great Escape Outfitters","category":"badminton training","phone":"613-729-7777","address":"369 Richmond Rd, Ottawa, ON K2A 0E7","postalcode":"K2A 0E7","website":" ","working_hour":"Monday 10:00 am - 6:00 pm   Tuesday 10:00 am - 6:00 pm   Wednesday 10:00 am - 6:00 pm   Thursday 10:00 am - 9:00 pm   Friday 10:00 am - 9:00 pm   Saturday 10:00 am - 6:00 pm   Sunday 11:00 am - 5:00 pm","latitude":"45.391464","longitude":"-75.755232"},{"source":"yellow page","service_name":"Valiquette Sports","category":"badminton training","phone":"6137255352","address":"1740 Carling Ave, Ottawa, ON K2A 1E1","postalcode":"K2A 1E1","website":" ","working_hour":"","latitude":"45.378085","longitude":"-75.752288"},{"source":"yellow page","service_name":"Mountain Equipment Co-Op","category":"badminton training","phone":"6137292700","address":"366 Richmond Rd, Ottawa, ON K2A 0E8","postalcode":"K2A 0E8","website":"http://www.mec.ca","working_hour":"","latitude":"45.391504","longitude":"-75.755147"},{"source":"yellow page","service_name":"Champs Canada","category":"badminton training","phone":"613-761-8682","address":"34-2121 Carling Ave, Ottawa, ON K2A 1H2","postalcode":"K2A 1H2","website":" ","working_hour":"","latitude":"45.3701375","longitude":"-75.7709334"},{"source":"yellow page","service_name":"Senators Sports & Entertainment","category":"badminton training","phone":"613-728-9894","address":"34-2121 Carling Ave, Ottawa, ON K2A 1S3","postalcode":"K2A 1S3","website":" ","working_hour":"","latitude":"45.3701375","longitude":"-75.7709334"},{"source":"yellow page","service_name":"Trailhead","category":"badminton training","phone":"6137224229","address":"2148 Carling Ave, Ottawa, ON K2A 1H1","postalcode":"K2A 1H1","website":" ","working_hour":"","latitude":"45.370514","longitude":"-75.769587"},{"source":"yellow page","service_name":"Adidas Canada Ltd","category":"badminton training","phone":"6138288636","address":"100 Bayshore Dr, Nepean, ON K2B 8C1","postalcode":"K2B 8C1","website":" ","working_hour":"","latitude":"45.348855","longitude":"-75.804625"},{"source":"yellow page","service_name":"Clubhouse Sports - Barrhaven Mall","category":"badminton training","phone":"613-843-1505","address":"896 Greenbank Rd, Nepean, ON K2J 1S8","postalcode":"K2J 1S8","website":" ","working_hour":"","latitude":"45.2863598","longitude":"-75.7560537"},{"source":"yellow page","service_name":"Sports Actif","category":"badminton training","phone":"6134432488","address":"831 Notre Dame, Embrun, ON K0A 1W1","postalcode":"K0A 1W1","website":" ","working_hour":"","latitude":"45.2690216","longitude":"-75.2950815"},{"source":"yellow page","service_name":"Replay Sports","category":"badminton training","phone":"613-445-1481","address":"1135 Rue Concession, Russell, ON K4R 1C8","postalcode":"K4R 1C8","website":" ","working_hour":"","latitude":"45.2577635","longitude":"-75.3585033"},{"source":"yellow page","service_name":"Rockland Sports","category":"badminton training","phone":"613-446-9559","address":"2865 Laurier, Rockland, ON K4K 1A3","postalcode":"K4K 1A3","website":" ","working_hour":"","latitude":"45.5401241","longitude":"-75.3024069"},{"source":"yellow page","service_name":"Intersport","category":"badminton training","phone":"819-986-7429","address":"444, av de Buckingham, Gatineau, QC J8L 2G7","postalcode":"J8L 2G7","website":"http://www.intersport.ca/","working_hour":"","latitude":"45.588058","longitude":"-75.416803"},{"source":"yellow page","service_name":"Sport Chek","category":"badminton training","phone":"6139380017","address":"2-501 Tollgate Rd W, Cornwall, ON K6H 0B4","postalcode":"K6H 0B4","website":"http://sportchek.ca","working_hour":"","latitude":"45.040241","longitude":"-74.760533"},{"source":"yellow page","service_name":"Rookez-Edge Source For Sports","category":"badminton training","phone":"613-938-0001","address":"400 Second Street West, Cornwall, ON K6J 1H1","postalcode":"K6J 1H1","website":"http://sourceforsports.com","working_hour":"","latitude":"45.015878","longitude":"-74.737237"},{"source":"yellow page","service_name":"Play It Again Sports","category":"badminton training","phone":"613-936-2020","address":"37 Ninth St E, Cornwall, ON K6H 6R3","postalcode":"K6H 6R3","website":"http://playitagainsportscornwall.com","working_hour":"","latitude":"45.029095","longitude":"-74.73317"},{"source":"yellow page","service_name":"Rayco Team Sports","category":"badminton training","phone":"613-938-4992","address":"400 Montreal Rd, Cornwall, ON K6H 1B7","postalcode":"K6H 1B7","website":" ","working_hour":"","latitude":"45.018478","longitude":"-74.70971"},{"source":"yellow page","service_name":"Bicycle World","category":"badminton training","phone":"6139322750","address":"150 Pitt St, Cornwall, ON K6J 3P4","postalcode":"K6J 3P4","website":"http://www.bicycleworld.com","working_hour":"","latitude":"45.017774","longitude":"-74.728318"},{"source":"yellow page","service_name":"Akwesasne Sports","category":"badminton training","phone":"613-938-2752","address":"Cornwall Island RR 3, Cornwall, ON K6H 5R7","postalcode":"K6H 5R7","website":" ","working_hour":"","latitude":"45.014488","longitude":"-74.748899"},{"source":"yellow page","service_name":"Sun Mountain Sports","category":"badminton training","phone":"613-258-0533","address":"203 Sanders, Kemptville, ON K0G 1J0","postalcode":"K0G 1J0","website":"http://www.sunmountainsports.ca","working_hour":"","latitude":"45.0180377","longitude":"-75.6476168"},{"source":"yellow page","service_name":"TrophiesPlus2000","category":"badminton training","phone":"343-300-0013","address":"ON","postalcode":"","website":" ","working_hour":"","latitude":"","longitude":""},{"source":"yellow page","service_name":"Sport X","category":"badminton training","phone":"613-284-1632","address":"11 Chambers St, Smiths Falls, ON K7A 2Y2","postalcode":"K7A 2Y2","website":" ","working_hour":"","latitude":"44.898751","longitude":"-76.02046"},{"source":"yellow page","service_name":"Outdoor Theme","category":"badminton training","phone":"6132577025","address":"78 Moore St, Carleton Place, ON K7C 2R2","postalcode":"K7C 2R2","website":" ","working_hour":"","latitude":"45.1366303","longitude":"-76.1405641"},{"source":"yellow page","service_name":"Fox Sporting Goods","category":"badminton training","phone":"6132673906","address":"118 Wilson St W, Perth, ON K7H 2P3","postalcode":"K7H 2P3","website":" ","working_hour":"","latitude":"44.908384","longitude":"-76.262317"},{"source":"yellow page","service_name":"Presqu'ile Bay Outfitters","category":"badminton training","phone":"613-439-9663","address":"180 Baldwin St SS 8, Brighton, ON K0K 1H0","postalcode":"K0K 1H0","website":"http://presquilebayoutfitters.com","working_hour":"Monday 7:00 am - 9:00 pm   Tuesday 7:00 am - 9:00 pm   Wednesday 7:00 am - 9:00 pm   Thursday 7:00 am - 9:00 pm   Friday 7:00 am - 9:00 pm   Saturday 7:00 am - 9:00 pm   Sunday 8:00 am - 6:00 pm","latitude":"44.092511","longitude":"-77.766942"},{"source":"yellow page","service_name":"Tri & Run Sports","category":"badminton training","phone":"613-392-7752","address":"17538-D 2 Hwy, BRANTFORD, ON K8V 5R1","postalcode":"K8V 5R1","website":" ","working_hour":"","latitude":"44.126867","longitude":"-77.590219"},{"source":"yellow page","service_name":"Oakley-Woods D","category":"badminton training","phone":"613-475-3541","address":"1 Young, Brighton, ON K0K 1H0","postalcode":"K0K 1H0","website":"http://www.croquetstore.com","working_hour":"Monday 8:00 am - 5:00 pm   Tuesday 8:00 am - 5:00 pm   Wednesday 8:00 am - 5:00 pm   Thursday 8:00 am - 5:00 pm   Friday 8:00 am - 5:00 pm","latitude":"44.092511","longitude":"-77.766942"},{"source":"yellow page","service_name":"Canadian Tire","category":"badminton training","phone":"705-653-3250","address":"130 Grand Rd, Trent Hills, ON K0L 1L0","postalcode":"K0L 1L0","website":" ","working_hour":"Monday 8:00 am - 7:00 pm   Tuesday 8:00 am - 7:00 pm   Wednesday 8:00 am - 7:00 pm   Thursday 8:00 am - 9:00 pm   Friday 8:00 am - 9:00 pm   Saturday 8:00 am - 6:00 pm   Sunday 9:00 am - 5:00 pm","latitude":"44.315585","longitude":"-77.829032"},{"source":"yellow page","service_name":"Progress Recreation Centre - Badminton & Pickleball Club","category":"badminton training","phone":"416-297-6522","address":"291 Progress Ave, Scarborough, ON M1P 2Z2","postalcode":"M1P 2Z2","website":"http://www.badmintontoronto.com","working_hour":"Monday 9:00 am - 11:00 pm   Tuesday 9:00 am - 11:00 pm   Wednesday 9:00 am - 11:00 pm   Thursday 9:00 am - 11:00 pm   Friday 9:00 am - 12:00 pm   Saturday 9:00 am - 12:00 pm   Sunday 9:00 am - 11:00 pm","latitude":"43.77346","longitude":"-79.270643"},{"source":"yellow page","service_name":"Machi Training Centre Inc","category":"badminton training","phone":"905-726-1700","address":"2-159 Don Hillock Dr, Aurora, ON L4G 0K2","postalcode":"L4G 0K2","website":" ","working_hour":"","latitude":"44.0095958","longitude":"-79.4115939"},{"source":"yellow page","service_name":"Lee's Badminton Supply","category":"badminton training","phone":"905-513-0137","address":"80 Centurian Dr, Markham, ON L3R 8C1","postalcode":"L3R 8C1","website":"http://www.leesbadminton.ca","working_hour":"","latitude":"43.852411","longitude":"-79.363382"},{"source":"yellow page","service_name":"Su Badminton Club","category":"badminton training","phone":"905-752-6857","address":"1-170 Shields Crt, Markham, ON L3R 9T5","postalcode":"L3R 9T5","website":" ","working_hour":"","latitude":"43.833781","longitude":"-79.362226"},{"source":"yellow page","service_name":"Lee's Badminton","category":"badminton training","phone":"905-819-8083","address":"6597 Kitimat Rd, Mississauga, ON L5N 4J4","postalcode":"L5N 4J4","website":"http://leesbadminton.ca","working_hour":"Monday 12:00 pm - 11:00 pm   Tuesday 12:00 pm - 11:00 pm   Wednesday 12:00 pm - 11:00 pm   Thursday 12:00 pm - 11:00 pm   Friday 12:00 pm - 12:00 am   Saturday 9:00 am - 11:00 pm   Sunday 9:00 am - 9:00 pm","latitude":"43.601048","longitude":"-79.734039"},{"source":"yellow page","service_name":"Forest City Tree Service","category":"badminton training","phone":"5198527640","address":"14371 Medway Rd, London, ON N0M 1C0","postalcode":"N0M 1C0","website":" ","working_hour":"Monday 9:00 am - 5:00 pm   Tuesday 9:00 am - 5:00 pm   Wednesday 9:00 am - 5:00 pm   Thursday 9:00 am - 5:00 pm   Friday 9:00 am - 5:00 pm   Saturday 9:00 am - 5:00 pm   Sunday 10:00 am - 4:00 pm","latitude":"43.0513564","longitude":"-81.2916875"},{"source":"yellow page","service_name":"Sport Chek","category":"badminton training","phone":"5196450350","address":"3-1735 Richmond St, London, ON N5X 3Y2","postalcode":"N5X 3Y2","website":" ","working_hour":"","latitude":"43.0283248","longitude":"-81.2835914"},{"source":"yellow page","service_name":"Revelstoke Board Gear Inc","category":"badminton training","phone":"519-858-3715","address":"17 Grand Ave, London, ON N6C 1L1","postalcode":"N6C 1L1","website":" ","working_hour":"","latitude":"42.971342","longitude":"-81.247178"},{"source":"yellow page","service_name":"F.C. Soccer","category":"badminton training","phone":"5196595000","address":"6-797 York St, London, ON N5W 6A8","postalcode":"N5W 6A8","website":"http://fcsoccer.ca","working_hour":"Monday 10:00 am - 8:00 pm   Tuesday 10:00 am - 8:00 pm   Wednesday 10:00 am - 8:00 pm   Thursday 10:00 am - 8:00 pm   Friday 10:00 am - 8:00 pm   Saturday 10:00 am - 6:00 pm   Sunday 12:00 pm - 4:00 pm","latitude":"42.9878252","longitude":"-81.2247539"},{"source":"yellow page","service_name":"Runners' Choice","category":"badminton training","phone":"519-672-5928","address":"207 Dundas St, London, ON N6A 1G4","postalcode":"N6A 1G4","website":" ","working_hour":"","latitude":"42.9841587","longitude":"-81.2478833"},{"source":"yellow page","service_name":"Outspokin Cycles","category":"badminton training","phone":"519-933-2953","address":"994 Huron St, London, ON N5Y 4K6","postalcode":"N5Y 4K6","website":"http://www.outspokincycles.ca","working_hour":"Monday 10:00 am - 6:00 pm   Tuesday 10:00 am - 6:00 pm   Wednesday 10:00 am - 6:00 pm   Thursday 10:00 am - 6:00 pm   Friday 10:00 am - 6:00 pm   Saturday 10:00 am - 3:00 pm","latitude":"43.016402","longitude":"-81.227386"},{"source":"yellow page","service_name":"Source For Sports","category":"badminton training","phone":"519-673-3810","address":"406 Wharncliffe Road South, London, ON N6J 2M4","postalcode":"N6J 2M4","website":" ","working_hour":"","latitude":"42.962982","longitude":"-81.26131"},{"source":"yellow page","service_name":"Herm's Sport Exchange","category":"badminton training","phone":"519-649-0600","address":"820 Wharncliffe Rd S, London, ON N6J 2N4","postalcode":"N6J 2N4","website":" ","working_hour":"","latitude":"42.9425394","longitude":"-81.2574474"},{"source":"yellow page","service_name":"Sport Chek","category":"badminton training","phone":"519-641-8153","address":"101-1250 Fanshawe Park Rd W, London, ON N6G 5B1","postalcode":"N6G 5B1","website":"http://www.sportchek.ca","working_hour":"","latitude":"43.012186","longitude":"-81.331823"},{"source":"yellow page","service_name":"J C's Golf Repair & Sales","category":"badminton training","phone":"519-319-3965","address":"231 East St, London, ON N5Z 2S3","postalcode":"N5Z 2S3","website":" ","working_hour":"Monday 9:00 am - 5:00 pm   Tuesday 9:00 am - 5:00 pm   Wednesday 9:00 am - 5:00 pm   Thursday 9:00 am - 5:00 pm   Friday 9:00 am - 5:00 pm   Appointment Only   Open 7 Days A Week","latitude":"42.981546","longitude":"-81.201005"},{"source":"yellow page","service_name":"West 49","category":"badminton training","phone":"519-663-5556","address":"1680 Richmond St, London, ON N6G 3Y9","postalcode":"N6G 3Y9","website":" ","working_hour":"","latitude":"43.0251066","longitude":"-81.2817301"},{"source":"yellow page","service_name":"Pro Soccer Shops","category":"badminton training","phone":"519-672-5425","address":"212 Horton St E, London, ON N6B 1K8","postalcode":"N6B 1K8","website":" ","working_hour":"","latitude":"42.979433","longitude":"-81.245528"},{"source":"yellow page","service_name":"New Balance London","category":"badminton training","phone":"5194737070","address":"663 Wonderland Rd N, London, ON N6H 0H9","postalcode":"N6H 0H9","website":"http://www.newbalancelondon.com","working_hour":"Monday 10:00 am - 6:00 pm   Tuesday 10:00 am - 6:00 pm   Wednesday 10:00 am - 6:00 pm   Thursday 10:00 am - 9:00 pm   Friday 10:00 am - 9:00 pm   Saturday 10:00 am - 6:00 pm   Sunday 10:00 am - 5:00 pm","latitude":"42.9850892","longitude":"-81.2931636"},{"source":"yellow page","service_name":"Champs Sports","category":"badminton training","phone":"519-649-4024","address":"White Oaks Mall, London, ON N6K 1L3","postalcode":"N6K 1L3","website":" ","working_hour":"","latitude":"42.964228","longitude":"-81.292951"},{"source":"yellow page","service_name":"Source For Sports - Teamworks","category":"badminton training","phone":"519-963-0771","address":"418 Wharncliffe Rd S, London, ON N6J 2M5","postalcode":"N6J 2M5","website":"http://www.sourceteamworks.com","working_hour":"","latitude":"42.961884","longitude":"-81.261238"},{"source":"yellow page","service_name":"Sports Manufacturers International","category":"badminton training","phone":"519-472-2555","address":"1615 North Routledge Park, London, ON N6H 5N5","postalcode":"N6H 5N5","website":" ","working_hour":"","latitude":"42.9991031","longitude":"-81.3365476"},{"source":"yellow page","service_name":"Campus Crew","category":"badminton training","phone":"5196733243","address":"1680 Richmond St, London, ON N6G 3Y9","postalcode":"N6G 3Y9","website":" ","working_hour":"Monday 10:00 am - 9:00 pm   Tuesday 10:00 am - 9:00 pm   Wednesday 10:00 am - 9:00 pm   Thursday 10:00 am - 9:00 pm   Friday 10:00 am - 9:00 pm   Saturday 10:00 am - 9:00 pm   Sunday 12:00 am - 5:00 pm","latitude":"43.0251066","longitude":"-81.2817301"},{"source":"yellow page","service_name":"Champs Sports","category":"badminton training","phone":"519-661-0952","address":"1680 Richmond St, London, ON N6G 3Y9","postalcode":"N6G 3Y9","website":" ","working_hour":"","latitude":"43.0251066","longitude":"-81.2817301"},{"source":"yellow page","service_name":"National Sports","category":"badminton training","phone":"519-858-3181","address":"332 Wellington Rd, London, ON N6C 4P6","postalcode":"N6C 4P6","website":"http://www.nationalsports.com","working_hour":"","latitude":"42.962365","longitude":"-81.231131"},{"source":"yellow page","service_name":"Pete's Sports & Repairs","category":"badminton training","phone":"519-433-9555","address":"649 Oxford St E, London, ON N5Y 3J2","postalcode":"N5Y 3J2","website":"http://www.petessports.com","working_hour":"Monday 9:00 am - 8:00 pm   Tuesday 9:00 am - 8:00 pm   Wednesday 9:00 am - 8:00 pm   Thursday 9:00 am - 8:00 pm   Friday 9:00 am - 8:00 pm   Saturday 9:00 am - 5:00 pm   Sunday 11:00 am - 4:00 pm","latitude":"43.000832","longitude":"-81.234882"},{"source":"yellow page","service_name":"Greg Burke Outdoors","category":"badminton training","phone":"5198096965","address":"234 Maxwell St, Sarnia, ON N7T 5C4","postalcode":"N7T 5C4","website":" ","working_hour":"","latitude":"42.981132","longitude":"-82.399885"},{"source":"yellow page","service_name":"Living Country (Duck Dynasty)","category":"badminton training","phone":"519-384-1067","address":"268 Glenesk Cres, Corunna, ON N0N 1G0","postalcode":"N0N 1G0","website":" ","working_hour":"Call For Details: Sunday, Monday, Tuesday, Wednesday, Thursday, Friday, Saturday.","latitude":"42.879691","longitude":"-82.445789"},{"source":"yellow page","service_name":"Body Moves Sports Apparel","category":"badminton training","phone":"519-344-4576","address":"49 Finch Dr, Sarnia, ON N7S 5C6","postalcode":"N7S 5C6","website":" ","working_hour":"Monday 10:00 am - 6:30 pm   Tuesday 10:00 am - 6:30 pm   Wednesday 10:00 am - 6:30 pm   Thursday 10:00 am - 6:30 pm   Friday 10:00 am - 6:30 pm   Saturday 10:00 am - 2:00 pm   Appointments For Pointe Fitting","latitude":"42.9698434","longitude":"-82.3539252"},{"source":"yellow page","service_name":"Brian's Custom Pro Shop","category":"badminton training","phone":"519-254-5733","address":"1495 Tecumseh Rd E, Windsor, ON N8W 1C2","postalcode":"N8W 1C2","website":"http://www.brianssportsshop.com","working_hour":"Monday 9:30 am - 6:00 pm   Tuesday 9:30 am - 6:00 pm   Wednesday 9:30 am - 6:00 pm   Thursday 9:30 am - 6:00 pm   Friday 9:30 am - 7:00 pm   Saturday 9:00 am - 5:00 pm","latitude":"42.3005453","longitude":"-83.0036917"},{"source":"yellow page","service_name":"T's & Sweats","category":"badminton training","phone":"5193360528","address":"202 Christina St N, Sarnia, ON N7T 5V2","postalcode":"N7T 5V2","website":" ","working_hour":"","latitude":"42.973704","longitude":"-82.406849"},{"source":"yellow page","service_name":"Sport Chek","category":"badminton training","phone":"519-344-8140","address":"595 Murphy Road, Sarnia, ON N7S 6K1","postalcode":"N7S 6K1","website":"http://www.sportchek.ca","working_hour":"","latitude":"42.977695","longitude":"-82.366653"},{"source":"yellow page","service_name":"Marcin Bowl","category":"badminton training","phone":"519-344-1169","address":"609 Helena St, Point Edward, ON N7V 1S2","postalcode":"N7V 1S2","website":" ","working_hour":"Monday 9:00 am - 10:30 pm   Tuesday 9:00 am - 11:00 pm   Wednesday 9:00 am - 11:00 pm   Thursday 9:00 am - 11:30 pm   Friday 11:00 am - 11:59 pm   Saturday 12:00 am - 1:00 am    9:00 am - 11:59 pm   Sunday 12:00 am - 1:00 am    9:00 am - 9:00 pm","latitude":"42.9916453","longitude":"-82.4062265"},{"source":"yellow page","service_name":"Sport Mart","category":"badminton training","phone":"519-542-1424","address":"1380 London Rd, Sarnia, ON N7S 1P0","postalcode":"N7S 1P0","website":"http://sportmart.ca","working_hour":"","latitude":"42.9802942","longitude":"-82.3533924"},{"source":"yellow page","service_name":"Running Room","category":"badminton training","phone":"514-541-9860","address":"129-1380 London Rd, Sarnia, ON N7S 1P8","postalcode":"N7S 1P8","website":"http://runningroom.com","working_hour":"","latitude":"42.9802942","longitude":"-82.3533924"},{"source":"yellow page","service_name":"Sport Chek","category":"badminton training","phone":"5193448140","address":"1380 London Road, Sarnia, ON N7S 1P8","postalcode":"N7S 1P8","website":" ","working_hour":"","latitude":"42.9802942","longitude":"-82.3533924"},{"source":"yellow page","service_name":"Sport Check","category":"badminton training","phone":"5195410881","address":"1380 London Rd, Sarnia, ON N7S 1P8","postalcode":"N7S 1P8","website":" ","working_hour":"","latitude":"42.9802942","longitude":"-82.3533924"},{"source":"yellow page","service_name":"Play It Again Sports","category":"badminton training","phone":"519-542-1011","address":"177-1380 London Rd, Sarnia, ON N7S 1P8","postalcode":"N7S 1P8","website":" ","working_hour":"","latitude":"42.9802942","longitude":"-82.3533924"},{"source":"yellow page","service_name":"Angling Outfitters","category":"badminton training","phone":"519-539-5494","address":"684460 Road 68, Woodstock, ON N4S 7V7","postalcode":"N4S 7V7","website":" ","working_hour":"Monday 9:30 am - 8:00 pm   Tuesday 9:30 am - 6:00 pm   Wednesday 9:30 am - 6:00 pm   Thursday 9:30 am - 7:00 pm   Friday 9:30 am - 7:00 pm   Saturday 9:00 am - 5:00 pm","latitude":"43.113343","longitude":"-80.8190132"},{"source":"yellow page","service_name":"Simps Skate Shop","category":"badminton training","phone":"519-398-8939","address":"1-120 Erie St S, Leamington, ON N8H 3B6","postalcode":"N8H 3B6","website":"http://www.simpsskateshop.com","working_hour":"Monday 10:00 am - 6:00 pm   Tuesday 10:00 am - 6:00 pm   Wednesday 10:00 am - 6:00 pm   Thursday 10:00 am - 6:00 pm   Friday 10:00 am - 6:00 pm   Saturday 10:00 am - 4:00 pm   Please Visit Our Website For More Information","latitude":"42.04817","longitude":"-82.600109"},{"source":"yellow page","service_name":"Bicycle World","category":"badminton training","phone":"519-966-7985","address":"1267 Grand Marais Rd W, Windsor, ON N9E 1E1","postalcode":"N9E 1E1","website":"http://www.bicycleworld.ca","working_hour":"","latitude":"42.2686978","longitude":"-83.025515"},{"source":"yellow page","service_name":"Sports Den The","category":"badminton training","phone":"519-322-4885","address":"17 Erie St S, Leamington, ON N8H 3A6","postalcode":"N8H 3A6","website":"http://www.thesportsden.ca/index.asp","working_hour":"Monday 10:00 am - 5:00 pm   Tuesday 10:00 am - 5:00 pm   Wednesday 10:00 am - 5:00 pm   Thursday 10:00 am - 5:00 pm   Friday 10:00 am - 5:00 pm   Saturday 10:00 am - 4:00 pm","latitude":"42.052625","longitude":"-82.599826"},{"source":"yellow page","service_name":"Playback Sports Equipment","category":"badminton training","phone":"519-351-9593","address":"214 Richmond St, Chatham, ON N7M 1P4","postalcode":"N7M 1P4","website":" ","working_hour":"Tuesday 9:00 am - 6:00 pm   Wednesday 9:00 am - 6:00 pm   Thursday 9:00 am - 6:00 pm   Friday 9:00 am - 6:00 pm   Saturday 9:00 am - 5:00 pm","latitude":"42.39662","longitude":"-82.1902803"},{"source":"yellow page","service_name":"New Balance Windsor","category":"badminton training","phone":"519-250-9511","address":"4115 Walker Rd, Windsor, ON N8W 3T6","postalcode":"N8W 3T6","website":"http://www.newbalancewindsor.com","working_hour":"Monday 10:00 am - 8:00 pm   Tuesday 10:00 am - 8:00 pm   Wednesday 10:00 am - 8:00 pm   Thursday 10:00 am - 8:00 pm   Friday 10:00 am - 8:00 pm   Saturday 10:00 am - 5:00 pm   Sunday 11:00 am - 4:00 pm","latitude":"42.261421","longitude":"-82.96829"},{"source":"yellow page","service_name":"Bowman Cross Sports","category":"badminton training","phone":"519-322-1274","address":"254 Oak St E, Leamington, ON N8H 4V4","postalcode":"N8H 4V4","website":" ","working_hour":"Monday 10:00 am - 6:00 pm   Tuesday 10:00 am - 6:00 pm   Wednesday 10:00 am - 6:00 pm   Thursday 10:00 am - 6:00 pm   Friday 10:00 am - 6:00 pm   Saturday 9:00 am - 1:00 pm","latitude":"42.0460309","longitude":"-82.5856544"},{"source":"yellow page","service_name":"Miller's Essex Source For Sports","category":"badminton training","phone":"519-776-5115","address":"25 Talbot Street North, Essex, ON N8M 1A5","postalcode":"N8M 1A5","website":" ","working_hour":"Monday 9:00 am - 5:00 pm   Tuesday 9:00 am - 5:00 pm   Wednesday 9:00 am - 5:00 pm   Thursday 9:00 am - 5:00 pm   Friday 9:00 am - 5:00 pm","latitude":"42.1742583","longitude":"-82.8214434"},{"source":"yellow page","service_name":"Source For Sports","category":"badminton training","phone":"519-326-2222","address":"9 Erie St N, Leamington, ON N8H 2Z2","postalcode":"N8H 2Z2","website":" ","working_hour":"","latitude":"42.0533541","longitude":"-82.5997883"},{"source":"yellow page","service_name":"Johnston Net & Twine Ltd","category":"badminton training","phone":"519-825-7218","address":"859 Talbot Trail RR 1, Wheatley, ON N0P 2P0","postalcode":"N0P 2P0","website":"http://johnstonnetandtwine.com","working_hour":"","latitude":"42.101109","longitude":"-82.443589"},{"source":"yellow page","service_name":"Bikesmart","category":"badminton training","phone":"519-733-8541","address":"23 Mill St W, Kingsville, ON N9Y 1W1","postalcode":"N9Y 1W1","website":"http://bikesmart.ca","working_hour":"","latitude":"42.0361481","longitude":"-82.7405049"},{"source":"yellow page","service_name":"West 49","category":"badminton training","phone":"5196681352","address":"101-1105 Wellington Rd, London, ON N6E 1V4","postalcode":"N6E 1V4","website":"http://www.west49.com/","working_hour":"","latitude":"42.932634","longitude":"-81.222468"},{"source":"yellow page","service_name":"Sport Chek","category":"badminton training","phone":"519-649-6736","address":"93-1105 Wellington Rd, London, ON N6E 1V4","postalcode":"N6E 1V4","website":"http://www.sportchek.ca","working_hour":"","latitude":"42.932634","longitude":"-81.222468"},{"source":"yellow page","service_name":"In2sports","category":"badminton training","phone":"5196014625","address":"1070 Wellington Rd, London, ON N6E 3V8","postalcode":"N6E 3V8","website":" ","working_hour":"","latitude":"42.9343978","longitude":"-81.2233626"},{"source":"yellow page","service_name":"Home Run Sports","category":"badminton training","phone":"519-204-6627","address":"5-765C Exeter Rd, London, ON N6E 3T2","postalcode":"N6E 3T2","website":" ","working_hour":"","latitude":"42.9258021","longitude":"-81.2181661"},{"source":"yellow page","service_name":"Perani's Hockey World","category":"badminton training","phone":"519-685-2227","address":"4380 Wellington Rd S, London, ON N6E 2Z6","postalcode":"N6E 2Z6","website":"http://www.goaliegear.ca","working_hour":"","latitude":"42.9184593","longitude":"-81.2095543"},{"source":"yellow page","service_name":"Sport Chek","category":"badminton training","phone":"519-457-4848","address":"14-1925 Dundas St, London, ON N5V 1P7","postalcode":"N5V 1P7","website":"http://www.sportchek.ca","working_hour":"","latitude":"43.00543","longitude":"-81.173409"},{"source":"yellow page","service_name":"Archer's Nook Inc","category":"badminton training","phone":"519-455-3021","address":"90 Charterhouse Cres, London, ON N5W 5V5","postalcode":"N5W 5V5","website":"http://www.archersnook.com","working_hour":"","latitude":"42.989542","longitude":"-81.169005"},{"source":"yellow page","service_name":"Zumiez","category":"badminton training","phone":"9056845183","address":"1105 Wellington Rd S, London, ON N6E 1V4","postalcode":"N6E 1V4","website":" ","working_hour":"","latitude":"42.932634","longitude":"-81.222468"},{"source":"yellow page","service_name":"Forte Industries Inc","category":"badminton training","phone":"519-455-4141","address":"50 Charterhouse Cres, London, ON N5W 5V5","postalcode":"N5W 5V5","website":"http://www.4orte.com","working_hour":"","latitude":"42.9874611","longitude":"-81.1702584"},{"source":"yellow page","service_name":"Mountain Equipment Co-Op","category":"badminton training","phone":"5196686657","address":"111-1230 Wellington Rd, London, ON N6E 1M3","postalcode":"N6E 1M3","website":" ","working_hour":"","latitude":"42.927741","longitude":"-81.218581"},{"source":"yellow page","service_name":"Sport Chek - Atmosphere","category":"badminton training","phone":"5196681776","address":"3165 Wonderland Rd S, London, ON N6L 1R4","postalcode":"N6L 1R4","website":"http://sportchek.ca","working_hour":"","latitude":"42.9330074","longitude":"-81.2800954"},{"source":"yellow page","service_name":"We Got It","category":"badminton training","phone":"519-715-9416","address":"575 Notre Dame St, Lakeshore, ON N0R 1A0","postalcode":"N0R 1A0","website":" ","working_hour":"Monday 9:00 am - 4:00 pm   Tuesday 9:00 am - 4:00 pm   Wednesday 9:00 am - 4:00 pm   Thursday 9:00 am - 4:00 pm   Friday 9:00 am - 4:00 pm   Saturday 9:00 am - 3:00 pm","latitude":"42.293189","longitude":"-82.7092442"},{"source":"yellow page","service_name":"Sport Mart","category":"badminton training","phone":"519-967-9300","address":"3051 Legacy Park Dr, Windsor, ON N8W 5S6","postalcode":"N8W 5S6","website":"http://sportmart.ca","working_hour":"","latitude":"42.25364","longitude":"-82.965735"},{"source":"yellow page","service_name":"Cyclesmax.com","category":"badminton training","phone":"5192588395","address":"3203 Turner Rd, Windsor, ON N8W 3M2","postalcode":"N8W 3M2","website":"http://www.cyclesmax.com","working_hour":"","latitude":"42.280052","longitude":"-82.981333"},{"source":"yellow page","service_name":"Perani's Hockey World","category":"badminton training","phone":"519-974-8081","address":"7540 Tecumseh Rd E, Windsor, ON N8T 1E9","postalcode":"N8T 1E9","website":"http://www.hockey-world.ca","working_hour":"","latitude":"42.313485","longitude":"-82.936151"},{"source":"yellow page","service_name":"Sport Chek","category":"badminton training","phone":"5199728379","address":"L1-3100 Howard Ave, Windsor, ON N8X 3Y8","postalcode":"N8X 3Y8","website":"http://www.sportchek.ca","working_hour":"","latitude":"42.275904","longitude":"-83.002154"},{"source":"yellow page","service_name":"Source For Sports","category":"badminton training","phone":"519-728-3717","address":"481 Notre Dame Street, Belle River, ON N0R 1A0","postalcode":"N0R 1A0","website":" ","working_hour":"","latitude":"42.2930387","longitude":"-82.7049072"},{"source":"yellow page","service_name":"The Running Shoe","category":"badminton training","phone":"519-948-5533","address":"4705 Wyandotte St E, Windsor, ON N8Y 1H8","postalcode":"N8Y 1H8","website":" ","working_hour":"Monday 10:00 am - 7:00 pm   Tuesday 10:00 am - 7:00 pm   Wednesday 10:00 am - 7:00 pm   Thursday 10:00 am - 7:00 pm   Friday 10:00 am - 7:00 pm","latitude":"42.326422","longitude":"-82.979942"},{"source":"yellow page","service_name":"The Running Factory","category":"badminton training","phone":"519-945-3786","address":"5480 Wyandotte E, Windsor, ON N8S 1L9","postalcode":"N8S 1L9","website":" ","working_hour":"Monday 10:00 am - 6:00 pm   Tuesday 10:00 am - 6:00 pm   Wednesday 10:00 am - 8:00 pm   Thursday 10:00 am - 8:00 pm   Friday 10:00 am - 8:00 pm   Saturday 10:00 am - 5:00 pm   Sunday 11:00 am - 4:00 pm","latitude":"42.328214","longitude":"-82.970556"},{"source":"yellow page","service_name":"Accurate Creations Sports & Promo Gear","category":"badminton training","phone":"2263443282","address":"203-260 Eugenie St E, Windsor, ON N8X 2X8","postalcode":"N8X 2X8","website":" ","working_hour":"","latitude":"42.2875105","longitude":"-83.0153544"},{"source":"yellow page","service_name":"West 49","category":"badminton training","phone":"5199723535","address":"3100 Howard Ave, Windsor, ON N8X 3Y8","postalcode":"N8X 3Y8","website":" ","working_hour":"","latitude":"42.2723992","longitude":"-83.0036975"},{"source":"yellow page","service_name":"Brian's Custom Pro Shop","category":"badminton training","phone":"519-254-4733","address":"1495 Tecumseh Rd E, Windsor, ON N8W 1C4","postalcode":"N8W 1C4","website":" ","working_hour":"","latitude":"42.3005453","longitude":"-83.0036917"},{"source":"yellow page","service_name":"National Sports","category":"badminton training","phone":"519-969-2526","address":"3051 Legacy Park Dr, Windsor, ON N8W 5S6","postalcode":"N8W 5S6","website":"http://www.nationalsports.com","working_hour":"","latitude":"42.25364","longitude":"-82.965735"},{"source":"yellow page","service_name":"Takedown Distribution","category":"badminton training","phone":"226-344-6662","address":"3090 Dougall Ave, Windsor, ON N9E 1S4","postalcode":"N9E 1S4","website":"http://takedowndistribution.com","working_hour":"","latitude":"42.271717","longitude":"-83.013089"},{"source":"yellow page","service_name":"J & R Sports Connection","category":"badminton training","phone":"519-974-8095","address":"8418 Wyandotte St E, Windsor, ON N8S 1T6","postalcode":"N8S 1T6","website":" ","working_hour":"","latitude":"42.3334939","longitude":"-82.9377768"},{"source":"yellow page","service_name":"Carl's Archery Ltd","category":"badminton training","phone":"519-948-7521","address":"992 Prado Pl, Windsor, ON N8S 2H5","postalcode":"N8S 2H5","website":" ","working_hour":"","latitude":"42.32455","longitude":"-82.967872"},{"source":"yellow page","service_name":"Champs","category":"badminton training","phone":"519-969-3355","address":"3100 Howard Ave, Windsor, ON N8X 3Y8","postalcode":"N8X 3Y8","website":" ","working_hour":"","latitude":"42.2723992","longitude":"-83.0036975"},{"source":"yellow page","service_name":"F C Soccer & Sports","category":"badminton training","phone":"5199727800","address":"4096 Walker Rd, Windsor, ON N8W 3T5","postalcode":"N8W 3T5","website":"http://www.fcsoccer.ca/","working_hour":"Monday 10:00 am - 8:00 pm   Tuesday 10:00 am - 8:00 pm   Wednesday 10:00 am - 8:00 pm   Thursday 10:00 am - 8:00 pm   Friday 10:00 am - 8:00 pm   Saturday 10:00 am - 8:00 pm   Sunday 10:00 am - 8:00 pm","latitude":"42.260535","longitude":"-82.967729"},{"source":"yellow page","service_name":"Penetangear","category":"badminton training","phone":"519-396-7791","address":"791 Queen St, Kincardine, ON N2Z 2Y2","postalcode":"N2Z 2Y2","website":" ","working_hour":"","latitude":"44.1770807","longitude":"-81.6351954"},{"source":"yellow page","service_name":"Scoreboard Sports Too","category":"badminton training","phone":"5193894520","address":"588 Goderich St, Saugeen Shores, ON","postalcode":"","website":" ","working_hour":"","latitude":"44.4355569","longitude":"-81.3893902"},{"source":"yellow page","service_name":"The Sports Bin","category":"badminton training","phone":"5193535511","address":"246 Albert St, Paisley, ON N0G 2N0","postalcode":"N0G 2N0","website":" ","working_hour":"","latitude":"44.154929","longitude":"-81.137705"},{"source":"yellow page","service_name":"Port Elgin Tent Rental","category":"badminton training","phone":"519-832-6862","address":"","postalcode":"","website":" ","working_hour":"","latitude":"","longitude":""},{"source":"yellow page","service_name":"Suntrail Source for Adventure","category":"badminton training","phone":"1-877-882-2958","address":"","postalcode":"","website":"http://suntrail.net","working_hour":"","latitude":"","longitude":""},{"source":"yellow page","service_name":"Shooters Choice","category":"badminton training","phone":"1-844-687-2705","address":"631 Colby Dr, Waterloo, ON N2V 1B4","postalcode":"N2V 1B4","website":" ","working_hour":"Monday 10:00 am - 5:00 pm   Tuesday 10:00 am - 5:00 pm   Wednesday 10:00 am - 5:00 pm   Thursday 10:00 am - 8:00 pm   Friday 10:00 am - 8:00 pm   Saturday 10:00 am - 5:00 pm","latitude":"43.506943","longitude":"-80.54133"},{"source":"yellow page","service_name":"Eli's Guns & Archery","category":"badminton training","phone":"519-426-9042","address":"316 Queensway W, Simcoe, ON N3Y 2N1","postalcode":"N3Y 2N1","website":"#","working_hour":"Monday 9:00 am - 5:00 pm   Tuesday 9:00 am - 5:00 pm   Wednesday 9:00 am - 5:00 pm   Thursday 9:00 am - 5:00 pm   Friday 9:00 am - 9:00 pm   Saturday 9:00 am - 4:00 pm   Closed All Statutory Holidays","latitude":"42.84431","longitude":"-80.317085"},{"source":"yellow page","service_name":"Fan Of The Sport","category":"badminton training","phone":"519-631-5063","address":"571 Talbot St, St Thomas, ON N5P 1C5","postalcode":"N5P 1C5","website":" ","working_hour":"Monday 10:00 am - 8:00 pm   Tuesday 10:00 am - 8:00 pm   Wednesday 1:00 pm - 8:00 pm   Friday 10:00 am - 5:00 pm   Saturday 10:00 am - 5:00 pm","latitude":"42.778892","longitude":"-81.191822"},{"source":"yellow page","service_name":"Run For Your Life","category":"badminton training","phone":"519-637-0333","address":"39 Burwell Rd, St Thomas, ON N5P 3R5","postalcode":"N5P 3R5","website":" ","working_hour":"","latitude":"42.781717","longitude":"-81.165781"},{"source":"yellow page","service_name":"Qwick Wick Firestarter","category":"badminton training","phone":"519-294-0662","address":"144 ParkhillKing, Arkona, ON N0M 2K0","postalcode":"N0M 2K0","website":" ","working_hour":"","latitude":"43.106855","longitude":"-81.613436"},{"source":"yellow page","service_name":"Clark's Sports And More","category":"badminton training","phone":"519-683-4363","address":"102 Metcalfe W, Dresden, ON N0P 1M0","postalcode":"N0P 1M0","website":"http://www.thebeerstore.ca","working_hour":"","latitude":"42.594052","longitude":"-82.179682"},{"source":"yellow page","service_name":"T's & Sweats","category":"badminton training","phone":"519-352-6767","address":"T112 100 King W, Chatham, ON N7M 6A9","postalcode":"N7M 6A9","website":" ","working_hour":"","latitude":"42.405595","longitude":"-82.184471"},{"source":"yellow page","service_name":"Authentic Sports","category":"badminton training","phone":"519-352-0799","address":"335 Queen St, Chatham, ON N7M 2H7","postalcode":"N7M 2H7","website":" ","working_hour":"Monday 10:00 am - 6:00 pm   Tuesday 10:00 am - 6:00 pm   Wednesday 10:00 am - 6:00 pm   Thursday 10:00 am - 6:00 pm   Friday 10:00 am - 6:00 pm","latitude":"42.398445","longitude":"-82.179522"},{"source":"yellow page","service_name":"Brown's Sports Excellence","category":"badminton training","phone":"5197846121","address":"60 Main E, Chatham, ON N0P 2C0","postalcode":"N0P 2C0","website":" ","working_hour":"","latitude":"42.494597","longitude":"-81.880889"},{"source":"yellow page","service_name":"Wortner Gun Works","category":"badminton training","phone":"519-352-0924","address":"433 Queen St, Chatham, ON N7M 2J1","postalcode":"N7M 2J1","website":" ","working_hour":"Monday 9:00 am - 6:00 pm   Tuesday 9:00 am - 6:00 pm   Wednesday 9:00 am - 6:00 pm   Thursday 9:00 am - 6:00 pm   Friday 9:00 am - 9:00 pm   Saturday 9:00 am - 5:00 pm","latitude":"42.396273","longitude":"-82.176822"},{"source":"yellow page","service_name":"Sport Chek","category":"badminton training","phone":"519-354-0123","address":"653 Grand Ave W, Chatham, ON N7L 1C5","postalcode":"N7L 1C5","website":" ","working_hour":"","latitude":"42.397239","longitude":"-82.210676"},{"source":"yellow page","service_name":"Team Varsity Sales Inc","category":"badminton training","phone":"5193543331","address":"592 Queen St, Chatham, ON N7M 2J8","postalcode":"N7M 2J8","website":"http://www.teamvarsity.ca/","working_hour":"Monday 9:00 am - 4:00 pm   Tuesday 9:00 am - 4:00 pm   Wednesday 9:00 am - 4:00 pm   Thursday 9:00 am - 4:00 pm   Friday 9:00 am - 4:00 pm","latitude":"42.393149","longitude":"-82.172944"},{"source":"yellow page","service_name":"Boarder Pass","category":"badminton training","phone":"519-328-3070","address":"97 Seaway Rd, Sarnia, ON N7T 8E6","postalcode":"N7T 8E6","website":"http://www.boarderpasscanada.com","working_hour":"Tuesday 11:00 am - 7:00 pm   Wednesday 11:00 am - 7:00 pm   Thursday 11:00 am - 7:00 pm   Friday 11:00 am - 7:00 pm   Saturday 11:00 am - 7:00 pm   Sunday 11:00 am - 7:00 pm","latitude":"42.982628","longitude":"-82.411217"},{"source":"yellow page","service_name":"Pro Image Sports Pro Image Sports","category":"badminton training","phone":"519-966-8282","address":"1555 Talbot Rd, Windsor, ON N9H 2N2","postalcode":"N9H 2N2","website":" ","working_hour":"","latitude":"42.241526","longitude":"-83.013171"},{"source":"yellow page","service_name":"Adidas","category":"badminton training","phone":"519-250-6599","address":"300-1555 Talbot Rd, Windsor, ON N9H 2N2","postalcode":"N9H 2N2","website":" ","working_hour":"","latitude":"42.241526","longitude":"-83.013171"},{"source":"yellow page","service_name":"Puma Canada Inc","category":"badminton training","phone":"5199695198","address":"1555 Talbot Rd, Windsor, ON N9H 2N2","postalcode":"N9H 2N2","website":" ","working_hour":"","latitude":"42.241526","longitude":"-83.013171"},{"source":"yellow page","service_name":"Ly Sports","category":"badminton training","phone":"519-982-4461","address":"1315 Wyandotte St E, Windsor, ON N9A 3K8","postalcode":"N9A 3K8","website":"http://www.lysports.com","working_hour":"Tuesday 1:00 pm - 7:00 pm   Wednesday 1:00 pm - 7:00 pm   Thursday 1:00 pm - 7:00 pm   Friday 1:00 pm - 7:00 pm   Saturday 11:00 pm - 4:00 pm","latitude":"42.3203098","longitude":"-83.0194557"},{"source":"yellow page","service_name":"Action Sport Velo","category":"badminton training","phone":"819-628-0057","address":"207 Rue St-Georges, Windsor, QC N8W 1C3","postalcode":"N8W 1C3","website":" ","working_hour":"","latitude":"42.300544","longitude":"-83.003053"},{"source":"yellow page","service_name":"Tigron Martial Arts","category":"badminton training","phone":"519-254-9555","address":"395 Tecumseh Road W, Windsor, ON N8X 1G3","postalcode":"N8X 1G3","website":"http://www.tigonusa.com/web/default.aspx","working_hour":"Monday 9:00 am - 8:30 pm   Tuesday 9:00 am - 8:30 pm   Wednesday 9:00 am - 8:30 pm   Thursday 9:00 am - 8:30 pm   Friday 9:00 am - 8:30 pm","latitude":"42.295747","longitude":"-83.029615"},{"source":"yellow page","service_name":"Nantais Sports Shop 1990 Ltd","category":"badminton training","phone":"519-252-5706","address":"2020 Tecumseh Rd W, Windsor, ON N9B 1V6","postalcode":"N9B 1V6","website":" ","working_hour":"Monday 9:00 am - 6:00 pm   Tuesday 9:00 am - 6:00 pm   Wednesday 9:00 am - 6:00 pm   Thursday 9:00 am - 6:00 pm   Friday 9:00 am - 6:00 pm   Saturday 9:00 am - 6:00 pm","latitude":"42.293715","longitude":"-83.051223"},{"source":"yellow page","service_name":"Factory Direct","category":"badminton training","phone":"5199460288","address":"1500 Huron Church Rd, Windsor, ON N9C 3Z3","postalcode":"N9C 3Z3","website":" ","working_hour":"","latitude":"42.2883551","longitude":"-83.0584654"},{"source":"yellow page","service_name":"Nantais Source For Sports","category":"badminton training","phone":"519-252-5705","address":"2020 Tecumseh Rd W, Windsor, ON N9B 1V6","postalcode":"N9B 1V6","website":"http://thesource.ca","working_hour":"","latitude":"42.293715","longitude":"-83.051223"},{"source":"yellow page","service_name":"Sports Zone Lasalle","category":"badminton training","phone":"5199665942","address":"4-1775 Sprucewood Ave, Windsor, ON N9J 1X7","postalcode":"N9J 1X7","website":" ","working_hour":"Monday 10:00 am - 6:00 pm   Tuesday 10:00 am - 6:00 pm   Wednesday 10:00 am - 6:00 pm   Thursday 10:00 am - 6:00 pm   Friday 10:00 am - 8:00 pm   Saturday 9:00 am - 5:00 pm   Check Website For Seasonal Hour Changes","latitude":"42.246631","longitude":"-83.061738"},{"source":"yellow page","service_name":"Running Count Inc","category":"badminton training","phone":"519-978-9500","address":"598 Huron St, Lasalle, ON","postalcode":"","website":"http://www.runningcount.com","working_hour":"Monday 8:00 am - 4:00 pm   Tuesday 8:00 am - 4:00 pm   Wednesday 8:00 am - 4:00 pm   Thursday 8:00 am - 4:00 pm   Friday 8:00 am - 4:00 pm","latitude":"42.2341745","longitude":"-83.0868151"},{"source":"yellow page","service_name":"Campus Crew","category":"badminton training","phone":"705-788-9392","address":"69 Main St E, Huntsville, ON P1H 2B8","postalcode":"P1H 2B8","website":" ","working_hour":"","latitude":"45.327018","longitude":"-79.2166898"},{"source":"yellow page","service_name":"Wise Choice Sporting Goods & Gunsmithing","category":"badminton training","phone":"705-689-9473","address":"1364 Hwy 11 N RR 1, Severn Bridge, ON P0E 1N0","postalcode":"P0E 1N0","website":" ","working_hour":"","latitude":"44.797297","longitude":"-79.343589"},{"source":"yellow page","service_name":"4 sports","category":"badminton training","phone":"705-746-4677","address":"34 Seguin, Parry Sound, ON P2A 1B1","postalcode":"P2A 1B1","website":" ","working_hour":"","latitude":"45.343573","longitude":"-80.033629"},{"source":"yellow page","service_name":"Sport Chek","category":"badminton training","phone":"705-840-2749","address":"300 Lakeshore Dr, North Bay, ON P1A 3V2","postalcode":"P1A 3V2","website":"http://www.sportchek.ca","working_hour":"","latitude":"46.282941","longitude":"-79.44907"},{"source":"yellow page","service_name":"Indian River Trading Co","category":"badminton training","phone":"705-765-0011","address":"1 West St, Muskoka Lakes, ON P0B 1J0","postalcode":"P0B 1J0","website":" ","working_hour":"","latitude":"45.1206254","longitude":"-79.5842843"},{"source":"yellow page","service_name":"Sharpley Source For Sports","category":"badminton training","phone":"705-787-7575","address":"18 Main St E, Huntsville, ON P1H 2C9","postalcode":"P1H 2C9","website":" ","working_hour":"","latitude":"45.326315","longitude":"-79.218904"},{"source":"yellow page","service_name":"Complete Bait & Tackle","category":"badminton training","phone":"705-789-4123","address":"15 Chaffey, Huntsville, ON P1H 1H3","postalcode":"P1H 1H3","website":" ","working_hour":"","latitude":"45.329435","longitude":"-79.212696"},{"source":"yellow page","service_name":"Bracebridge Source For Sports","category":"badminton training","phone":"705-646-1450","address":"125 Muskoka Rd 118 W, Bracebridge, ON P1L 1T2","postalcode":"P1L 1T2","website":"http://www.sourceforsports.com/Stores/18-Bracebridge-Source-For-Sports.aspx","working_hour":"Monday 10:00 am - 6:00 pm   Tuesday 10:00 am - 6:00 pm   Wednesday 10:00 am - 6:00 pm   Thursday 10:00 am - 6:00 pm   Friday 10:00 am - 6:00 pm   Saturday 10:00 am - 6:00 pm   Sunday 11:00 am - 4:00 pm","latitude":"45.036889","longitude":"-79.318257"},{"source":"yellow page","service_name":"Muskoka Surfboard Co","category":"badminton training","phone":"705-787-6808","address":"1001 Nithgrove Rd, Baysville, ON P0B 1A0","postalcode":"P0B 1A0","website":"http://www.muskokasurfboard.com","working_hour":"Monday 9:00 am - 5:00 pm   Tuesday 9:00 am - 5:00 pm   Wednesday 9:00 am - 5:00 pm   Thursday 9:00 am - 5:00 pm   Friday 9:00 am - 5:00 pm   Appointment Only","latitude":"45.1939531","longitude":"-79.0636304"},{"source":"yellow page","service_name":"Sport Chek","category":"badminton training","phone":"705-788-1698","address":"70 King William St, Huntsville, ON P1H 2A5","postalcode":"P1H 2A5","website":"http://sportchek.ca","working_hour":"","latitude":"45.3344319","longitude":"-79.2055291"},{"source":"yellow page","service_name":"Backwoods Gunsmithing and Outdoors Ltd","category":"badminton training","phone":"1-844-556-6286","address":"1442 Hwy 17 E, Rutherglen, ON P0H 2E0","postalcode":"P0H 2E0","website":"#","working_hour":"Tuesday 9:30 am - 6:00 pm   Wednesday 9:30 am - 6:00 pm   Thursday 9:30 am - 6:00 pm   Friday 9:30 am - 6:00 pm   Saturday 10:30 am - 4:30 pm","latitude":"46.431032","longitude":"-80.249763"},{"source":"yellow page","service_name":"High Tide","category":"badminton training","phone":"705-771-9646","address":"42 Seguin St, Parry Sound, ON P2A 1W4","postalcode":"P2A 1W4","website":" ","working_hour":"Monday 8:00 am - 6:00 pm   Tuesday 8:00 am - 6:00 pm   Wednesday 8:00 am - 6:00 pm   Thursday 8:00 am - 6:00 pm   Friday 8:00 am - 8:00 pm   Saturday 8:00 am - 6:00 pm   Sunday 10:00 am - 4:00 pm","latitude":"45.3435754","longitude":"-80.0343616"},{"source":"yellow page","service_name":"Sure Shot Outdoors","category":"badminton training","phone":"7057535871","address":"280 Nippissing St, Sturgeon Falls, ON P2B 3B3","postalcode":"P2B 3B3","website":" ","working_hour":"","latitude":"46.3636663","longitude":"-79.9248987"},{"source":"yellow page","service_name":"Cheapskates","category":"badminton training","phone":"705-495-4736","address":"274 Main St E, North Bay, ON P1B 1B1","postalcode":"P1B 1B1","website":"http://www.cheapskatesports.com","working_hour":"","latitude":"46.307944","longitude":"-79.4619"},{"source":"yellow page","service_name":"Howey Bros","category":"badminton training","phone":"705-647-9444","address":"57 Whitewood Ave W, New Liskeard, ON P0J 1P0","postalcode":"P0J 1P0","website":" ","working_hour":"","latitude":"47.5085889","longitude":"-79.6730134"},{"source":"yellow page","service_name":"Active 1 Source For Sports","category":"badminton training","phone":"705-647-5507","address":"15 Armstrong St, New Liskeard, ON P0J 1P0","postalcode":"P0J 1P0","website":"http://thesource.ca","working_hour":"","latitude":"47.508875","longitude":"-79.671533"},{"source":"yellow page","service_name":"U S E D Used Sports Equipment Depot","category":"badminton training","phone":"705-648-1432","address":"365 Broadway, Haileybury, ON P0J 1K0","postalcode":"P0J 1K0","website":" ","working_hour":"Appointment Only","latitude":"47.4498146","longitude":"-79.634066"},{"source":"yellow page","service_name":"Wilderness Dreams Outdoor Store","category":"badminton training","phone":"7056476549","address":"156457 Clover Valley Rd, New Liskeard, ON P0J 1P0","postalcode":"P0J 1P0","website":"http://wilderness-dreams.ca","working_hour":"","latitude":"47.544872","longitude":"-79.653031"},{"source":"yellow page","service_name":"The Running Link","category":"badminton training","phone":"705-647-5108","address":"166 Armstrong St N, New Liskeard, ON P0J 1P0","postalcode":"P0J 1P0","website":" ","working_hour":"","latitude":"47.512985","longitude":"-79.6715514"},{"source":"yellow page","service_name":"Sports Experts - Atmosphere","category":"badminton training","phone":"1-844-876-0626","address":"69, rue Gamble O, Rouyn-Noranda, QC J9X 2R3","postalcode":"J9X 2R3","website":"http://www.sportsexperts.ca","working_hour":"Monday 9:30 am - 5:30 pm   Tuesday 9:30 am - 5:30 pm   Wednesday 9:30 am - 5:30 pm   Thursday 9:30 am - 9:00 pm   Friday 9:30 am - 9:00 pm   Saturday 9:00 am - 5:00 pm   Sunday 12:00 pm - 5:00 pm","latitude":"48.2398974","longitude":"-79.0220855"},{"source":"yellow page","service_name":"Boutique Sportive Plus","category":"badminton training","phone":"8197628791","address":"93 av Principale, Rouyn-Noranda, QC J9X 4P1","postalcode":"J9X 4P1","website":" ","working_hour":"","latitude":"48.2406129","longitude":"-79.0200295"},{"source":"yellow page","service_name":"Sport Bélisle","category":"badminton training","phone":"819-762-7729","address":"66, av Principale, Rouyn-Noranda, QC J9X 4P2","postalcode":"J9X 4P2","website":"http://thesource.ca","working_hour":"","latitude":"48.24127","longitude":"-79.020065"},{"source":"yellow page","service_name":"Chlorophylle","category":"badminton training","phone":"819-797-6650","address":"4 15e Rue, Rouyn-Noranda, QC J9X 2J8","postalcode":"J9X 2J8","website":"http://www.chlorophylle.net/","working_hour":"Monday 9:30 am - 5:30 pm   Tuesday 9:30 am - 5:30 pm   Wednesday 9:30 am - 5:30 pm   Thursday 9:30 am - 9:00 pm   Friday 9:30 am - 9:00 pm   Saturday 9:30 am - 5:00 pm   Sunday 12:00 pm - 5:00 pm","latitude":"48.2412757","longitude":"-79.0323768"},{"source":"yellow page","service_name":"Larder Sports And Bait","category":"badminton training","phone":"705-643-2312","address":"44 Govt Rd, Larder Lake, ON","postalcode":"","website":" ","working_hour":"","latitude":"","longitude":""},{"source":"yellow page","service_name":"Intersport","category":"badminton training","phone":"819-764-2424","address":"100, rue du Terminus O, Rouyn-Noranda, QC J9X 6H7","postalcode":"J9X 6H7","website":" ","working_hour":"Monday 9:00 am - 5:00 pm   Tuesday 9:00 am - 5:00 pm   Wednesday 9:00 am - 5:00 pm   Thursday 9:00 am - 5:00 pm   Friday 9:00 am - 5:00 pm","latitude":"48.2417605","longitude":"-79.025897"},{"source":"yellow page","service_name":"Northern Sports","category":"badminton training","phone":"705-268-3902","address":"1150 Riverside Dr, Timmins, ON P4R 1A2","postalcode":"P4R 1A2","website":"http://www.northernsports.ca","working_hour":"Monday 9:00 am - 5:00 pm   Tuesday 9:00 am - 5:00 pm   Wednesday 9:00 am - 5:00 pm   Thursday 9:00 am - 5:00 pm   Friday 9:00 am - 5:00 pm","latitude":"48.4728477","longitude":"-81.3699583"},{"source":"yellow page","service_name":"Sport Chek","category":"badminton training","phone":"7055223389","address":"51-1933 Regent St, Sudbury, ON P3E 5R2","postalcode":"P3E 5R2","website":"http://www.sportchek.ca","working_hour":"","latitude":"46.450996","longitude":"-81.001269"},{"source":"yellow page","service_name":"Just Soccer","category":"badminton training","phone":"7055607734","address":"1775 Lasalle Blvd, Sudbury, ON P3A 2A3","postalcode":"P3A 2A3","website":" ","working_hour":"","latitude":"46.522074","longitude":"-80.932647"},{"source":"yellow page","service_name":"Skater's Edge Source for Sports","category":"badminton training","phone":"7055661422","address":"1-1338 Kingsway, Sudbury, ON P3B 0A3","postalcode":"P3B 0A3","website":"http://www.skatersedgesudbury.com","working_hour":"Monday 9:00 am - 9:00 pm   Tuesday 9:00 am - 9:00 pm   Wednesday 9:00 am - 9:00 pm   Thursday 9:00 am - 9:00 pm   Friday 9:00 am - 9:00 pm   Saturday 9:00 am - 5:00 pm   Sunday 11:00 am - 4:00 pm","latitude":"46.5041784","longitude":"-80.9491019"},{"source":"yellow page","service_name":"Foot Locker","category":"badminton training","phone":"705-525-5017","address":"1349 Lasalle Blvd, Sudbury, ON P3A 1Z2","postalcode":"P3A 1Z2","website":" ","working_hour":"","latitude":"46.52205","longitude":"-80.946949"},{"source":"yellow page","service_name":"Pinnacle Sports","category":"badminton training","phone":"705-523-7400","address":"4-140 Main, Sudbury, ON P3E 2P8","postalcode":"P3E 2P8","website":"http://www.pinnacle-sports.ca","working_hour":"Monday 8:00 am - 5:00 pm   Tuesday 8:00 am - 5:00 pm   Wednesday 8:00 am - 5:00 pm   Thursday 8:00 am - 5:00 pm   Friday 8:00 am - 5:00 pm","latitude":"46.586052","longitude":"-81.345584"},{"source":"yellow page","service_name":"Akfit Akfit","category":"badminton training","phone":"7055601550","address":"797 Barrydowne Rd, Sudbury, ON P3A 3T6","postalcode":"P3A 3T6","website":"http://www.akfit.com","working_hour":"Monday 9:00 am - 6:00 pm   Tuesday 9:00 am - 6:00 pm   Wednesday 9:00 am - 6:00 pm   Thursday 9:00 am - 9:00 pm   Friday 9:00 am - 9:00 pm   Saturday 9:00 am - 6:00 pm   Sunday 11:00 am - 6:00 pm","latitude":"46.514121","longitude":"-80.944134"},{"source":"yellow page","service_name":"Sarich's Source For Sports","category":"badminton training","phone":"705-848-3246","address":"136 Ontario Ave, Elliot Lake, ON P5A 1Y3","postalcode":"P5A 1Y3","website":" ","working_hour":"Monday 9:00 am - 5:00 pm   Tuesday 9:00 am - 5:00 pm   Wednesday 9:00 am - 5:00 pm   Thursday 9:00 am - 5:00 pm   Friday 9:00 am - 5:00 pm","latitude":"46.3840455","longitude":"-82.6481839"},{"source":"yellow page","service_name":"Sport Chek","category":"badminton training","phone":"7055258181","address":"1349 Lasalle Blvd, Sudbury, ON P3A 1Z2","postalcode":"P3A 1Z2","website":"http://sportchek.ca","working_hour":"","latitude":"46.519093","longitude":"-80.946381"},{"source":"yellow page","service_name":"Running Room","category":"badminton training","phone":"705-523-4664","address":"117-1984 Regent St, Sudbury, ON P3E 5S1","postalcode":"P3E 5S1","website":" ","working_hour":"","latitude":"46.450746","longitude":"-80.999047"},{"source":"yellow page","service_name":"Cycle Works","category":"badminton training","phone":"705-472-5662","address":"593 John St, North Bay, ON P1B 2M9","postalcode":"P1B 2M9","website":"http://www.cycleworksbikes.com","working_hour":"","latitude":"46.305158","longitude":"-79.454898"},{"source":"yellow page","service_name":"Skaters Edge Source For Sports","category":"badminton training","phone":"7058971687","address":"3695 Clarence Streeet, Val Caron, ON P3N 1H4","postalcode":"P3N 1H4","website":" ","working_hour":"","latitude":"46.6286333","longitude":"-81.0083189"},{"source":"yellow page","service_name":"Step Up","category":"badminton training","phone":"705-483-5073","address":"29-5085 Highway 69 N, Hanmer, ON P3P 1P7","postalcode":"P3P 1P7","website":"http://boutiquestepup.com","working_hour":"Tuesday 10:00 am - 6:00 pm   Wednesday 10:00 am - 6:00 pm   Thursday 10:00 am - 8:00 pm   Friday 10:00 am - 8:00 pm   Saturday 10:00 am - 4:00 pm   Sunday 11:00 am - 4:00 pm","latitude":"46.6527835","longitude":"-80.9892298"},{"source":"yellow page","service_name":"Breakaway Sports","category":"badminton training","phone":"705-368-3841","address":"9 Water E, Little Current, ON P0P 1K0","postalcode":"P0P 1K0","website":" ","working_hour":"","latitude":"45.9803658","longitude":"-81.9248637"},{"source":"yellow page","service_name":"Canadian Tire","category":"badminton training","phone":"7059694242","address":"","postalcode":"","website":" ","working_hour":"Monday 8:30 am - 9:00 pm   Tuesday 8:30 am - 9:00 pm   Wednesday 8:30 am - 9:00 pm   Thursday 8:30 am - 9:00 pm   Friday 8:30 am - 9:00 pm   Saturday 8:00 am - 6:00 pm   Sunday 9:30 am - 5:00 pm","latitude":"","longitude":""},{"source":"yellow page","service_name":"O'Reilly Sports","category":"badminton training","phone":"705-268-0864","address":"708 Algonquin Blvd E, Timmins, ON P4N 7H1","postalcode":"P4N 7H1","website":" ","working_hour":"Monday 10:00 am - 6:00 pm   Tuesday 10:00 am - 6:00 pm   Wednesday 10:00 am - 6:00 pm   Thursday 10:00 am - 8:00 pm   Friday 10:00 am - 8:00 pm   Saturday 9:00 am - 5:00 pm   Sunday 11:00 am - 3:00 pm","latitude":"48.476889","longitude":"-81.3163399"},{"source":"yellow page","service_name":"Pro Tackle Company","category":"badminton training","phone":"705-268-8069","address":"19 Father Costello Dr, Schumacher, ON P0N 1G0","postalcode":"P0N 1G0","website":"http://www.protackle.ca/","working_hour":"","latitude":"48.4764705","longitude":"-81.3008545"},{"source":"yellow page","service_name":"Timmins Boxing Club","category":"badminton training","phone":"705-268-8069","address":"19 Father Costello Dr, Schumacher, ON P0N 1G0","postalcode":"P0N 1G0","website":" ","working_hour":"Monday 8:15 am - 6:00 pm   Tuesday 8:15 am - 6:00 pm   Wednesday 8:15 am - 6:00 pm   Thursday 8:15 am - 6:00 pm   Friday 8:15 am - 7:00 pm","latitude":"48.4764705","longitude":"-81.3008545"},{"source":"yellow page","service_name":"Dumoulin Fishing Tackle","category":"badminton training","phone":"705-264-8098","address":"1008 Riverside Dr, Timmins, ON P4N 3W3","postalcode":"P4N 3W3","website":" ","working_hour":"Monday 7:00 am - 9:00 pm   Tuesday 7:00 am - 9:00 pm   Wednesday 7:00 am - 9:00 pm   Thursday 7:00 am - 9:00 pm   Friday 7:00 am - 9:00 pm   Saturday 7:00 am - 9:00 pm   Sunday 7:00 am - 9:00 pm","latitude":"48.4746357","longitude":"-81.3660967"},{"source":"yellow page","service_name":"The Outside Store","category":"badminton training","phone":"705-522-1755","address":"2140 Long Lake Rd, Sudbury, ON P3E 5H1","postalcode":"P3E 5H1","website":"http://www.theoutsidestore.ca","working_hour":"Monday 9:00 am - 5:30 pm   Tuesday 9:00 am - 5:30 pm   Wednesday 9:00 am - 5:30 pm   Thursday 9:00 am - 9:00 pm   Friday 9:00 am - 9:00 pm   Saturday 9:00 am - 5:30 pm   Sunday 12:00 pm - 4:30 pm","latitude":"46.4481306","longitude":"-81.0047551"},{"source":"yellow page","service_name":"Quinnsports","category":"badminton training","phone":"705-267-2455","address":"88 Third Ave, Timmins, ON P4N 1C3","postalcode":"P4N 1C3","website":" ","working_hour":"","latitude":"48.474914","longitude":"-81.33313"},{"source":"yellow page","service_name":"Source For Sports","category":"badminton training","phone":"705-264-1010","address":"950 Riverside Dr, Timmins, ON P4N 3W2","postalcode":"P4N 3W2","website":" ","working_hour":"","latitude":"48.4757295","longitude":"-81.3641454"},{"source":"yellow page","service_name":"Sport Chek","category":"badminton training","phone":"705-267-6611","address":"A4-1500 Riverside Dr, Timmins, ON P4R 1A1","postalcode":"P4R 1A1","website":"http://www.sportchek.ca","working_hour":"","latitude":"48.472559","longitude":"-81.382229"},{"source":"yellow page","service_name":"D & L Home & Cottage","category":"badminton training","phone":"705-264-0737","address":"617 Riverside Dr, Timmins, ON P4N 8L1","postalcode":"P4N 8L1","website":"http://www.dnldocks.com","working_hour":"","latitude":"48.4761708","longitude":"-81.3539206"},{"source":"yellow page","service_name":"Sault Scuba Centre Ltd","category":"badminton training","phone":"705-256-8015","address":"102 Northern Ave E, Sault Ste Marie, ON P6B 4H4","postalcode":"P6B 4H4","website":"http://www.saultscuba.com","working_hour":"Monday 10:00 am - 5:00 pm   Tuesday 10:00 am - 5:00 pm   Wednesday 12:00 am - 5:00 pm   Thursday 10:00 am - 5:00 pm   Friday 10:00 am - 5:00 pm   Saturday 9:00 am - 1:00 pm","latitude":"46.534069","longitude":"-84.33111"},{"source":"yellow page","service_name":"Savings World","category":"badminton training","phone":"705-910-6266","address":"6-25 Trunk Rd, Sault Ste Marie, ON P6A 3S2","postalcode":"P6A 3S2","website":" ","working_hour":"Monday 9:00 am - 6:00 pm   Tuesday 9:00 am - 6:00 pm   Wednesday 9:00 am - 6:00 pm   Thursday 9:00 am - 9:00 pm   Friday 9:00 am - 8:00 pm   Saturday 9:00 am - 5:00 pm","latitude":"46.510454","longitude":"-84.299916"},{"source":"yellow page","service_name":"Dave's Archery Shop","category":"badminton training","phone":"705-253-4658","address":"774 Third Line E, Sault Ste Marie, ON P6A 6J8","postalcode":"P6A 6J8","website":" ","working_hour":"Appointment Only","latitude":"46.553162","longitude":"-84.311522"},{"source":"yellow page","service_name":"Northern Store","category":"badminton training","phone":"705-278-3385","address":"PO Box 151, Fort Albany, ON P0L 1H0","postalcode":"P0L 1H0","website":"http://www.northmart.ca","working_hour":"","latitude":"","longitude":""},{"source":"yellow page","service_name":"Freehawk Enterprises","category":"badminton training","phone":"807-826-4242","address":"3 Huron Walk, Manitouwadge, ON P0T 2C0","postalcode":"P0T 2C0","website":" ","working_hour":"Call For Details: Sunday, Monday, Tuesday, Wednesday, Thursday, Friday, Saturday.","latitude":"49.1267048","longitude":"-85.8297776"},{"source":"yellow page","service_name":"Petrie's Cycle And Sports","category":"badminton training","phone":"807-623-7221","address":"125 Archibald St N, Thunder Bay, ON P7C 3X7","postalcode":"P7C 3X7","website":"http://www.petries.ca","working_hour":"Monday 9:00 am - 6:00 pm   Tuesday 9:00 am - 6:00 pm   Wednesday 9:00 am - 6:00 pm   Thursday 9:00 am - 6:00 pm   Friday 9:00 am - 6:00 pm   Saturday 9:00 am - 5:30 pm   Sunday 10:00 am - 4:00 pm","latitude":"48.385084","longitude":"-89.248899"},{"source":"yellow page","service_name":"Fresh Air Experience","category":"badminton training","phone":"807-623-9393","address":"710 Balmoral St, Thunder Bay, ON P7C 5V3","postalcode":"P7C 5V3","website":"http://freshairexp.com","working_hour":"","latitude":"48.395439","longitude":"-89.258243"},{"source":"yellow page","service_name":"Joe's Sports & Surplus Ltd","category":"badminton training","phone":"705-253-2361","address":"40 Queen St E, Sault Ste Marie, ON P6A 1Y3","postalcode":"P6A 1Y3","website":"http://www.joesportsandsurplus.com/","working_hour":"Monday 9:00 am - 9:00 pm   Tuesday 9:00 am - 9:00 pm   Wednesday 9:00 am - 9:00 pm   Thursday 9:00 am - 9:00 pm   Friday 9:00 am - 9:00 pm   Saturday 10:00 am - 6:00 pm   Sunday 12:00 pm - 5:00 pm","latitude":"46.517076","longitude":"-84.340256"},{"source":"yellow page","service_name":"Velorution Bikes & Skis","category":"badminton training","phone":"705-253-9388","address":"162 Old Garden River Rd, Sault Ste Marie, ON P6B 5A6","postalcode":"P6B 5A6","website":"http://velorution.ca","working_hour":"","latitude":"46.538902","longitude":"-84.313497"},{"source":"yellow page","service_name":"Club Cabana Aqua Spa","category":"badminton training","phone":"705-945-7611","address":"360 Great Northern Rd, Sault Ste Marie, ON P6B 4Z7","postalcode":"P6B 4Z7","website":"http://watertowerinn.com","working_hour":"","latitude":"46.537325","longitude":"-84.318893"},{"source":"yellow page","service_name":"Soo Source For Sports","category":"badminton training","phone":"705-942-7060","address":"208 Queen St East, Sault Ste. Marie, ON P6A 1Y7","postalcode":"P6A 1Y7","website":"https://soo.sourceforsports.com/","working_hour":"","latitude":"46.514998","longitude":"-84.337467"},{"source":"yellow page","service_name":"The Shoe Fits","category":"badminton training","phone":"705-942-3934","address":"Fb 2-293 Bay St, Sault Ste. Marie, ON P6A 1X3","postalcode":"P6A 1X3","website":"http://thestationmall.com","working_hour":"","latitude":"46.511962","longitude":"-84.336264"},{"source":"yellow page","service_name":"Lazy S Tack","category":"badminton training","phone":"705-248-2000","address":"5429 Hwy 17 E, Echo Bay, ON P0S 1C0","postalcode":"P0S 1C0","website":" ","working_hour":"","latitude":"46.3837216","longitude":"-84.0678834"},{"source":"yellow page","service_name":"John Rhodes Pro Shop","category":"badminton training","phone":"705-253-1057","address":"280 Elizabeth St, Sault Ste Marie, ON P6A 6J3","postalcode":"P6A 6J3","website":" ","working_hour":"Monday 2:00 pm - 10:00 pm   Tuesday 2:00 pm - 10:00 pm   Wednesday 2:00 pm - 10:00 pm   Thursday 2:00 pm - 10:00 pm   Friday 2:00 pm - 10:00 pm   Saturday 8:00 am - 8:00 pm   Sunday 8:00 am - 8:00 pm","latitude":"46.506933","longitude":"-84.303455"},{"source":"yellow page","service_name":"The Sault's Hockey Exchange","category":"badminton training","phone":"705-910-6232","address":"25 Trunk Rd Unit 6, ON P6A 3Z9","postalcode":"P6A 3Z9","website":" ","working_hour":"Monday 9:00 am - 6:00 pm   Tuesday 9:00 am - 6:00 pm   Wednesday 9:00 am - 6:00 pm   Thursday 9:00 am - 9:00 pm   Friday 9:00 am - 9:00 pm   Saturday 9:00 am - 5:00 pm","latitude":"46.509963","longitude":"-84.298317"},{"source":"yellow page","service_name":"West49 Inc","category":"badminton training","phone":"7059463567","address":"293 Bay St, Sault Ste Marie, ON P6A 1X3","postalcode":"P6A 1X3","website":" ","working_hour":"","latitude":"46.512166","longitude":"-84.336292"},{"source":"yellow page","service_name":"TAFCAN","category":"badminton training","phone":"7057597598","address":"55 Centennial Ave, Sault Ste Marie, ON P6A 5B2","postalcode":"P6A 5B2","website":" ","working_hour":"","latitude":"46.501177","longitude":"-84.268722"},{"source":"yellow page","service_name":"Sherry Bobay Outdoors","category":"badminton training","phone":"8079372095","address":"ON","postalcode":"","website":" ","working_hour":"","latitude":"43.651893","longitude":"-79.381713"},{"source":"yellow page","service_name":"Al's Sports Excellence","category":"badminton training","phone":"8077371323","address":"84 Front, Sioux Lookout, ON","postalcode":"","website":"#","working_hour":"","latitude":"","longitude":""},{"source":"yellow page","service_name":"Coulson's Corner","category":"badminton training","phone":"807-222-3738","address":"1335 105 Hwy, ON P0V 1T0","postalcode":"P0V 1T0","website":" ","working_hour":"","latitude":"52.971575","longitude":"-91.250178"},{"source":"yellow page","service_name":"Gill's Trading Post","category":"badminton training","phone":"807-226-5252","address":"5701C Highway 71, Sioux Narrows, ON P0X 1N0","postalcode":"P0X 1N0","website":" ","working_hour":"","latitude":"49.40722","longitude":"-94.095062"},{"source":"yellow page","service_name":"Sport Chek","category":"badminton training","phone":"705-945-0900","address":"61-293 Bay St, Sault Ste. Marie, ON P6A 1X3","postalcode":"P6A 1X3","website":"http://sportchek.ca","working_hour":"","latitude":"46.512166","longitude":"-84.336292"},{"source":"yellow page","service_name":"Red Lake Marine Products","category":"badminton training","phone":"807-727-2747","address":"22 Hwy 105, Red Lake, ON P0V 2M0","postalcode":"P0V 2M0","website":" ","working_hour":"Monday 7:00 am - 6:00 pm   Tuesday 7:00 am - 6:00 pm   Wednesday 7:00 am - 6:00 pm   Thursday 7:00 am - 6:00 pm   Friday 7:00 am - 6:00 pm   Saturday 7:00 am - 6:00 pm   Sunday 12:00 pm - 4:00 pm","latitude":"51.019375","longitude":"-93.823044"},{"source":"yellow page","service_name":"Taggs Source For Sports","category":"badminton training","phone":"807-468-2225","address":"312 2nd Street S, Kenora, ON P9N 1G3","postalcode":"P9N 1G3","website":"https://taggs.sourceforsports.com/","working_hour":"","latitude":"49.765763","longitude":"-94.48887"},{"source":"yellow page","service_name":"Weekend Adventure Taggs Source for Sports","category":"badminton training","phone":"807-468-8981","address":"313 Second St S, Kenora, ON P9N 1G3","postalcode":"P9N 1G3","website":"http://taggs.sourceforsports.com","working_hour":"","latitude":"49.765728","longitude":"-94.488713"},{"source":"yellow page","service_name":"Walt's Dry Goods","category":"badminton training","phone":"807-597-4433","address":"207 Main W, Atikokan, ON P0T 1C0","postalcode":"P0T 1C0","website":" ","working_hour":"Monday 9:00 am - 5:00 pm   Tuesday 9:00 am - 5:00 pm   Wednesday 9:00 am - 5:00 pm   Thursday 9:00 am - 5:00 pm   Friday 9:00 am - 5:00 pm   Saturday 9:00 am - 5:00 pm   Sunday 9:00 am - 5:00 pm","latitude":"48.7574749","longitude":"-91.6234093"},{"source":"yellow page","service_name":"Taggs Source For Sports","category":"badminton training","phone":"807-274-2444","address":"240 Scott St, Fort Frances, ON P9A 1G7","postalcode":"P9A 1G7","website":"https://taggs.sourceforsports.com/","working_hour":"","latitude":"48.6100011","longitude":"-93.3973665"},{"source":"yellow page","service_name":"Winnipeg Winter Club","category":"badminton training","phone":"204-452-3311","address":"200 River Ave, Winnipeg, MB R3L 0B2","postalcode":"R3L 0B2","website":"http://www.winnipegwinterclub.com","working_hour":"","latitude":"49.882456","longitude":"-97.136586"},{"source":"yellow page","service_name":"Sport Chek","category":"badminton training","phone":"7054970764","address":"850 McKeown Ave, North Bay, ON P1B 8M1","postalcode":"P1B 8M1","website":"http://sportchek.ca","working_hour":"","latitude":"46.3326596","longitude":"-79.4727444"},{"source":"yellow page","service_name":"Skater's Edge Source For Sports","category":"badminton training","phone":"705-478-7396","address":"1321B Fisher St, North Bay, ON P1B 2H2","postalcode":"P1B 2H2","website":" ","working_hour":"","latitude":"46.3123643","longitude":"-79.4462299"},{"source":"yellow page","service_name":"Legit Trix","category":"badminton training","phone":"705-474-7902","address":"2012 Cassells St, North Bay, ON P1B 4E2","postalcode":"P1B 4E2","website":" ","working_hour":"Monday 10:00 am - 7:00 pm   Tuesday 10:00 am - 7:00 pm   Wednesday 10:00 am - 7:00 pm   Thursday 10:00 am - 7:00 pm   Friday 10:00 am - 7:00 pm   Saturday 11:00 am - 6:00 pm   Sunday 11:00 am - 5:00 pm","latitude":"46.318085","longitude":"-79.444665"},{"source":"yellow page","service_name":"Sport Chek - Atmosphere","category":"badminton training","phone":"7058405007","address":"6-850 McKeown Avenue, North Bay, ON P1B 8M1","postalcode":"P1B 8M1","website":" ","working_hour":"","latitude":"46.3326596","longitude":"-79.4727444"},{"source":"yellow page","service_name":"The Outland Supply Co","category":"badminton training","phone":"7059953252","address":"163B Main St W, North Bay, ON P1B 2T6","postalcode":"P1B 2T6","website":" ","working_hour":"Monday 10:00 am - 5:30 pm   Tuesday 10:00 am - 5:30 pm   Wednesday 10:00 am - 5:30 pm   Thursday 10:00 am - 5:30 pm   Friday 10:00 am - 5:30 pm   Saturday 10:00 am - 5:00 pm","latitude":"46.3115494","longitude":"-79.4650752"},{"source":"yellow page","service_name":"Active Running & Therapy Centre","category":"badminton training","phone":"705-497-0004","address":"1004 Fisher St, North Bay, ON P1B 2G4","postalcode":"P1B 2G4","website":" ","working_hour":"","latitude":"46.309825","longitude":"-79.452554"},{"source":"yellow page","service_name":"Legit Trix","category":"badminton training","phone":"705-474-7510","address":"151A Main St W, North Bay, ON P1B 2T6","postalcode":"P1B 2T6","website":" ","working_hour":"","latitude":"46.3113629","longitude":"-79.4649116"},{"source":"yellow page","service_name":"KTP Athletics","category":"badminton training","phone":"7054989353","address":"ON","postalcode":"","website":" ","working_hour":"","latitude":"43.651893","longitude":"-79.381713"},{"source":"yellow page","service_name":"Just Sports","category":"badminton training","phone":"705-472-0084","address":"447 Main St E, North Bay, ON P1B 1B6","postalcode":"P1B 1B6","website":"http://www.justsports.net","working_hour":"","latitude":"46.30553","longitude":"-79.459776"},{"source":"yellow page","service_name":"Les Boys Sports","category":"badminton training","phone":"705-337-0050","address":"2 Brunelle Rd N, Kapuskasing, ON P5N 2L5","postalcode":"P5N 2L5","website":" ","working_hour":"","latitude":"49.409836","longitude":"-82.403328"},{"source":"yellow page","service_name":"Gaston's Cycle & Sport Ltd","category":"badminton training","phone":"705-335-2543","address":"19 Riverside Dr, Kapuskasing, ON P5N 1A4","postalcode":"P5N 1A4","website":" ","working_hour":"Monday 7:00 am - 4:00 pm   Tuesday 7:00 am - 4:00 pm   Wednesday 7:00 am - 4:00 pm   Thursday 7:00 am - 4:00 pm   Friday 7:00 am - 4:00 pm   Saturday 7:00 am - 4:00 pm   Sunday 7:00 am - 2:00 pm","latitude":"49.414389","longitude":"-82.421194"},{"source":"yellow page","service_name":"Sam's Mini Mart & Convenience Plus","category":"badminton training","phone":"705-372-1111","address":"59 Labelle St, Hearst, ON P5N 1L6","postalcode":"P5N 1L6","website":" ","working_hour":"","latitude":"49.427777","longitude":"-82.438085"},{"source":"yellow page","service_name":"D & R Sporting Goods Ltd","category":"badminton training","phone":"807-345-3323","address":"485 Memorial Ave, Thunder Bay, ON P7B 3Y6","postalcode":"P7B 3Y6","website":"http://dandrsports.ca/","working_hour":"","latitude":"48.421776","longitude":"-89.23768"},{"source":"yellow page","service_name":"Atmosphere","category":"badminton training","phone":"8073466840","address":"787 Memorial Drive, Thunder Bay, ON P7B 3Z7","postalcode":"P7B 3Z7","website":" ","working_hour":"","latitude":"48.4125135","longitude":"-89.2443771"},{"source":"yellow page","service_name":"Running Room","category":"badminton training","phone":"807-344-7575","address":"C1-379 Main St, Thunder Bay, ON P7B 5L6","postalcode":"P7B 5L6","website":"http://www.runningroom.com","working_hour":"","latitude":"48.40648","longitude":"-89.238747"},{"source":"yellow page","service_name":"The Cyclepath","category":"badminton training","phone":"8076233800","address":"831 May St N, Thunder Bay, ON P7C 3S2","postalcode":"P7C 3S2","website":"http://weknowbikes.com","working_hour":"","latitude":"48.397999","longitude":"-89.24548"},{"source":"yellow page","service_name":"Fitness Advantage","category":"badminton training","phone":"807-345-4868","address":"567 Memorial Ave, Thunder Bay, ON P7B 3Z1","postalcode":"P7B 3Z1","website":"http://www.exercisedirect.com","working_hour":"","latitude":"48.419153","longitude":"-89.239581"},{"source":"yellow page","service_name":"Pritchard Gun Repairs & Sales","category":"badminton training","phone":"807-344-4423","address":"122 Martha St, Thunder Bay, ON P7A 5Z4","postalcode":"P7A 5Z4","website":" ","working_hour":"","latitude":"48.444325","longitude":"-89.238339"},{"source":"yellow page","service_name":"Ostrom Outdoors","category":"badminton training","phone":"8074734499","address":"313 Victoria Ave E, Thunder Bay, ON P7C 1A4","postalcode":"P7C 1A4","website":"http://www.ostromoutdoors.com/","working_hour":"","latitude":"48.384101","longitude":"-89.243405"},{"source":"yellow page","service_name":"Madgicals Golf Kingdom","category":"badminton training","phone":"807-623-1677","address":"407 Victoria Ave E, Thunder Bay, ON P7C 1A6","postalcode":"P7C 1A6","website":"http://www.madgicals.ca","working_hour":"Monday 9:00 am - 4:00 pm   Tuesday 9:00 am - 4:00 pm   Wednesday 9:00 am - 4:00 pm   Thursday 9:00 am - 4:00 pm   Friday 9:00 am - 4:00 pm   Saturday 9:00 am - 4:00 pm","latitude":"48.384094","longitude":"-89.244157"},{"source":"yellow page","service_name":"Play It Again Sports","category":"badminton training","phone":"807-622-8282","address":"920 Memorial Ave, Thunder Bay, ON P7B 3Z9","postalcode":"P7B 3Z9","website":"http://www.playitagainsportsthunderbay.com","working_hour":"","latitude":"48.410399","longitude":"-89.245528"},{"source":"yellow page","service_name":"C & D Sports","category":"badminton training","phone":"807-346-9776","address":"141 Northern Ave, Thunder Bay, ON P7C 2V7","postalcode":"P7C 2V7","website":"http://thesportsdome.ca","working_hour":"Monday 5:00 pm - 9:00 pm   Tuesday 5:00 pm - 9:00 pm   Wednesday 5:00 pm - 9:00 pm   Thursday 5:00 pm - 9:00 pm   Friday 5:00 pm - 9:00 pm   Saturday 10:00 am - 5:00 pm","latitude":"48.397982","longitude":"-89.242057"},{"source":"yellow page","service_name":"Sport Chek","category":"badminton training","phone":"807-623-4410","address":"1000 Fort William Rd, Thunder Bay, ON P7B 6B9","postalcode":"P7B 6B9","website":"http://www.sportchek.ca","working_hour":"","latitude":"48.403845","longitude":"-89.241966"},{"source":"yellow page","service_name":"SoftMoc","category":"badminton training","phone":"807-622-2543","address":"1000 Fort William Rd, Thunder Bay, ON P7B 6B8","postalcode":"P7B 6B8","website":" ","working_hour":"","latitude":"48.403845","longitude":"-89.241966"},{"source":"yellow page","service_name":"Sport Mart","category":"badminton training","phone":"807-346-9119","address":"787 Memorial Ave, Thunder Bay, ON P7B 3Z7","postalcode":"P7B 3Z7","website":"http://sportmart.ca","working_hour":"","latitude":"48.4125135","longitude":"-89.2443771"},{"source":"yellow page","service_name":"Chaltrek Work & Play Outdoors","category":"badminton training","phone":"807-577-8848","address":"404 Balmoral St, Thunder Bay, ON P7C 5G8","postalcode":"P7C 5G8","website":" ","working_hour":"Monday 9:00 am - 5:30 am   Tuesday 9:00 am - 5:30 pm   Wednesday 9:00 am - 5:30 pm   Thursday 9:00 am - 5:30 pm   Friday 9:00 am - 5:30 pm   Saturday 10:00 am - 3:00 pm","latitude":"48.390239","longitude":"-89.258211"},{"source":"yellow page","service_name":"Gear Up For Outdoors Ltd","category":"badminton training","phone":"807-345-0001","address":"894 Alloy Pl, Thunder Bay, ON P7B 6E6","postalcode":"P7B 6E6","website":" ","working_hour":"Monday 8:30 am - 6:00 pm   Tuesday 8:30 am - 6:00 pm   Wednesday 8:30 am - 6:00 pm   Thursday 8:30 am - 9:00 pm   Friday 8:30 am - 6:00 pm   Saturday 9:00 am - 5:00 pm   Sunday 12:00 pm - 4:00 pm","latitude":"48.412531","longitude":"-89.251606"},{"source":"yellow page","service_name":"West 49","category":"badminton training","phone":"807-622-9100","address":"1000 Fort William Rd, Thunder Bay, ON P7B 6B9","postalcode":"P7B 6B9","website":"http://www.west49.com/","working_hour":"","latitude":"48.403845","longitude":"-89.241966"},{"source":"yellow page","service_name":"Champs Sports","category":"badminton training","phone":"807-622-5006","address":"1000 Fort William Rd, Thunder Bay, ON P7B 6B9","postalcode":"P7B 6B9","website":" ","working_hour":"","latitude":"48.403845","longitude":"-89.241966"},{"source":"yellow page","service_name":"Take A Hike - The Outdoor Adventure Co","category":"badminton training","phone":"807-474-4220","address":"309 Bay St, Thunder Bay, ON P7B 1R9","postalcode":"P7B 1R9","website":"http://www.takeahike.ca","working_hour":"See Our Website For Store Hours","latitude":"48.4321524","longitude":"-89.2302063"},{"source":"yellow page","service_name":"C & Dee's Just Guards","category":"badminton training","phone":"8076227866","address":"1312 Francis St W, Thunder Bay, ON P7E 4G3","postalcode":"P7E 4G3","website":" ","working_hour":"","latitude":"48.367256","longitude":"-89.301237"},{"source":"yellow page","service_name":"Overtime Sports & Collectables Inc","category":"badminton training","phone":"807-577-6995","address":"1101 Arthur St W, Thunder Bay, ON P7E 5S2","postalcode":"P7E 5S2","website":" ","working_hour":"","latitude":"48.380822","longitude":"-89.30818"},{"source":"yellow page","service_name":"Milt's Rod & Real","category":"badminton training","phone":"807-466-1821","address":"ON","postalcode":"","website":" ","working_hour":"","latitude":"","longitude":""},{"source":"yellow page","service_name":"Taggs Source For Sports","category":"badminton training","phone":"807-223-5305","address":"29 Whyte Ave, Dryden, ON P8N 1Z2","postalcode":"P8N 1Z2","website":"http://thesource.ca","working_hour":"","latitude":"49.78396","longitude":"-92.838868"},{"source":"yellow page","service_name":"Time-Out Sports","category":"badminton training","phone":"8072235684","address":"539 Government St, Dryden, ON P8N 2P6","postalcode":"P8N 2P6","website":" ","working_hour":"","latitude":"49.786158","longitude":"-92.821298"}]}