{"table":[{"source":"yellow page","service_name":"Dave's Handyman Service","category":"handyman","phone":"613-227-2927","address":"20 Vancourtland St S, Arnprior, ON K7S 2Z7","postalcode":"K7S 2Z7","website":" ","working_hour":"24 hours a day - 7 days a week   Emergency Appointments Available","latitude":"45.436312","longitude":"-76.364133"},{"source":"yellow page","service_name":"Réno Ben","category":"handyman","phone":"819-648-2733","address":"6 Brizard, Ile-Du-Grand-Calumet, QC J0X 1J0","postalcode":"J0X 1J0","website":" ","working_hour":"","latitude":"45.718776","longitude":"-76.611322"},{"source":"yellow page","service_name":"Constructions Donald Clément","category":"handyman","phone":"819-743-1601","address":"735 Rte 321, Papineauville, QC J0V 1R0","postalcode":"J0V 1R0","website":" ","working_hour":"","latitude":"45.645225","longitude":"-75.018489"},{"source":"yellow page","service_name":"Gareau Raymond Renovations","category":"handyman","phone":"613-525-0917","address":"382 Dominion S, Alexandria, ON K0C 1A0","postalcode":"K0C 1A0","website":" ","working_hour":"","latitude":"45.3012304","longitude":"-74.6266038"},{"source":"yellow page","service_name":"Finish that Space Custom Renovations","category":"handyman","phone":"613-797-6207","address":"PO Box 801, Osgoode, ON K0A 2W0","postalcode":"K0A 2W0","website":"http://finishthatspace.com","working_hour":"","latitude":"45.136317","longitude":"-75.488475"},{"source":"yellow page","service_name":"Shantz Construction Group Inc","category":"handyman","phone":"613-402-8855","address":"ON K0A 2W0","postalcode":"K0A 2W0","website":" ","working_hour":"","latitude":"45.136317","longitude":"-75.488475"},{"source":"yellow page","service_name":"Coleman Construction Ltd","category":"handyman","phone":"613-346-5594","address":"3302 Broadway Rd, Avonmore, ON K0C 1C0","postalcode":"K0C 1C0","website":" ","working_hour":"Monday 7:30 am - 5:00 pm   Tuesday 7:30 am - 5:00 pm   Wednesday 7:30 am - 5:00 pm   Thursday 7:30 am - 5:00 pm   Friday 7:30 am - 5:00 pm","latitude":"45.171543","longitude":"-74.9653"},{"source":"yellow page","service_name":"Jim's Handyman Services","category":"handyman","phone":"6134842309","address":"1926 Keeley Rd, Sydenham, ON K0H 2T0","postalcode":"K0H 2T0","website":" ","working_hour":"","latitude":"44.3956319","longitude":"-76.5372672"},{"source":"yellow page","service_name":"Wemp & Smith Construction Ltd","category":"handyman","phone":"613-384-4589","address":"4153 Rd 38, Harrowsmith, ON K0H 1V0","postalcode":"K0H 1V0","website":"http://wempandsmith.com","working_hour":"Monday 8:00 am - 4:30 pm   Tuesday 8:00 am - 4:30 pm   Wednesday 8:00 am - 4:30 pm   Thursday 8:00 am - 4:30 pm   Friday 8:00 am - 12:00 pm","latitude":"44.3703722","longitude":"-76.664387"},{"source":"yellow page","service_name":"Julian's Handyman","category":"handyman","phone":"613-548-8401","address":"1414 Audrey St, Kingston, ON K7L 4V4","postalcode":"K7L 4V4","website":"http://www.julianshandyman.com/","working_hour":"Monday 9:00 am - 12:00 pm   Tuesday 9:00 am - 12:00 pm   Wednesday 9:00 am - 12:00 pm   Thursday 9:00 am - 12:00 pm   Friday 9:00 am - 12:00 pm","latitude":"44.282441","longitude":"-76.537532"},{"source":"yellow page","service_name":"Knudsen Construction Ltd","category":"handyman","phone":"613-968-6836","address":"640 Dundas St E, Belleville, ON K8N 1G7","postalcode":"K8N 1G7","website":" ","working_hour":"Monday 7:00 am - 4:30 pm   Tuesday 7:00 am - 4:30 pm   Wednesday 7:00 am - 4:30 pm   Thursday 7:00 am - 4:30 pm   Friday 7:00 am - 4:30 pm   Saturday And Sunday By Appointment","latitude":"44.168937","longitude":"-77.3411757"},{"source":"yellow page","service_name":"William McConnell Plumbing","category":"handyman","phone":"613-476-8999","address":"206 County Road 10, Picton, ON K0K 2T0","postalcode":"K0K 2T0","website":" ","working_hour":"","latitude":"43.9950048","longitude":"-77.154095"},{"source":"yellow page","service_name":"Premier Contractors","category":"handyman","phone":"613-922-8933","address":"36 Prospect Ave, Picton, ON K0K 2T0","postalcode":"K0K 2T0","website":" ","working_hour":"","latitude":"44.0000877","longitude":"-77.1474807"},{"source":"yellow page","service_name":"Holbrough Services","category":"handyman","phone":"6138859605","address":"70 Crestview Ave, Belleville, ON K8N 1W8","postalcode":"K8N 1W8","website":"http://www.holbroughservices.com","working_hour":"Call For Details","latitude":"44.1701174","longitude":"-77.3602934"},{"source":"yellow page","service_name":"Rainbow Renovations","category":"handyman","phone":"7057542127","address":"2619 Haliburton St RR1, West Guilford, ON K0M 1S0","postalcode":"K0M 1S0","website":" ","working_hour":"","latitude":"45.20493","longitude":"-78.559656"},{"source":"yellow page","service_name":"Burgess Building Service","category":"handyman","phone":"705-457-7029","address":"Haliburton RR 1, Haliburton, ON K0M 1S0","postalcode":"K0M 1S0","website":"http://journal.crossfit.com/","working_hour":"Monday 9:00 am - 6:00 pm   Tuesday 9:00 am - 6:00 pm   Wednesday 9:00 am - 6:00 pm   Thursday 9:00 am - 6:00 pm   Friday 9:00 am - 6:00 pm","latitude":"45.20493","longitude":"-78.559656"},{"source":"yellow page","service_name":"Around the Lakes Contracting Inc","category":"handyman","phone":"7056521590","address":"1510 Young's Point Rd RR 3, Lakefield, ON K0L 2H0","postalcode":"K0L 2H0","website":"http://www.aroundthelakes.ca/","working_hour":"Monday 7:00 am - 7:00 pm   Tuesday 7:00 am - 7:00 pm   Wednesday 7:00 am - 7:00 pm   Thursday 7:00 am - 7:00 pm   Friday 7:00 am - 7:00 pm","latitude":"44.583732","longitude":"-78.191368"},{"source":"yellow page","service_name":"Bormanis Construction","category":"handyman","phone":"7057544156","address":"2573 Watts Rd RR 1, Haliburton, ON K0M 1S0","postalcode":"K0M 1S0","website":"http://bormanis.com","working_hour":"","latitude":"45.2580764","longitude":"-78.5947045"},{"source":"yellow page","service_name":"Miscio Construction","category":"handyman","phone":"705-754-3181","address":"1508 Barry Line, West Guilford, ON K0M 1S0","postalcode":"K0M 1S0","website":"http://miscioconstruction.ca","working_hour":"","latitude":"45.20493","longitude":"-78.559656"},{"source":"yellow page","service_name":"Highands Handy Man","category":"handyman","phone":"613-334-6591","address":"1980 Musclow-Greenviewn Rd, Bancroft, ON K0L 1C0","postalcode":"K0L 1C0","website":" ","working_hour":"","latitude":"45.1560747","longitude":"-77.7788552"},{"source":"yellow page","service_name":"Around The Lakes Contracting","category":"handyman","phone":"705-652-1590","address":"1510 Young's Point Rd, Lakefield, ON K0L 2H0","postalcode":"K0L 2H0","website":" ","working_hour":"","latitude":"44.583732","longitude":"-78.191368"},{"source":"yellow page","service_name":"W & G Landscaping - Construction","category":"handyman","phone":"705-308-9846","address":"343 County Rd 36, Bobcaygeon, ON K0M 1A0","postalcode":"K0M 1A0","website":" ","working_hour":"Monday 7:00 am - 6:00 pm   Tuesday 7:00 am - 6:00 pm   Wednesday 7:00 am - 6:00 pm   Thursday 7:00 am - 6:00 pm   Friday 7:00 am - 6:00 pm   Emergency Appointments Available","latitude":"44.5701992","longitude":"-78.5200866"},{"source":"yellow page","service_name":"Brunet General Contracting","category":"handyman","phone":"613-219-8388","address":"1427 Eastcliffe Way, Gloucester, ON K1B 5H6","postalcode":"K1B 5H6","website":" ","working_hour":"Monday 8:00 am - 8:00 pm   Tuesday 8:00 am - 8:00 pm   Wednesday 8:00 am - 8:00 pm   Thursday 8:00 am - 8:00 pm   Friday 8:00 am - 8:00 pm   Saturday 8:00 am - 8:00 pm   Sunday 8:00 am - 8:00 pm   Emergency Appointments Available","latitude":"45.422493","longitude":"-75.612867"},{"source":"yellow page","service_name":"Your Reno Guys","category":"handyman","phone":"613-744-0733","address":"1638 Cyrville Rd, Gloucester, ON K1B 3L8","postalcode":"K1B 3L8","website":" ","working_hour":"","latitude":"45.417635","longitude":"-75.607795"},{"source":"yellow page","service_name":"Adcor Construction","category":"handyman","phone":"613-422-2128","address":"1-2655 Blackwell St, Ottawa, ON K1B 4E4","postalcode":"K1B 4E4","website":"http://adcorconstruction.com","working_hour":"","latitude":"45.402334","longitude":"-75.607971"},{"source":"yellow page","service_name":"Advantage Home Improvements","category":"handyman","phone":"6133211094","address":"2715 Sheffield Rd, Ottawa, ON K1B 3V8","postalcode":"K1B 3V8","website":" ","working_hour":"","latitude":"45.401338","longitude":"-75.604371"},{"source":"yellow page","service_name":"PDD General Contractor","category":"handyman","phone":"6139838560","address":"1938 Queensdale Ave, Gloucester, ON K1T 1K1","postalcode":"K1T 1K1","website":" ","working_hour":"","latitude":"45.351896","longitude":"-75.61479"},{"source":"yellow page","service_name":"Your Neighbourhood Handyman","category":"handyman","phone":"6137002171","address":"55 Ossington Ave, Ottawa, ON K1S 3B5","postalcode":"K1S 3B5","website":"http://neighbourhoodhandyman.ca","working_hour":"Monday 9:00 am - 9:00 pm   Tuesday 9:00 am - 9:00 pm   Wednesday 9:00 am - 9:00 pm   Thursday 9:00 am - 9:00 pm   Friday 9:00 am - 9:00 pm   Saturday 9:00 am - 9:00 pm   Sunday 9:00 am - 9:00 pm","latitude":"45.390608","longitude":"-75.684542"},{"source":"yellow page","service_name":"Skilbilt","category":"handyman","phone":"613-864-5792","address":"40 Beckwith Rd, Ottawa, ON K1S 0K7","postalcode":"K1S 0K7","website":" ","working_hour":"","latitude":"45.405185","longitude":"-75.672953"},{"source":"yellow page","service_name":"Anpaq Home Improvements","category":"handyman","phone":"613-738-8064","address":"1690 Alta Vista Dr, Ottawa, ON K1G 0G5","postalcode":"K1G 0G5","website":"http://anpaq.com/","working_hour":"","latitude":"45.405075","longitude":"-75.660297"},{"source":"yellow page","service_name":"Construction BL","category":"handyman","phone":"343-700-0027","address":"310B, rue Riviéra, Gatineau, QC J8P 4G6","postalcode":"J8P 4G6","website":"http://www.constructionsbl.com/fr/#sectionSkin5","working_hour":"Monday 9:00 am - 5:00 pm   Tuesday 9:00 am - 5:00 pm   Wednesday 9:00 am - 5:00 pm   Thursday 9:00 am - 5:00 pm   Friday 9:00 am - 5:00 pm","latitude":"45.4770749","longitude":"-75.6437949"},{"source":"yellow page","service_name":"Les Entreprises G A M Enr","category":"handyman","phone":"819-772-9171","address":"21, rue Mance, Gatineau, QC J8X 3E8","postalcode":"J8X 3E8","website":" ","working_hour":"","latitude":"45.435982","longitude":"-75.716643"},{"source":"yellow page","service_name":"To Do - Done Handyman Services","category":"handyman","phone":"6139039855","address":"201-1306 Wellington St W, Ottawa, ON K1Y 3B2","postalcode":"K1Y 3B2","website":" ","working_hour":"","latitude":"45.398779","longitude":"-75.736254"},{"source":"yellow page","service_name":"Brookfield Brp/Canada Corp","category":"handyman","phone":"8199202230","address":"41 rue Victoria, Gatineau, QC J8X 2A1","postalcode":"J8X 2A1","website":" ","working_hour":"","latitude":"45.428758","longitude":"-75.714032"},{"source":"yellow page","service_name":"Handyman Personnel","category":"handyman","phone":"343-700-1074","address":"203 Rochester St, Ottawa, ON K1R 7M5","postalcode":"K1R 7M5","website":"http://handymanpersonnel.ca","working_hour":"Monday 5:00 am - 5:00 pm   Tuesday 5:00 am - 5:00 pm   Wednesday 5:00 am - 5:00 pm   Thursday 5:00 am - 5:00 pm   Friday 5:00 am - 5:00 pm","latitude":"45.40733","longitude":"-75.7109361"},{"source":"yellow page","service_name":"Centretown Citizens Ottawa Corp","category":"handyman","phone":"613-238-5747","address":"160 Argyle Ave, Ottawa, ON K2P 0N2","postalcode":"K2P 0N2","website":" ","working_hour":"","latitude":"45.4120546","longitude":"-75.6887314"},{"source":"yellow page","service_name":"Germano Tony Painting & Decorating","category":"handyman","phone":"613-723-9556","address":"8 Ashburn Dr, Nepean, ON K2E 6N3","postalcode":"K2E 6N3","website":"http://germanotonypaintinganddecorating.ca","working_hour":"","latitude":"45.359969","longitude":"-75.712775"},{"source":"yellow page","service_name":"Burnkirk Bca","category":"handyman","phone":"613-224-8777","address":"1126 Falaise Rd Offic, Nepean, ON K2E 6R5","postalcode":"K2E 6R5","website":" ","working_hour":"","latitude":"45.355151","longitude":"-75.717001"},{"source":"yellow page","service_name":"J M Construction Inc","category":"handyman","phone":"613-822-9684","address":"4102 Ramsayville Rd, Gloucester, ON K1G 3N4","postalcode":"K1G 3N4","website":" ","working_hour":"","latitude":"45.345386","longitude":"-75.5534027"},{"source":"yellow page","service_name":"Universal Home Improvement","category":"handyman","phone":"613-282-9360","address":"ON K2C 3H1","postalcode":"K2C 3H1","website":"http://www.universalhome.ca","working_hour":"","latitude":"45.297857","longitude":"-75.700011"},{"source":"yellow page","service_name":"Zacconi Contracting Inc and Carpentry","category":"handyman","phone":"613-978-5129","address":"201-1489 Merivale Rd, Nepean, ON K2E 5P3","postalcode":"K2E 5P3","website":" ","working_hour":"24 hours a day - 7 days a week","latitude":"45.3592615","longitude":"-75.7361124"},{"source":"yellow page","service_name":"Entreprises S P B Inc","category":"handyman","phone":"819-557-1182","address":"7, rue Henri-Laflamme, Gatineau, QC J9H 1M7","postalcode":"J9H 1M7","website":" ","working_hour":"","latitude":"45.3853863","longitude":"-75.8024121"},{"source":"yellow page","service_name":"Al'Handyman & Maintenance Services","category":"handyman","phone":"613-255-3763","address":"ON K2H 7B4","postalcode":"K2H 7B4","website":" ","working_hour":"","latitude":"45.339863","longitude":"-75.790102"},{"source":"yellow page","service_name":"Proulx Construction","category":"handyman","phone":"819-790-9595","address":"7, rue Henri-Laflamme, Gatineau, QC J9H 1M7","postalcode":"J9H 1M7","website":"http://proulxconstruction.ca","working_hour":"Monday 8:00 am - 4:00 pm   Tuesday 8:00 am - 4:00 pm   Wednesday 8:00 am - 4:00 pm   Thursday 8:00 am - 4:00 pm   Friday 8:00 am - 12:00 pm   Appointment Only","latitude":"45.3853863","longitude":"-75.8024121"},{"source":"yellow page","service_name":"R Richardson Renovations","category":"handyman","phone":"6132262635","address":"32 Fair Oaks Cres, Ottawa, ON K2G 4W6","postalcode":"K2G 4W6","website":" ","working_hour":"Monday 8:00 am - 5:00 pm   Tuesday 8:00 am - 5:00 pm   Wednesday 8:00 am - 5:00 pm   Thursday 8:00 am - 5:00 pm   Friday 8:00 am - 5:00 pm","latitude":"45.335948","longitude":"-75.75751"},{"source":"yellow page","service_name":"ADG Renovation","category":"handyman","phone":"613-668-5515","address":"ON K2E 5S9","postalcode":"K2E 5S9","website":" ","working_hour":"","latitude":"45.35192","longitude":"-75.726164"},{"source":"yellow page","service_name":"KG Contracting","category":"handyman","phone":"613-229-8360","address":"1568 Merivale Rd, Ottawa, ON K2G 3J9","postalcode":"K2G 3J9","website":" ","working_hour":"","latitude":"45.3519459","longitude":"-75.7341869"},{"source":"yellow page","service_name":"Pure Reno Inc","category":"handyman","phone":"613-851-0907","address":"49 Roundhay Dr, Nepean, ON K2G 1B6","postalcode":"K2G 1B6","website":"http://purereno.com","working_hour":"","latitude":"45.327304","longitude":"-75.762847"},{"source":"yellow page","service_name":"Tavla Homes","category":"handyman","phone":"613-617-8575","address":"2652 Baynes Sound Way, Nepean, ON K2J 0X2","postalcode":"K2J 0X2","website":" ","working_hour":"Monday 8:00 am - 8:00 pm   Tuesday 8:00 am - 8:00 pm   Wednesday 8:00 am - 8:00 pm   Thursday 8:00 am - 8:00 pm   Friday 8:00 am - 8:00 pm   Saturday 8:00 am - 8:00 pm   Sunday 8:00 am - 8:00 pm   Emergency Appointments Available","latitude":"45.249839","longitude":"-75.743963"},{"source":"yellow page","service_name":"Evolutionary Contracting Inc","category":"handyman","phone":"613-698-8899","address":"114 Vallier Way, Ottawa, ON K4A 0R4","postalcode":"K4A 0R4","website":" ","working_hour":"","latitude":"45.4476298","longitude":"-75.4658287"},{"source":"yellow page","service_name":"Marc Construction","category":"handyman","phone":"613-413-8962","address":"317 Summer Sky St, Ottawa, ON K4A 0V3","postalcode":"K4A 0V3","website":" ","working_hour":"Monday 9:00 am - 5:00 pm   Tuesday 9:00 am - 5:00 pm   Wednesday 9:00 am - 5:00 pm   Thursday 9:00 am - 5:00 pm   Friday 9:00 am - 5:00 pm   Emergency Appointments Available","latitude":"45.4496594","longitude":"-75.4611702"},{"source":"yellow page","service_name":"Les Entreprises Dubois","category":"handyman","phone":"819-420-0435","address":"13A, imp du Kayak, Gatineau, QC J9H 5C2","postalcode":"J9H 5C2","website":" ","working_hour":"","latitude":"45.4020941","longitude":"-75.8659015"},{"source":"yellow page","service_name":"Victory Construction & Rénovation","category":"handyman","phone":"819-485-1483","address":"180, rue de la Lobo, Gatineau, QC J9J 1K6","postalcode":"J9J 1K6","website":" ","working_hour":"Monday 8:00 am - 5:00 pm   Tuesday 8:00 am - 5:00 pm   Wednesday 8:00 am - 5:00 pm   Thursday 8:00 am - 5:00 pm   Friday 8:00 am - 5:00 pm","latitude":"45.407736","longitude":"-75.872492"},{"source":"yellow page","service_name":"Renovation Michel Bourgeois","category":"handyman","phone":"8192813222","address":"6 rue Bastien, Gatineau, QC J8L 3W1","postalcode":"J8L 3W1","website":" ","working_hour":"","latitude":"45.577466","longitude":"-75.436242"},{"source":"yellow page","service_name":"Maximum Renovations","category":"handyman","phone":"613-869-3697","address":"1002 WINTERSPRING RIDGE, ORLÉANS, ON K4A 0R4","postalcode":"K4A 0R4","website":" ","working_hour":"Monday 8:00 am - 8:00 pm   Tuesday 8:00 am - 8:00 pm   Wednesday 8:00 am - 8:00 pm   Thursday 8:00 am - 8:00 pm   Friday 8:00 am - 8:00 pm   Saturday 8:00 am - 8:00 pm   Sunday 8:00 am - 8:00 pm   Emergency Appointments Available","latitude":"45.4456046","longitude":"-75.4693768"},{"source":"yellow page","service_name":"Dacey Construction","category":"handyman","phone":"613-853-2054","address":"6794 Second Line Rd, Lancaster, ON K0A 2E0","postalcode":"K0A 2E0","website":" ","working_hour":"Monday 9:00 am - 5:00 pm   Tuesday 9:00 am - 5:00 pm   Wednesday 9:00 am - 5:00 pm   Thursday 9:00 am - 5:00 pm   Friday 9:00 am - 5:00 pm","latitude":"45.137748","longitude":"-75.6550946"},{"source":"yellow page","service_name":"DM Quinty Construction","category":"handyman","phone":"450-566-0855","address":"691, rue Lafleur, Lachute, QC J8H 1S1","postalcode":"J8H 1S1","website":" ","working_hour":"","latitude":"45.6569533","longitude":"-74.3263106"},{"source":"yellow page","service_name":"Service de Menuiserie MS","category":"handyman","phone":"450-560-1637","address":"11, rue Clark, Lachute, QC J8H 3W7","postalcode":"J8H 3W7","website":" ","working_hour":"Monday 9:00 am - 5:00 pm   Tuesday 9:00 am - 5:00 pm   Wednesday 9:00 am - 5:00 pm   Thursday 9:00 am - 5:00 pm   Friday 9:00 am - 5:00 pm","latitude":"45.6665889","longitude":"-74.2848657"},{"source":"yellow page","service_name":"Construction Gosselin","category":"handyman","phone":"4505629899","address":"219 av Béthany, Lachute, QC J8H 2M6","postalcode":"J8H 2M6","website":"http://www.gouttieresxperts.com","working_hour":"Monday 8:00 am - 5:00 pm   Tuesday 8:00 am - 5:00 pm   Wednesday 8:00 am - 5:00 pm   Thursday 8:00 am - 5:00 pm   Friday 8:00 am - 5:00 pm   Saturday 9:00 am - 4:00 pm","latitude":"45.6524832","longitude":"-74.330772"},{"source":"yellow page","service_name":"Eco Finition Inc","category":"handyman","phone":"5797910004","address":"434 ch Sinclair, Brownsburg-Chatham, QC J8G 1X2","postalcode":"J8G 1X2","website":"http://www.ecofinition.ca/","working_hour":"Monday 8:00 am - 5:00 pm   Tuesday 8:00 am - 5:00 pm   Wednesday 8:00 am - 5:00 pm   Thursday 8:00 am - 5:00 pm   Friday 8:00 am - 5:00 pm","latitude":"45.699746","longitude":"-74.364971"},{"source":"yellow page","service_name":"Charlebois & Fils Ltée","category":"handyman","phone":"450-562-5550","address":"735, boul Cristini, Lachute, QC J8H 4N6","postalcode":"J8H 4N6","website":" ","working_hour":"","latitude":"45.6390933","longitude":"-74.3186987"},{"source":"yellow page","service_name":"Fontaine Paul Home Renovation","category":"handyman","phone":"6135516179","address":"317 Leonia St, Cornwall, ON K6H 5M3","postalcode":"K6H 5M3","website":" ","working_hour":"","latitude":"45.0292542","longitude":"-74.6939172"},{"source":"yellow page","service_name":"RayJans Construction","category":"handyman","phone":"613-932-0480","address":"840 Campbell St, Cornwall, ON K6H 6L7","postalcode":"K6H 6L7","website":"http://www.construction.rayjans.com","working_hour":"Monday 8:00 am - 5:00 pm   Tuesday 8:00 am - 5:00 pm   Wednesday 8:00 am - 5:00 pm   Thursday 8:00 am - 5:00 pm   Friday 8:00 am - 5:00 pm","latitude":"45.042328","longitude":"-74.693043"},{"source":"yellow page","service_name":"Handy Man","category":"handyman","phone":"6139322400","address":"331 St Felix St, Cornwall, ON K6H 5A7","postalcode":"K6H 5A7","website":" ","working_hour":"","latitude":"45.023192","longitude":"-74.70565"},{"source":"yellow page","service_name":"A&M Lumber Tree Service","category":"handyman","phone":"514-831-4855","address":"1996 Belvedere Cres, Cornwall, ON K6H 6M9","postalcode":"K6H 6M9","website":" ","working_hour":"24 hours a day - 7 days a week   Appointment Only","latitude":"45.032051","longitude":"-74.684701"},{"source":"yellow page","service_name":"L J Home Improvement","category":"handyman","phone":"613-658-2209","address":"1707 Ventnor Rd, Spencerville, ON K0E 1X0","postalcode":"K0E 1X0","website":"http://www.ljhomeimprovements.com/","working_hour":"Monday 8:00 am - 4:00 pm   Tuesday 8:00 am - 4:00 pm   Wednesday 8:00 am - 4:00 pm   Thursday 8:00 am - 4:00 pm   Friday 8:00 am - 4:00 pm","latitude":"44.886124","longitude":"-75.5256363"},{"source":"yellow page","service_name":"Your Space Home Impro","category":"handyman","phone":"6138383566","address":"PO Box 706, Richmond, ON K0A 2Z0","postalcode":"K0A 2Z0","website":" ","working_hour":"","latitude":"45.117473","longitude":"-75.788267"},{"source":"yellow page","service_name":"Thomas Lieverdink Construction","category":"handyman","phone":"613-292-7967","address":"2732 Rideau Glen Rd, Kemptville, ON K0G 1J0","postalcode":"K0G 1J0","website":" ","working_hour":"Monday 9:00 am - 5:00 pm   Tuesday 9:00 am - 5:00 pm   Wednesday 9:00 am - 5:00 pm   Thursday 9:00 am - 5:00 pm   Friday 9:00 am - 5:00 pm","latitude":"45.046389","longitude":"-75.6778746"},{"source":"yellow page","service_name":"Home Strength Renovations","category":"handyman","phone":"6134447366","address":"Richmond, ON K0A 2Z0","postalcode":"K0A 2Z0","website":" ","working_hour":"","latitude":"45.117473","longitude":"-75.788267"},{"source":"yellow page","service_name":"Lamarnic & J","category":"handyman","phone":"613-838-3443","address":"8775 Frantown, Richmond, ON K0A 2Z0","postalcode":"K0A 2Z0","website":" ","working_hour":"","latitude":"45.117473","longitude":"-75.788267"},{"source":"yellow page","service_name":"Dependable Drew Handyman Service","category":"handyman","phone":"613-257-9675","address":"PO Box 1323 Stn Main, Carleton Place, ON K7C 4L5","postalcode":"K7C 4L5","website":" ","working_hour":"","latitude":"45.11645","longitude":"-76.156407"},{"source":"yellow page","service_name":"Winston Miller Construction Inc","category":"handyman","phone":"613-227-4123","address":"1123 Old Almonte Rd RR 3, Almonte, ON K0A 1A0","postalcode":"K0A 1A0","website":"http://www.winstonmillerconstruction.com/snow-removal.html","working_hour":"24 hours a day - 7 days a week   Emergency Appointments Available","latitude":"45.225361","longitude":"-76.1759802"},{"source":"yellow page","service_name":"Lowe's Home Improvement Warehouse","category":"handyman","phone":"6136345410","address":"1035 Gardiners Rd, Kingston, ON K7P 0G1","postalcode":"K7P 0G1","website":" ","working_hour":"","latitude":"44.262046","longitude":"-76.568723"},{"source":"yellow page","service_name":"D&K Young Home Improvements","category":"handyman","phone":"6138932425","address":"5234 Petworth Rd, Harrowsmith, ON K0H 1V0","postalcode":"K0H 1V0","website":" ","working_hour":"Monday 9:00 am - 7:00 pm   Tuesday 9:00 am - 7:00 pm   Wednesday 9:00 am - 7:00 pm   Thursday 9:00 am - 7:00 pm   Friday 9:00 am - 7:00 pm   Saturday 9:00 am - 7:00 pm   Emergency appointments available","latitude":"44.421451","longitude":"-76.7523303"},{"source":"yellow page","service_name":"Layfield Lynda","category":"handyman","phone":"613-384-3005","address":"3961 Howes Rd, Kingston, ON K0H 2H0","postalcode":"K0H 2H0","website":"http://www.layfieldcarpentry.com","working_hour":"","latitude":"44.295127","longitude":"-76.654972"},{"source":"yellow page","service_name":"Hammer This Home Renovations","category":"handyman","phone":"613-634-8738","address":"5213 Colebrook Rd, Harrowsmith, ON K0H 1V0","postalcode":"K0H 1V0","website":" ","working_hour":"","latitude":"44.3991965","longitude":"-76.7446295"},{"source":"yellow page","service_name":"Renovations Multi-Travaux Le Bricoleur (R.B.Q.)","category":"handyman","phone":"819-328-2595","address":"Gatineau, Luskville, QC J0X 2G0","postalcode":"J0X 2G0","website":"http://multitravauxlebricoleur.com","working_hour":"","latitude":"45.538766","longitude":"-76.083514"},{"source":"yellow page","service_name":"Judand Construction Ltée","category":"handyman","phone":"819-455-2525","address":"84, rue des Tourterelles, Luskville, QC J0X 2G0","postalcode":"J0X 2G0","website":" ","working_hour":"","latitude":"45.5066065","longitude":"-76.0449094"},{"source":"yellow page","service_name":"Emond Carpentry","category":"handyman","phone":"819-689-5797","address":"962 Chapeau-Waltham, Chapeau, QC J0X 1M0","postalcode":"J0X 1M0","website":" ","working_hour":"","latitude":"45.919283","longitude":"-77.018425"},{"source":"yellow page","service_name":"D&K Renovations","category":"handyman","phone":"9053960421","address":"152 Diemo Rd, Baltimore, ON K0K 1C0","postalcode":"K0K 1C0","website":" ","working_hour":"Monday 7:00 am - 7:00 pm   Tuesday 7:00 am - 7:00 pm   Wednesday 7:00 am - 7:00 pm   Thursday 7:00 am - 7:00 pm   Friday 7:00 am - 7:00 pm   Appointment only   Emergency appointments available","latitude":"44.0696028","longitude":"-78.0665334"},{"source":"yellow page","service_name":"Parker Building & Remodelling","category":"handyman","phone":"905-372-2366","address":"4718 County Road 45, Cobourg, ON K9A 4J9","postalcode":"K9A 4J9","website":" ","working_hour":"","latitude":"44.056802","longitude":"-78.20098"},{"source":"yellow page","service_name":"MacDonald's Home Improvements","category":"handyman","phone":"7059270444","address":"809 Simcoe St, Bridgenorth, ON K0L 1H0","postalcode":"K0L 1H0","website":" ","working_hour":"Monday 8:00 am - 5:00 pm   Tuesday 8:00 am - 5:00 pm   Wednesday 8:00 am - 5:00 pm   Thursday 8:00 am - 5:00 pm   Friday 8:00 am - 5:00 pm   Appointment only","latitude":"44.379564","longitude":"-78.3863934"},{"source":"yellow page","service_name":"Nightingale Nursing Registry Ltd","category":"handyman","phone":"705-652-6118","address":"2948 Lakefield Rd, Peterborough, ON K9J 6X5","postalcode":"K9J 6X5","website":" ","working_hour":"24 Hours A Day - 7 Days A Week","latitude":"44.3928557","longitude":"-78.2867378"},{"source":"yellow page","service_name":"Richards Renovations","category":"handyman","phone":"9054391164","address":"561 Salem Rd, Oshawa, ON K0M 2J0","postalcode":"K0M 2J0","website":" ","working_hour":"","latitude":"44.293008","longitude":"-78.96758"},{"source":"yellow page","service_name":"Jim's General Contracting & Handyman Services","category":"handyman","phone":"705-341-4140","address":"39 Parkhill Dr, Fenelon Falls, ON K0M 1N0","postalcode":"K0M 1N0","website":" ","working_hour":"","latitude":"44.487755","longitude":"-78.6709776"},{"source":"yellow page","service_name":"A & L Home Improvements","category":"handyman","phone":"7057383339","address":"78 Bayview Estate Rd RR 3, Fenelon Falls, ON K0M 1N0","postalcode":"K0M 1N0","website":" ","working_hour":"","latitude":"44.520614","longitude":"-78.6335637"},{"source":"yellow page","service_name":"Competitors Contracting Inc","category":"handyman","phone":"289-366-3751","address":"46 King St, Woodville, ON K0M 2T0","postalcode":"K0M 2T0","website":"http://www.callcompetitors.com","working_hour":"Monday 9:00 am - 5:00 pm   Tuesday 9:00 am - 5:00 pm   Wednesday 9:00 am - 5:00 pm   Thursday 9:00 am - 5:00 pm   Friday 9:00 am - 5:00 pm   Appointment Only","latitude":"44.3996535","longitude":"-78.9834339"},{"source":"yellow page","service_name":"Kelsey's Plumbing","category":"handyman","phone":"705-439-2324","address":"218 Sandringham Rd RR 5, Woodville, ON K0M 2T0","postalcode":"K0M 2T0","website":" ","working_hour":"","latitude":"44.4278774","longitude":"-78.9522439"},{"source":"yellow page","service_name":"Barr Cindy","category":"handyman","phone":"7052926617","address":"268 Clonakilty Line RR 2, Ennismore, ON K0L 1T0","postalcode":"K0L 1T0","website":" ","working_hour":"","latitude":"44.3574987","longitude":"-78.4288104"},{"source":"yellow page","service_name":"Call My Guy Handyman Services","category":"handyman","phone":"6474721484","address":"37 Enzo Cres, Uxbridge, ON L9P 1M3","postalcode":"L9P 1M3","website":" ","working_hour":"","latitude":"44.102111","longitude":"-79.104576"},{"source":"yellow page","service_name":"Eric the Organizer / Personal Handyman","category":"handyman","phone":"416-417-0625","address":"22 Carrick Ave, Ajax, ON L1T 2P4","postalcode":"L1T 2P4","website":" ","working_hour":"24 hours a day - 7 days a week","latitude":"43.873139","longitude":"-79.044685"},{"source":"yellow page","service_name":"Restoration 1 Etobicoke","category":"handyman","phone":"4166654797","address":"149 Norfinch Dr, North York, ON M3N 1Y2","postalcode":"M3N 1Y2","website":" ","working_hour":"","latitude":"43.764259","longitude":"-79.529864"},{"source":"yellow page","service_name":"Tapstone Restoration Inc","category":"handyman","phone":"9054821772","address":"177 Drumlin, Concord, ON L4K 3E7","postalcode":"L4K 3E7","website":" ","working_hour":"","latitude":"43.785847","longitude":"-79.488055"},{"source":"yellow page","service_name":"Cahill Custom Carpentry","category":"handyman","phone":"8448289694","address":"Horseshoe Valley, ON","postalcode":"","website":" ","working_hour":"Monday 7:30 am - 6:30 pm   Tuesday 7:30 am - 6:30 pm   Wednesday 7:30 am - 6:30 pm   Thursday 7:30 am - 6:30 pm   Friday 7:30 am - 6:30 pm","latitude":"44.552911","longitude":"-79.671401"},{"source":"yellow page","service_name":"Re-New Construction","category":"handyman","phone":"705-487-5152","address":"1558 Line 5 N, Oro Station, ON L0L 2E0","postalcode":"L0L 2E0","website":"http://www.renewconstruction.ca","working_hour":"Monday 7:30 am - 6:00 pm   Tuesday 7:30 am - 6:00 pm   Wednesday 7:30 am - 6:00 pm   Thursday 7:30 am - 6:00 pm   Friday 7:30 am - 6:00 pm","latitude":"44.5139565","longitude":"-79.605275"},{"source":"yellow page","service_name":"Simcoe Precision Contracting","category":"handyman","phone":"7059993258","address":"12730 County Rd 16, Waubaushene, ON L0K 2C0","postalcode":"L0K 2C0","website":" ","working_hour":"Monday 8:00 am - 4:00 pm   Tuesday 8:00 am - 4:00 pm   Wednesday 8:00 am - 4:00 pm   Thursday 8:00 am - 4:00 pm   Friday 8:00 am - 6:00 pm","latitude":"44.7303869","longitude":"-79.6697669"},{"source":"yellow page","service_name":"John Wilson - HandyMan Services","category":"handyman","phone":"705-955-1613","address":"Warminste, ON L0K 2G0","postalcode":"L0K 2G0","website":" ","working_hour":"24 hours a day - 7 days a week","latitude":"44.642336","longitude":"-79.549368"},{"source":"yellow page","service_name":"Done Right Home Improvements","category":"handyman","phone":"705-728-5800","address":"35 Wismer Ave, Barrie, ON L4N 7X9","postalcode":"L4N 7X9","website":"http://www.donerighthomeimprovements.com","working_hour":"","latitude":"44.3931242","longitude":"-79.7374925"},{"source":"yellow page","service_name":"Geerlings Homes Ltd","category":"handyman","phone":"705-458-0296","address":"Thornton, Thornton, ON L0L 2N0","postalcode":"L0L 2N0","website":"http://www.geerlingshomes.ca","working_hour":"","latitude":"44.273515","longitude":"-79.716823"},{"source":"yellow page","service_name":"Renovations By Rodgers","category":"handyman","phone":"705-739-7720","address":"28-21 Patterson Rd, Barrie, ON L4N 7W6","postalcode":"L4N 7W6","website":"http://www.renovationsbyrodgers.com","working_hour":"Monday 8:30 am - 4:30 pm   Tuesday 8:30 am - 4:30 pm   Wednesday 8:30 am - 4:30 pm   Thursday 8:30 am - 4:30 pm   Friday 8:30 am - 4:30 pm   Call For Appointment","latitude":"44.3693149","longitude":"-79.7086883"},{"source":"yellow page","service_name":"RJ Handyman","category":"handyman","phone":"705-999-1202","address":"109 Ruffet Dr, Barrie, ON L4N 0N7","postalcode":"L4N 0N7","website":"http://www.rjhandyman.ca","working_hour":"","latitude":"44.3761775","longitude":"-79.7375087"},{"source":"yellow page","service_name":"Urban Trend Hardscapes & Handyman Services","category":"handyman","phone":"7057156870","address":"54 O'Shaughnessy Cres, Barrie, ON L4N 7L8","postalcode":"L4N 7L8","website":"http://www.urbantrends.ca","working_hour":"","latitude":"44.3421078","longitude":"-79.7054741"},{"source":"yellow page","service_name":"Amanding Construction Ltd","category":"handyman","phone":"705-721-9280","address":"394 Tiffin St, Barrie, ON L4N 9W8","postalcode":"L4N 9W8","website":"http://www.amandingconstruction.com","working_hour":"","latitude":"44.3689785","longitude":"-79.7155077"},{"source":"yellow page","service_name":"Ultimate Kitchens And Closets","category":"handyman","phone":"705-279-1959","address":"438 Dunlop St W, Barrie, ON L4N 1C2","postalcode":"L4N 1C2","website":" ","working_hour":"","latitude":"44.3765787","longitude":"-79.7189074"},{"source":"yellow page","service_name":"Exterior Dream Works Lanscaping & Renovations","category":"handyman","phone":"7057187370","address":"58 Marshall Cres Baxter, On, Barrie, ON L0M 1M1","postalcode":"L0M 1M1","website":"http://ep.chameleonpower.com","working_hour":"","latitude":"44.330469","longitude":"-80.012237"},{"source":"yellow page","service_name":"ACE Renovations Ltd","category":"handyman","phone":"289-337-1177","address":"3270 Sharp Rd, Burlington, ON L7M 0J4","postalcode":"L7M 0J4","website":"http://www.ace-renovations.ca","working_hour":"","latitude":"43.40762","longitude":"-79.818391"},{"source":"yellow page","service_name":"True Hues","category":"handyman","phone":"905-869-8503","address":"3243 Given Lane, Milton, ON L9T 7Z7","postalcode":"L9T 7Z7","website":"http://www.truehuespainting.com","working_hour":"","latitude":"43.502073","longitude":"-79.895688"},{"source":"yellow page","service_name":"Anthony's Landscape & Handyman Services","category":"handyman","phone":"905-690-8811","address":"14 Carey, Millgrove, ON L0R 1V0","postalcode":"L0R 1V0","website":"http://anthonyslandscape.com/","working_hour":"","latitude":"43.365848","longitude":"-79.950976"},{"source":"yellow page","service_name":"Home Improvement And Renovation","category":"handyman","phone":"2896356997","address":"3450 Dundas St, Burlington, ON L7M 4B8","postalcode":"L7M 4B8","website":" ","working_hour":"","latitude":"43.390856","longitude":"-79.825478"},{"source":"yellow page","service_name":"Domain Contracting Inc","category":"handyman","phone":"905-208-1446","address":"545 Evans Rd RR 1, Waterdown, ON L0R 2H1","postalcode":"L0R 2H1","website":"http://www.domaincontracting.com","working_hour":"Monday 7:00 am - 7:00 pm   Tuesday 7:00 am - 7:00 pm   Wednesday 7:00 am - 7:00 pm   Thursday 7:00 am - 7:00 pm   Friday 7:00 am - 7:00 pm","latitude":"43.351756","longitude":"-79.874851"},{"source":"yellow page","service_name":"Clow Enterprise General Contracting & Renovation","category":"handyman","phone":"905-693-2135","address":"1-182 Bronte St S, Milton, ON L9T 1Y8","postalcode":"L9T 1Y8","website":" ","working_hour":"Monday 9:00 am - 6:00 pm   Tuesday 9:00 am - 6:00 pm   Wednesday 9:00 am - 6:00 pm   Thursday 9:00 am - 6:00 pm   Friday 9:00 am - 6:00 pm","latitude":"43.504841","longitude":"-79.883095"},{"source":"yellow page","service_name":"Green Maple Contractor","category":"handyman","phone":"6478916184","address":"256 Giddings Cres, Milton, ON L9T 7A7","postalcode":"L9T 7A7","website":" ","working_hour":"Monday 9:00 am - 5:00 pm   Tuesday 9:00 am - 5:00 pm   Wednesday 9:00 am - 5:00 pm   Thursday 9:00 am - 5:00 pm   Friday 9:00 am - 5:00 pm   Saturday 9:00 am - 5:00 pm","latitude":"43.501142","longitude":"-79.883327"},{"source":"yellow page","service_name":"Halton Home Renovation & Carpentry","category":"handyman","phone":"289-270-3546","address":"223 Monaghan Cres, Milton, ON L9T 8C7","postalcode":"L9T 8C7","website":" ","working_hour":"Monday 8:00 am - 5:00 pm   Tuesday 8:00 am - 5:00 pm   Wednesday 8:00 am - 5:00 pm   Thursday 8:00 am - 5:00 pm   Friday 8:00 am - 5:00 pm   Saturday 8:00 am - 5:00 pm","latitude":"43.4916361","longitude":"-79.8616609"},{"source":"yellow page","service_name":"Personal Touch Home Improvements","category":"handyman","phone":"9058926177","address":"2601 Regional 20 Rd E, Fonthill, ON L0S 1E6","postalcode":"L0S 1E6","website":"http://www.personaltouchhomeimprovements.ca","working_hour":"","latitude":"43.0556595","longitude":"-79.2597191"},{"source":"yellow page","service_name":"Porter Construction","category":"handyman","phone":"2896870501","address":"30A Niagara St, Welland, ON L3C 1H9","postalcode":"L3C 1H9","website":" ","working_hour":"Monday 7:00 am - 6:00 pm   Tuesday 7:00 am - 6:00 pm   Wednesday 7:00 am - 6:00 pm   Thursday 7:00 am - 6:00 pm   Friday 7:00 am - 6:00 pm","latitude":"42.992089","longitude":"-79.2526211"},{"source":"yellow page","service_name":"Trade Wizards","category":"handyman","phone":"905-892-4103","address":"1999 Hansler St RR 1, Ridgeville, ON L0S 1M0","postalcode":"L0S 1M0","website":"http://tradewizards.ca/","working_hour":"Monday 9:00 am - 5:00 pm   Tuesday 9:00 am - 5:00 pm   Wednesday 9:00 am - 5:00 pm   Thursday 9:00 am - 5:00 pm   Friday 9:00 am - 5:00 pm","latitude":"43.067147","longitude":"-79.289128"},{"source":"yellow page","service_name":"The Ultimate Handyman","category":"handyman","phone":"905-447-6199","address":"80 Montague Ave, Courtice, ON L1E 3J7","postalcode":"L1E 3J7","website":" ","working_hour":"","latitude":"43.888988","longitude":"-78.799112"},{"source":"yellow page","service_name":"Basement Finishers","category":"handyman","phone":"9054490143","address":"1050 Ravine Rd, Oshawa, ON L1H 4C8","postalcode":"L1H 4C8","website":" ","working_hour":"Appointment only","latitude":"43.872105","longitude":"-78.846193"},{"source":"yellow page","service_name":"NEO Contracting","category":"handyman","phone":"647-558-2552","address":"1010 Glen St, Oshawa, ON L1J 6J2","postalcode":"L1J 6J2","website":" ","working_hour":"24 hours a day - 7 days a week   Appointment Only","latitude":"43.8708084","longitude":"-78.8547236"},{"source":"yellow page","service_name":"Mr. Handyman","category":"handyman","phone":"9054302222","address":"349-701 Rossland Road East, Whitby, ON L1N 9K3","postalcode":"L1N 9K3","website":" ","working_hour":"","latitude":"43.899775","longitude":"-78.9400666"},{"source":"yellow page","service_name":"Honey Do Handyman","category":"handyman","phone":"2893560805","address":"200 Garden St, Whitby, ON L1N 3W4","postalcode":"L1N 3W4","website":" ","working_hour":"","latitude":"43.885027","longitude":"-78.933486"},{"source":"yellow page","service_name":"Kevin's Handyman Service","category":"handyman","phone":"2896851495","address":"60 Sawdon Dr, Whitby, ON L1N 8B2","postalcode":"L1N 8B2","website":"http://www.kevinthehandyman.ca","working_hour":"Monday 9:00 am - 5:00 pm   Tuesday 9:00 am - 5:00 pm   Wednesday 9:00 am - 5:00 pm   Thursday 9:00 am - 5:00 pm   Friday 9:00 am - 5:00 pm   Saturday 9:00 am - 5:00 pm   Sunday 10:00 am - 4:00 pm","latitude":"43.879759","longitude":"-78.902272"},{"source":"yellow page","service_name":"Accubuilt Construction","category":"handyman","phone":"905-430-0655","address":"1122 Brock St S, Whitby, ON L1N 4L9","postalcode":"L1N 4L9","website":" ","working_hour":"Monday 9:00 am - 5:30 pm   Tuesday 9:00 am - 5:30 pm   Wednesday 9:00 am - 5:30 pm   Thursday 9:00 am - 5:30 pm   Friday 9:00 am - 5:30 pm","latitude":"43.868411","longitude":"-78.937245"},{"source":"yellow page","service_name":"Wall Tech Restoration Inc","category":"handyman","phone":"9056863640","address":"460 Finley Ave, Ajax, ON L1S 2E3","postalcode":"L1S 2E3","website":" ","working_hour":"","latitude":"43.837429","longitude":"-79.029072"},{"source":"yellow page","service_name":"Rolito General Contracting","category":"handyman","phone":"647-216-5418","address":"102 Reed Drive, Ajax, ON L1S 6T5","postalcode":"L1S 6T5","website":" ","working_hour":"24 hours a day - 7 days a week","latitude":"43.8513997","longitude":"-79.0355519"},{"source":"yellow page","service_name":"Edwin Dasouza","category":"handyman","phone":"647-669-7277","address":"140 Reed Dr, Ajax, ON L1S 6V2","postalcode":"L1S 6V2","website":" ","working_hour":"24 hours a day - 7 days a week","latitude":"43.851208","longitude":"-79.0376"},{"source":"yellow page","service_name":"Henk Karelsen Painting & Home Repair","category":"handyman","phone":"905-426-9291","address":"Ajax, ON L1Z 1L1","postalcode":"L1Z 1L1","website":" ","working_hour":"","latitude":"43.833741","longitude":"-78.988805"},{"source":"yellow page","service_name":"Dasouza Construction","category":"handyman","phone":"6476697277","address":"140 Reed Dr, Ajax, ON L1S 6V2","postalcode":"L1S 6V2","website":" ","working_hour":"Monday 12:00 am - 11:59 pm   Tuesday 12:00 am - 11:59 pm   Wednesday 12:00 am - 11:59 pm   Thursday 12:00 am - 11:59 pm   Friday 12:00 am - 11:59 pm   Saturday 12:00 am - 11:59 pm   Sunday 12:00 am - 11:59 pm","latitude":"43.851208","longitude":"-79.0376"},{"source":"yellow page","service_name":"Hob's Handyman Services","category":"handyman","phone":"416-268-6860","address":"438 Brownfield Gdns, Scarborough, ON M1C 2Y7","postalcode":"M1C 2Y7","website":" ","working_hour":"","latitude":"43.796905","longitude":"-79.133641"},{"source":"yellow page","service_name":"All Green Handyman Services","category":"handyman","phone":"416-903-6665","address":"55 Red River Crescent, Toronto, ON M1B 1Z5","postalcode":"M1B 1Z5","website":" ","working_hour":"","latitude":"43.8034429","longitude":"-79.1731408"},{"source":"yellow page","service_name":"AFS Home And Office Improvements","category":"handyman","phone":"4164195051","address":"73 Hawkins Cres, Ajax, ON L1S 4Y7","postalcode":"L1S 4Y7","website":" ","working_hour":"","latitude":"43.823939","longitude":"-79.032214"},{"source":"yellow page","service_name":"Crawford & Sons Waterproofing","category":"handyman","phone":"905-686-6880","address":"4-170 Fuller Rd, Ajax, ON L1S 7G8","postalcode":"L1S 7G8","website":"http://www.noleaks.ca","working_hour":"","latitude":"43.835225","longitude":"-79.0323783"},{"source":"yellow page","service_name":"Handyman Dan","category":"handyman","phone":"289-929-4175","address":"Niagara Falls, Niagara Falls, ON L2H 3L6","postalcode":"L2H 3L6","website":" ","working_hour":"","latitude":"43.071678","longitude":"-79.139912"},{"source":"yellow page","service_name":"Yates Renovations Ltd","category":"handyman","phone":"9058921911","address":"2265 Regional 20, Fonthill, ON L3B 5N5","postalcode":"L3B 5N5","website":"http://www.yatesrenovations.ca","working_hour":"","latitude":"43.062558","longitude":"-79.2442739"},{"source":"yellow page","service_name":"Doug Carey Enterprises Ltd","category":"handyman","phone":"905-984-7124","address":"39 Carl St RR 1, Port Robinson, ON L0S 1K0","postalcode":"L0S 1K0","website":" ","working_hour":"","latitude":"43.0378029","longitude":"-79.2144126"},{"source":"yellow page","service_name":"Mr. Handyman of Markham","category":"handyman","phone":"2898064757","address":"10-9275 Markham Rd, Markham, ON L6E 0H9","postalcode":"L6E 0H9","website":" ","working_hour":"","latitude":"43.858109","longitude":"-79.256148"},{"source":"yellow page","service_name":"Taylor Made Inc","category":"handyman","phone":"9059448108","address":"16 Esna Park Dr, Markham, ON L3R 5X1","postalcode":"L3R 5X1","website":" ","working_hour":"Appointment only","latitude":"43.825844","longitude":"-79.349161"},{"source":"yellow page","service_name":"Kt Kitchen Cabinetry","category":"handyman","phone":"905-474-5858","address":"560 Denison St, Markham, ON L3R 2M8","postalcode":"L3R 2M8","website":" ","working_hour":"","latitude":"43.82343","longitude":"-79.343997"},{"source":"yellow page","service_name":"J & Y Construction Inc","category":"handyman","phone":"416-566-4666","address":"560 Denison St, Markham, ON L3R 2M8","postalcode":"L3R 2M8","website":" ","working_hour":"Monday 8:00 am - 8:00 pm   Tuesday 8:00 am - 8:00 pm   Wednesday 8:00 am - 8:00 pm   Thursday 8:00 am - 8:00 pm   Friday 8:00 am - 8:00 pm   Saturday 8:00 am - 8:00 pm","latitude":"43.82343","longitude":"-79.343997"},{"source":"yellow page","service_name":"Stmarys Cement","category":"handyman","phone":"416-754-9102","address":"61 Maybrook Dr, Scarborough, ON M1V 5J7","postalcode":"M1V 5J7","website":" ","working_hour":"","latitude":"43.822993","longitude":"-79.260254"},{"source":"yellow page","service_name":"Ken The Handyman","category":"handyman","phone":"647-949-5835","address":"69 Harry Cook Dr, Unionville, ON L3R 5Y9","postalcode":"L3R 5Y9","website":" ","working_hour":"","latitude":"43.856139","longitude":"-79.296866"},{"source":"yellow page","service_name":"AKC Renovations","category":"handyman","phone":"6473858683","address":"133 Bay Thorn Dr, Thornhill, ON L3T 3V1","postalcode":"L3T 3V1","website":" ","working_hour":"","latitude":"43.8230519","longitude":"-79.4160782"},{"source":"yellow page","service_name":"Enhanced Exteriors","category":"handyman","phone":"705-329-4441","address":"4065 Bayview Ave, Orillia, ON L3V 6H7","postalcode":"L3V 6H7","website":" ","working_hour":"","latitude":"44.5765235","longitude":"-79.3201018"},{"source":"yellow page","service_name":"Thompson Renovations","category":"handyman","phone":"705-329-2115","address":"RR 7 Stn Main, Orillia, ON L3V 6H7","postalcode":"L3V 6H7","website":" ","working_hour":"","latitude":"44.632748","longitude":"-79.278624"},{"source":"yellow page","service_name":"Downing Jim Construction","category":"handyman","phone":"705-300-9382","address":"4708 Side Rd 20 RR 7 Stn Main, Orillia, ON L3V 6H7","postalcode":"L3V 6H7","website":" ","working_hour":"Monday 7:00 am - 6:00 pm   Tuesday 7:00 am - 6:00 pm   Wednesday 7:00 am - 6:00 pm   Thursday 7:00 am - 6:00 pm   Friday 7:00 am - 6:00 pm   Saturday 8:00 am - 1:00 pm   Sunday 11:00 am - 3:00 pm","latitude":"44.632748","longitude":"-79.278624"},{"source":"yellow page","service_name":"Newmarket Property","category":"handyman","phone":"9052358844","address":"16775 Yonge St, Newmarket, ON L3Y 8J4","postalcode":"L3Y 8J4","website":" ","working_hour":"","latitude":"44.037118","longitude":"-79.476148"},{"source":"yellow page","service_name":"Blecker Den Remodelling Services Inc","category":"handyman","phone":"905-836-8364","address":"1000 Vernon Pl, Newmarket, ON L3Y 7E1","postalcode":"L3Y 7E1","website":" ","working_hour":"","latitude":"44.078911","longitude":"-79.43936"},{"source":"yellow page","service_name":"GreenStone Living","category":"handyman","phone":"905-505-5100","address":"1608 Ivesbridge Blvd, Newmarket, ON L3X 1N3","postalcode":"L3X 1N3","website":" ","working_hour":"","latitude":"44.043077","longitude":"-79.426543"},{"source":"yellow page","service_name":"Access Restoration Services Ltd","category":"handyman","phone":"9058951717","address":"1160 Kerrisdale, Newmarket, ON L3Y 8Z9","postalcode":"L3Y 8Z9","website":" ","working_hour":"","latitude":"44.078298","longitude":"-79.432221"},{"source":"yellow page","service_name":"Blake's Handyman Service","category":"handyman","phone":"905-960-3497","address":"1011 Leslie Valley Dr, Newmarket, ON L3Y 7E7","postalcode":"L3Y 7E7","website":"http://www.blakeshandymanservice.ca/","working_hour":"24 hours a day - 7 days a week","latitude":"44.078512","longitude":"-79.438264"},{"source":"yellow page","service_name":"The Edge Customer Coatings","category":"handyman","phone":"905-235-5377","address":"4-210 Pony Dr, Newmarket, ON L3Y 7B6","postalcode":"L3Y 7B6","website":" ","working_hour":"","latitude":"44.0730429","longitude":"-79.429355"},{"source":"yellow page","service_name":"Capital One","category":"handyman","phone":"9059403776","address":"2601 14th Ave, Markham, ON L3R 0H9","postalcode":"L3R 0H9","website":"http://capitalone.ca","working_hour":"","latitude":"43.8290194","longitude":"-79.3628461"},{"source":"yellow page","service_name":"Feng Shui Consulting","category":"handyman","phone":"9058810315","address":"24 Hyde Park Dr, Richmond Hill, ON L4B 1V1","postalcode":"L4B 1V1","website":" ","working_hour":"Monday 9:00 am - 6:00 pm   Tuesday 9:00 am - 6:00 pm   Thursday 9:00 am - 6:00 pm","latitude":"43.846499","longitude":"-79.395401"},{"source":"yellow page","service_name":"Your Renovation Mentor","category":"handyman","phone":"416-890-3631","address":"56 Willowbrook Rd, Thornhill, ON L3T 4W9","postalcode":"L3T 4W9","website":" ","working_hour":"","latitude":"43.830178","longitude":"-79.398523"},{"source":"yellow page","service_name":"Jack The Handyman","category":"handyman","phone":"416-725-6100","address":"51 Saddlecreek Dr, Thornhill, ON L3T 7Z1","postalcode":"L3T 7Z1","website":" ","working_hour":"","latitude":"43.8405857","longitude":"-79.3948741"},{"source":"yellow page","service_name":"1stclean","category":"handyman","phone":"647-767-3717","address":"103-350 Red Maple Rd, Richmond Hill, ON L4C 0T5","postalcode":"L4C 0T5","website":" ","working_hour":"","latitude":"43.851874","longitude":"-79.427275"},{"source":"yellow page","service_name":"FormWorks Reno","category":"handyman","phone":"905-392-9994","address":"302-350 Red Maple Rd, Richmond Hill, ON L4C 0T5","postalcode":"L4C 0T5","website":" ","working_hour":"Monday 9:00 am - 6:00 pm   Tuesday 9:00 am - 6:00 pm   Wednesday 9:00 am - 6:00 pm   Thursday 9:00 am - 6:00 pm   Friday 9:00 am - 6:00 pm   Saturday 10:00 am - 2:00 pm","latitude":"43.851874","longitude":"-79.427275"},{"source":"yellow page","service_name":"Mr. Handyman","category":"handyman","phone":"647-556-1262","address":"4-9640 Bayview Ave, Richmond Hill, ON L4C 9P7","postalcode":"L4C 9P7","website":" ","working_hour":"","latitude":"43.867164","longitude":"-79.413316"},{"source":"yellow page","service_name":"123 Renovate Inc","category":"handyman","phone":"647-268-2202","address":"28 Weldrick Rd W, Richmond Hill, ON L4C 3T8","postalcode":"L4C 3T8","website":" ","working_hour":"","latitude":"43.859711","longitude":"-79.437236"},{"source":"yellow page","service_name":"Modish Renovations","category":"handyman","phone":"6479993109","address":"350 Red Maple Rd, ON","postalcode":"","website":" ","working_hour":"Monday 9:00 am - 5:00 pm   Tuesday 9:00 am - 5:00 pm   Wednesday 9:00 am - 5:00 pm   Thursday 9:00 am - 5:00 pm   Friday 9:00 am - 5:00 pm","latitude":"43.851874","longitude":"-79.427275"},{"source":"yellow page","service_name":"Basement Masters","category":"handyman","phone":"647-831-5804","address":"Richmond Hill, ON L4C 5G2","postalcode":"L4C 5G2","website":"http://basementmasters.ca","working_hour":"Monday 8:30 am - 5:30 pm   Tuesday 8:30 am - 5:30 pm   Wednesday 8:30 am - 5:30 pm   Thursday 8:30 am - 5:30 pm   Friday 8:30 am - 5:30 pm   Saturday 10:00 am - 4:00 pm   Sunday 10:00 am - 4:00 pm   Emergency Appointments Available","latitude":"43.854673","longitude":"-79.433661"},{"source":"yellow page","service_name":"No 1 Handyman Service","category":"handyman","phone":"6472338382","address":"N Lake Rd, Richmond Hill, ON L4E 3B4","postalcode":"L4E 3B4","website":"http://handymanone.ca","working_hour":"","latitude":"43.951551","longitude":"-79.436953"},{"source":"yellow page","service_name":"Home Reno","category":"handyman","phone":"905-237-7571","address":"11860 Yonge St, Richmond Hill, ON L4E 3N6","postalcode":"L4E 3N6","website":"http://www.homereno.com/","working_hour":"","latitude":"43.9162724","longitude":"-79.4478891"},{"source":"yellow page","service_name":"Reno Depot","category":"handyman","phone":"9058413121","address":"140 First Commerce Dr, Aurora, ON L4G 0H5","postalcode":"L4G 0H5","website":" ","working_hour":"","latitude":"44.0139444","longitude":"-79.4153947"},{"source":"yellow page","service_name":"Maple Run Homes","category":"handyman","phone":"9052642387","address":"4141 Rutherford Rd, Woodbridge, ON L4L 1A6","postalcode":"L4L 1A6","website":" ","working_hour":"","latitude":"43.8237012","longitude":"-79.5696087"},{"source":"yellow page","service_name":"Madison Homes","category":"handyman","phone":"9058325900","address":"9301 Weston Rd, Woodbridge, ON L4L 1A6","postalcode":"L4L 1A6","website":"http://www.madisonhomes.ca","working_hour":"","latitude":"43.8275898","longitude":"-79.5564678"},{"source":"yellow page","service_name":"New Guimar Ltd","category":"handyman","phone":"9057610027","address":"12 Bradwick Dr, Concord, ON L4K 3P6","postalcode":"L4K 3P6","website":" ","working_hour":"","latitude":"43.818163","longitude":"-79.483265"},{"source":"yellow page","service_name":"Vf Renovation","category":"handyman","phone":"9057602988","address":"422 North Rivermede Rd, Concord, ON L4K 3R5","postalcode":"L4K 3R5","website":" ","working_hour":"","latitude":"43.810843","longitude":"-79.483978"},{"source":"yellow page","service_name":"Lennox Landscaping","category":"handyman","phone":"905-883-9837","address":"168 Weldrick Rd W, Richmond Hill, ON L4C 3V1","postalcode":"L4C 3V1","website":" ","working_hour":"","latitude":"43.856976","longitude":"-79.450291"},{"source":"yellow page","service_name":"Can-North Reno Team Inc","category":"handyman","phone":"905-660-9914","address":"357 Edgeley Blvd, Vaughan, ON L4K 3Y2","postalcode":"L4K 3Y2","website":"http://www.cannorthreno.com","working_hour":"","latitude":"43.801751","longitude":"-79.534619"},{"source":"yellow page","service_name":"King Crown Designs Ltd","category":"handyman","phone":"9056691515","address":"344 Edgeley Blvd, Concord, ON L4K 4B7","postalcode":"L4K 4B7","website":"http://www.kingcrowndesigns.ca","working_hour":"","latitude":"43.801647","longitude":"-79.534577"},{"source":"yellow page","service_name":"3 Dimensional Developments","category":"handyman","phone":"905-738-8142","address":"291 Edgeley Blvd, Concord, ON L4K 3Z4","postalcode":"L4K 3Z4","website":" ","working_hour":"","latitude":"43.800247","longitude":"-79.534014"},{"source":"yellow page","service_name":"Maxdor Inc","category":"handyman","phone":"905-738-2358","address":"2180 Highway 7, Concord, ON L4K 1W6","postalcode":"L4K 1W6","website":" ","working_hour":"","latitude":"43.8009519","longitude":"-79.4967238"},{"source":"yellow page","service_name":"Glaze-Port International Mfg Inc","category":"handyman","phone":"905-738-2080","address":"91 Pippin Rd, Concord, ON L4K 4J9","postalcode":"L4K 4J9","website":" ","working_hour":"","latitude":"43.809802","longitude":"-79.52415"},{"source":"yellow page","service_name":"Chiral Homes Inc","category":"handyman","phone":"647-622-3856","address":"445 Edgley Blvd, Vaughan, ON L4K 4H3","postalcode":"L4K 4H3","website":"http://www.chiralhomes.com","working_hour":"Monday 6:00 am - 11:00 pm   Tuesday 6:00 am - 11:00 pm   Wednesday 6:00 am - 11:00 pm   Thursday 6:00 am - 11:00 pm   Friday 6:00 am - 11:00 pm   Saturday 6:00 am - 11:00 pm   Sunday 6:00 am - 11:00 pm   24hrs A Day For Emergencies","latitude":"43.803992","longitude":"-79.535318"},{"source":"yellow page","service_name":"Presto Renovations","category":"handyman","phone":"6473827171","address":"17-7500 27 Hwy, Woodbridge, ON L4H 0J2","postalcode":"L4H 0J2","website":" ","working_hour":"","latitude":"43.770258","longitude":"-79.620934"},{"source":"yellow page","service_name":"JMC Design","category":"handyman","phone":"9052646822","address":"7600 HWY-27, Vaughan, ON L4H 0P8","postalcode":"L4H 0P8","website":"http://www.jmcdesignltd.com","working_hour":"","latitude":"43.771492","longitude":"-79.621232"},{"source":"yellow page","service_name":"Commercial Renovation Contractors Inc","category":"handyman","phone":"9058511004","address":"71 Strada Dr, Woodbridge, ON L4L 5V8","postalcode":"L4L 5V8","website":" ","working_hour":"","latitude":"43.780505","longitude":"-79.569594"},{"source":"yellow page","service_name":"Kleinberg RRR House Repairs & Renovations","category":"handyman","phone":"905-586-4902","address":"7-7600 Highway 27, Woodbridge, ON L4H 0P8","postalcode":"L4H 0P8","website":" ","working_hour":"","latitude":"43.771492","longitude":"-79.621232"},{"source":"yellow page","service_name":"Elite Trimworks Corp","category":"handyman","phone":"416-245-1115","address":"25 Royal Group Cres, Woodbridge, ON L4H 1X9","postalcode":"L4H 1X9","website":" ","working_hour":"Monday 9:00 am - 5:00 pm   Tuesday 9:00 am - 5:00 pm   Wednesday 9:00 am - 5:00 pm   Thursday 9:00 am - 7:00 pm   Friday 9:00 am - 5:00 pm   Saturday 10:00 am - 3:00 pm","latitude":"43.769755","longitude":"-79.626406"},{"source":"yellow page","service_name":"M & F Construction Co Ltd","category":"handyman","phone":"905-851-1047","address":"190 Marycroft Ave, Woodbridge, ON L4L 5Y2","postalcode":"L4L 5Y2","website":" ","working_hour":"","latitude":"43.78381","longitude":"-79.566024"},{"source":"yellow page","service_name":"Lakehills Tiles And Granite","category":"handyman","phone":"9052645644","address":"111 Strada Dr, Vaughan, ON L4L 5V9","postalcode":"L4L 5V9","website":" ","working_hour":"","latitude":"43.780968","longitude":"-79.567923"},{"source":"yellow page","service_name":"Simpson Proper Painting","category":"handyman","phone":"","address":"209-80 Bradford St, Barrie, ON L4N 6S7","postalcode":"L4N 6S7","website":" ","working_hour":"","latitude":"44.3836321","longitude":"-79.6938251"},{"source":"yellow page","service_name":"Bycorp Contracting Ltd","category":"handyman","phone":"705-717-1953","address":"5 Ashdale Crt, Barrie, ON L4M 5B5","postalcode":"L4M 5B5","website":" ","working_hour":"Monday 9:00 am - 12:00 pm   Tuesday 9:00 am - 12:00 pm   Wednesday 9:00 am - 12:00 pm   Thursday 9:00 am - 12:00 pm   Friday 9:00 am - 12:00 pm","latitude":"44.4080104","longitude":"-79.7020952"},{"source":"yellow page","service_name":"Simcoe Handyman","category":"handyman","phone":"705-725-8500","address":"223 Kempview Lane, Barrie, ON L4N 3X1","postalcode":"L4N 3X1","website":" ","working_hour":"","latitude":"44.3760637","longitude":"-79.6646659"},{"source":"yellow page","service_name":"ShurMark Home Inprovements","category":"handyman","phone":"7057342508","address":"205 Cardinal St, Barrie, ON L4M 6G8","postalcode":"L4M 6G8","website":" ","working_hour":"","latitude":"44.4152007","longitude":"-79.6943283"},{"source":"yellow page","service_name":"Ags Kitchen Studios","category":"handyman","phone":"705-503-3303","address":"32-32 Tiffin St, Barrie, ON L4N 2M7","postalcode":"L4N 2M7","website":" ","working_hour":"","latitude":"44.3745871","longitude":"-79.6905532"},{"source":"yellow page","service_name":"LJ Custom Contracting Inc","category":"handyman","phone":"705-530-9906","address":"130 Saunders Rd, Barrie, ON L4N 9A8","postalcode":"L4N 9A8","website":"http://www.ljcustomcontracting.com","working_hour":"Monday 8:00 am - 8:00 pm   Tuesday 8:00 am - 8:00 pm   Wednesday 8:00 am - 8:00 pm   Thursday 8:00 am - 8:00 pm   Friday 8:00 am - 8:00 pm   Saturday 8:00 am - 8:00 pm   Sunday 8:00 am - 8:00 pm","latitude":"44.3318195","longitude":"-79.6789864"},{"source":"yellow page","service_name":"Tamarco Contracting Ltd","category":"handyman","phone":"705-720-2602","address":"B-131 Commerce Park Dr, Barrie, ON L4N 8X1","postalcode":"L4N 8X1","website":"http://www.tamarco.ca","working_hour":"","latitude":"44.325585","longitude":"-79.685771"},{"source":"yellow page","service_name":"Wayne's Handyman Services","category":"handyman","phone":"7057941580","address":"157 Loon Ave, Barrie, ON L4N 8X2","postalcode":"L4N 8X2","website":" ","working_hour":"","latitude":"44.3477508","longitude":"-79.6616813"},{"source":"yellow page","service_name":"Lowe's Home Improvement Warehouse","category":"handyman","phone":"7057975030","address":"71 Bryne Drive, Barrie, ON L4N 8V8","postalcode":"L4N 8V8","website":"http://lowes.com","working_hour":"","latitude":"44.354864","longitude":"-79.6945221"},{"source":"yellow page","service_name":"Renovations and Landscape by Landshape Contracting","category":"handyman","phone":"705-315-1529","address":"60 William St, Barrie, ON L4N 3J6","postalcode":"L4N 3J6","website":" ","working_hour":"Monday 8:00 am - 6:30 pm   Tuesday 8:00 am - 6:30 pm   Wednesday 8:00 am - 6:30 pm   Thursday 8:00 am - 6:30 pm   Friday 8:00 am - 6:30 pm   Saturday 8:00 am - 6:30 pm","latitude":"44.3702433","longitude":"-79.6889736"},{"source":"yellow page","service_name":"Holtrop Construction","category":"handyman","phone":"905-478-2391","address":"20220 Leslie St, Queensville, ON L0G 1R0","postalcode":"L0G 1R0","website":" ","working_hour":"","latitude":"44.132038","longitude":"-79.448804"},{"source":"yellow page","service_name":"Dons Market","category":"handyman","phone":"9054732313","address":"21195 McCowan Rd, Mount Albert, ON L0G 1M0","postalcode":"L0G 1M0","website":"http://donsgardencentre.com","working_hour":"Saturday 10:00 am - 4:00 pm   Sunday 10:00 am - 4:00 pm","latitude":"44.17714","longitude":"-79.356553"},{"source":"yellow page","service_name":"Georgian Bay Driveway Sealing","category":"handyman","phone":"705-984-2162","address":"1179 Baseline Rd S, Tiny, ON L0L 2T0","postalcode":"L0L 2T0","website":" ","working_hour":"","latitude":"44.6509765","longitude":"-79.8781545"},{"source":"yellow page","service_name":"Yvan's Home Services For Seniors","category":"handyman","phone":"7057942927","address":"649 Montreal St, Midland, ON L4R 1G3","postalcode":"L4R 1G3","website":" ","working_hour":"Monday 8:00 am - 4:00 pm   Tuesday 8:00 am - 4:00 pm   Wednesday 8:00 am - 4:00 pm   Thursday 8:00 am - 4:00 pm   Friday 8:00 am - 4:00 pm","latitude":"44.749973","longitude":"-79.893747"},{"source":"yellow page","service_name":"Just What's Needed Handyman Services","category":"handyman","phone":"7055498815","address":"11 Robert St W, Penetanguishene, ON L9M 1T9","postalcode":"L9M 1T9","website":" ","working_hour":"","latitude":"44.7683294","longitude":"-79.934986"},{"source":"yellow page","service_name":"Groutshield","category":"handyman","phone":"905-237-8354","address":"10660 Yonge St, Richmond Hill, ON L4C 3C9","postalcode":"L4C 3C9","website":" ","working_hour":"","latitude":"43.887294","longitude":"-79.440965"},{"source":"yellow page","service_name":"Skilled Craftsman & Handyman Services","category":"handyman","phone":"9055089823","address":"355 Elgin Mills Rd W, Richmond Hill, ON L4C 4M3","postalcode":"L4C 4M3","website":"http://www.skilledcraftsman.ca","working_hour":"","latitude":"43.886972","longitude":"-79.453795"},{"source":"yellow page","service_name":"Berkat Interior Solutions","category":"handyman","phone":"416-679-0977","address":"4-7003 Steeles Ave W, Toronto, ON M9W 0A2","postalcode":"M9W 0A2","website":" ","working_hour":"","latitude":"43.751227","longitude":"-79.633537"},{"source":"yellow page","service_name":"OJ Plumbing & Handyman Service","category":"handyman","phone":"6475013944","address":"51-7555 Goreway Dr, Mississauga, ON L4T 3M9","postalcode":"L4T 3M9","website":" ","working_hour":"Monday 9:00 am - 9:00 pm   Tuesday 9:00 am - 9:00 pm   Wednesday 9:00 am - 9:00 pm   Thursday 9:00 am - 9:00 pm   Friday 9:00 am - 9:00 pm   Saturday 9:00 am - 9:00 pm   Sunday 9:00 am - 9:00 pm","latitude":"43.724437","longitude":"-79.646423"},{"source":"yellow page","service_name":"Second Life Tubs","category":"handyman","phone":"6479960394","address":"1655 Sismet Rd, Mississauga, ON L4W 1Z4","postalcode":"L4W 1Z4","website":" ","working_hour":"","latitude":"43.643638","longitude":"-79.623603"},{"source":"yellow page","service_name":"Redtrax Renovations Corp","category":"handyman","phone":"905-757-0846","address":"1707 Sismet Rd, Mississauga, ON L4W 2K8","postalcode":"L4W 2K8","website":" ","working_hour":"","latitude":"43.644889","longitude":"-79.622225"},{"source":"yellow page","service_name":"Robin White Sales Inc","category":"handyman","phone":"416-366-2281","address":"2 Eva Rd, Etobicoke, ON M9C 0A9","postalcode":"M9C 0A9","website":" ","working_hour":"","latitude":"43.639586","longitude":"-79.563732"},{"source":"yellow page","service_name":"Four Seasons Building Renovations Cl","category":"handyman","phone":"905-624-9730","address":"4331 Highgate Cres, Mississauga, ON L4W 3G9","postalcode":"L4W 3G9","website":" ","working_hour":"","latitude":"43.62529","longitude":"-79.615444"},{"source":"yellow page","service_name":"Richard`s Handyman","category":"handyman","phone":"905-275-8292","address":"217 Cossack Crt, Mississauga, ON L5B 4C3","postalcode":"L5B 4C3","website":" ","working_hour":"","latitude":"43.583525","longitude":"-79.62776"},{"source":"yellow page","service_name":"Creative Remodelling Solutions","category":"handyman","phone":"4163190455","address":"Mississauga Rd, Mississauga, ON","postalcode":"","website":"http://creativeremodel.com","working_hour":"","latitude":"43.586162","longitude":"-79.646215"},{"source":"yellow page","service_name":"IKM Enterprises","category":"handyman","phone":"416-573-3380","address":"718 Montbeck Cres, Mississauga, ON L5G 1P3","postalcode":"L5G 1P3","website":" ","working_hour":"Monday 8:00 am - 5:00 pm   Tuesday 8:00 am - 5:00 pm   Wednesday 8:00 am - 5:00 pm   Thursday 8:00 am - 5:00 pm   Friday 8:00 am - 5:00 pm","latitude":"43.569225","longitude":"-79.562636"},{"source":"yellow page","service_name":"M A Traders","category":"handyman","phone":"4167356247","address":"2028-51 Dundas St W, Mississauga, ON L5B 1H7","postalcode":"L5B 1H7","website":" ","working_hour":"","latitude":"43.578956","longitude":"-79.617881"},{"source":"yellow page","service_name":"Mellor W J Co Renovations","category":"handyman","phone":"905-278-3054","address":"3 Wanita Rd, Mississauga, ON L5G 1A9","postalcode":"L5G 1A9","website":" ","working_hour":"Monday 8:00 am - 8:00 pm   Tuesday 8:00 am - 8:00 pm   Wednesday 8:00 am - 8:00 pm   Thursday 8:00 am - 8:00 pm   Friday 8:00 am - 8:00 pm   Saturday 9:00 am - 5:00 pm","latitude":"43.556209","longitude":"-79.577338"},{"source":"yellow page","service_name":"Home Medium Inc","category":"handyman","phone":"905-366-1971","address":"4 Wanita Rd, Mississauga, ON L5G 1B1","postalcode":"L5G 1B1","website":" ","working_hour":"Monday 9:00 am - 12:00 pm   Tuesday 9:00 am - 12:00 pm   Wednesday 9:00 am - 12:00 pm   Thursday 9:00 am - 12:00 pm   Friday 9:00 am - 12:00 pm","latitude":"43.556209","longitude":"-79.577338"},{"source":"yellow page","service_name":"The Hampton Group Ltd","category":"handyman","phone":"905-829-5000","address":"2857 Sherwood Heights Dr, Oakville, ON L6J 7J9","postalcode":"L6J 7J9","website":"http://www.hamptonhomes.ca","working_hour":"","latitude":"43.504244","longitude":"-79.666551"},{"source":"yellow page","service_name":"Paintex Painting & Decorating","category":"handyman","phone":"4165612557","address":"1744 Angela Crescent, Mississauga, ON L5J 1B9","postalcode":"L5J 1B9","website":" ","working_hour":"","latitude":"43.512367","longitude":"-79.61607"},{"source":"yellow page","service_name":"Clarkson Bath & Tile","category":"handyman","phone":"9058232278","address":"2666 Royal Windsor Dr, Mississauga, ON L5J 4N1","postalcode":"L5J 4N1","website":"http://www.clarksonbathandtile.com/about_us","working_hour":"Tuesday 10:00 am - 5:00 pm   Wednesday 10:00 am - 5:00 pm   Thursday 10:00 am - 5:00 pm   Friday 10:00 am - 5:00 pm   Saturday 10:00 am - 4:00 pm","latitude":"43.49754","longitude":"-79.644564"},{"source":"yellow page","service_name":"Peel Tile","category":"handyman","phone":"6478468426","address":"6-3620A Laird Rd, Mississauga, ON L5L 6A8","postalcode":"L5L 6A8","website":"http://www.peel-tile.com/","working_hour":"","latitude":"43.520205","longitude":"-79.704193"},{"source":"yellow page","service_name":"Home Dec Far East Limited","category":"handyman","phone":"9056074663","address":"3755 Laird, Mississauga, ON L5L 6A6","postalcode":"L5L 6A6","website":" ","working_hour":"","latitude":"43.5217219","longitude":"-79.707256"},{"source":"yellow page","service_name":"Fangmei Home Service & Management","category":"handyman","phone":"647-556-3573","address":"3492 Ingram Rd, Mississauga, ON L5L 4M4","postalcode":"L5L 4M4","website":" ","working_hour":"","latitude":"43.525909","longitude":"-79.709656"},{"source":"yellow page","service_name":"Premier Painters Ltd","category":"handyman","phone":"905-828-2772","address":"3170 Ridgeway Dr, ON L5L 5R4","postalcode":"L5L 5R4","website":" ","working_hour":"","latitude":"43.518493","longitude":"-79.693947"},{"source":"yellow page","service_name":"Marco Home Improvement","category":"handyman","phone":"6478892693","address":"96-5910 Greensboro Dr, Mississauga, ON L5M 5Z6","postalcode":"L5M 5Z6","website":" ","working_hour":"","latitude":"43.567892","longitude":"-79.740401"},{"source":"yellow page","service_name":"Sereno A","category":"handyman","phone":"9054530890","address":"879 Heritage Rd, Brampton, ON L6Y 0E4","postalcode":"L6Y 0E4","website":" ","working_hour":"","latitude":"43.631629","longitude":"-79.804926"},{"source":"yellow page","service_name":"MetroCan Design & Build","category":"handyman","phone":"416-879-6463","address":"217 Anthony Ave, Mississauga, ON L4Z 3V4","postalcode":"L4Z 3V4","website":" ","working_hour":"","latitude":"43.617052","longitude":"-79.655611"},{"source":"yellow page","service_name":"Riviera Restoration","category":"handyman","phone":"9056769100","address":"7840 Tranmere Dr, Mississauga, ON L5S 1L9","postalcode":"L5S 1L9","website":" ","working_hour":"","latitude":"43.680684","longitude":"-79.673421"},{"source":"yellow page","service_name":"Stay Brite Building Solutions Inc","category":"handyman","phone":"905-564-7711","address":"1195 Meyerside Dr, Mississauga, ON L5T 1H3","postalcode":"L5T 1H3","website":" ","working_hour":"","latitude":"43.655177","longitude":"-79.659812"},{"source":"yellow page","service_name":"Tj Doors And Moulding","category":"handyman","phone":"905-450-9666","address":"190 Wilkinson Road, Brampton, ON L6T 4Z4","postalcode":"L6T 4Z4","website":" ","working_hour":"Monday 8:00 am - 6:00 pm   Tuesday 8:00 am - 6:00 pm   Wednesday 8:00 am - 6:00 pm   Thursday 8:00 am - 6:00 pm   Friday 8:00 am - 6:00 pm   Saturday 9:00 am - 2:00 pm","latitude":"43.690549","longitude":"-79.69825"},{"source":"yellow page","service_name":"Finished Basement","category":"handyman","phone":"905-501-9574","address":"56-450 Matheson Blvd E, Mississauga, ON L4Z 1R5","postalcode":"L4Z 1R5","website":"http://www.finishedbasement.ca","working_hour":"","latitude":"43.625236","longitude":"-79.656553"},{"source":"yellow page","service_name":"Mr. Handyman","category":"handyman","phone":"905-850-1077","address":"13-3120 Rutherford Rd, Vaughan, ON L4K 0B2","postalcode":"L4K 0B2","website":" ","working_hour":"Monday 12:07 am - 12:07 pm   Tuesday 12:07 am - 12:07 pm   Wednesday 12:07 am - 12:07 pm   Thursday 12:07 am - 12:07 pm   Friday 12:07 am - 12:07 pm   Saturday 12:07 am - 12:07 pm   Appointment Only   Emergency Appointments Available","latitude":"43.8304576","longitude":"-79.5345754"},{"source":"yellow page","service_name":"Ireno","category":"handyman","phone":"647-567-1249","address":"71 Creiff ave, Maple, ON L6A 2B9","postalcode":"L6A 2B9","website":" ","working_hour":"","latitude":"43.855783","longitude":"-79.535888"},{"source":"yellow page","service_name":"Pro RenoWorks","category":"handyman","phone":"647-986-6065","address":"200 Trafalgar Rd, Oakville, ON L6J 3G8","postalcode":"L6J 3G8","website":"http://www.prorenoworks.ca","working_hour":"Monday 8:00 am - 6:00 pm   Tuesday 8:00 am - 6:00 pm   Wednesday 8:00 am - 6:00 pm   Thursday 8:00 am - 6:00 pm   Friday 8:00 am - 6:00 pm","latitude":"43.449502","longitude":"-79.670017"},{"source":"yellow page","service_name":"New Level Electric","category":"handyman","phone":"289-981-7825","address":"2250 Golden Briar Trail, Oakville, ON L6H 6A4","postalcode":"L6H 6A4","website":" ","working_hour":"","latitude":"43.481285","longitude":"-79.710204"},{"source":"yellow page","service_name":"TDC Renovation","category":"handyman","phone":"6472422708","address":"169 Glenashton Dr, Oakville, ON L6H 6N2","postalcode":"L6H 6N2","website":" ","working_hour":"","latitude":"43.476652","longitude":"-79.716191"},{"source":"yellow page","service_name":"Top Notch Handyman Services","category":"handyman","phone":"9053398377","address":"Oakville, Oakville, ON L6L 3Y9","postalcode":"L6L 3Y9","website":" ","working_hour":"","latitude":"43.411384","longitude":"-79.709699"},{"source":"yellow page","service_name":"Golden Gate Contracting","category":"handyman","phone":"905-844-1771","address":"2345 Wyecroft, Oakville, ON L6K 3S3","postalcode":"L6K 3S3","website":" ","working_hour":"","latitude":"43.412526","longitude":"-79.731576"},{"source":"yellow page","service_name":"Renomedics","category":"handyman","phone":"905-921-4663","address":"2380 Wyecroft Rd, Oakville, ON L6L 6M8","postalcode":"L6L 6M8","website":" ","working_hour":"Monday 9:00 am - 5:00 pm   Tuesday 9:00 am - 5:00 pm   Wednesday 9:00 am - 5:00 pm   Thursday 9:00 am - 5:00 pm   Friday 9:00 am - 5:00 pm   Saturday 9:00 am - 5:00 pm   Sunday 10:00 am - 4:00 pm","latitude":"43.4119902","longitude":"-79.7321174"},{"source":"yellow page","service_name":"The Traveling Tool Belt","category":"handyman","phone":"905-510-9060","address":"480 Underwood Cres, Oakville, ON L6L 5P1","postalcode":"L6L 5P1","website":" ","working_hour":"Monday 9:00 am - 5:00 pm   Tuesday 9:00 am - 5:00 pm   Wednesday 9:00 am - 5:00 pm   Thursday 9:00 am - 5:00 pm   Friday 9:00 am - 5:00 pm   Saturday 9:00 am - 5:00 pm","latitude":"43.406986","longitude":"-79.72161"},{"source":"yellow page","service_name":"Royal Renovations","category":"handyman","phone":"416-452-1396","address":"Toronto, ON L6P 1Z1","postalcode":"L6P 1Z1","website":" ","working_hour":"Monday 9:00 am - 5:00 pm   Tuesday 9:00 am - 5:00 pm   Wednesday 9:00 am - 5:00 pm   Thursday 9:00 am - 5:00 pm   Friday 9:00 am - 5:00 pm","latitude":"43.791505","longitude":"-79.743173"},{"source":"yellow page","service_name":"Austin Jordan Home Improvements","category":"handyman","phone":"416-709-6767","address":"25 Peel Centre Dr, Brampton, ON L6T 3R5","postalcode":"L6T 3R5","website":"http://www.austinjordanhomeimprovements.com","working_hour":"Monday 7:00 am - 8:00 pm   Tuesday 7:00 am - 8:00 pm   Wednesday 7:00 am - 8:00 pm   Thursday 7:00 am - 8:00 pm   Friday 7:00 am - 8:00 pm   Saturday 7:00 am - 8:00 pm   Appointment Only","latitude":"43.7142367","longitude":"-79.7250262"},{"source":"yellow page","service_name":"JC Lock & Handyman Services","category":"handyman","phone":"647-272-1384","address":"68 Glenmore Cres, Brampton, ON L6S 1H8","postalcode":"L6S 1H8","website":" ","working_hour":"","latitude":"43.731278","longitude":"-79.717449"},{"source":"yellow page","service_name":"Max Renovation","category":"handyman","phone":"416-880-8553","address":"18 Knightsbridge Rd, Brampton, ON L6T 3X5","postalcode":"L6T 3X5","website":" ","working_hour":"Monday 9:00 am - 6:00 pm   Tuesday 9:00 am - 6:00 pm   Wednesday 9:00 am - 6:00 pm   Thursday 9:00 am - 6:00 pm   Friday 9:00 am - 6:00 pm   Saturday 9:00 am - 6:00 pm","latitude":"43.720932","longitude":"-79.714522"},{"source":"yellow page","service_name":"K&K Home Renovations","category":"handyman","phone":"416-898-3730","address":"5 King Cross Rd, Brampton, ON L6T 3X6","postalcode":"L6T 3X6","website":" ","working_hour":"","latitude":"43.719354","longitude":"-79.713623"},{"source":"yellow page","service_name":"Matrix Construction","category":"handyman","phone":"289-801-1501","address":"2565 Steeles Ave E, Brampton, ON L6T 4L6","postalcode":"L6T 4L6","website":"http://matrix-construction.net/","working_hour":"","latitude":"43.715076","longitude":"-79.678811"},{"source":"yellow page","service_name":"CMSP Handyman Group Inc","category":"handyman","phone":"905-495-5712","address":"190 Bovaird Dr W, Brampton, ON L7A 1A2","postalcode":"L7A 1A2","website":" ","working_hour":"","latitude":"43.701626","longitude":"-79.791421"},{"source":"yellow page","service_name":"MGR Construction Services","category":"handyman","phone":"905-796-1829","address":"75 Rosedale Ave W, Brampton, ON L6X 4H4","postalcode":"L6X 4H4","website":" ","working_hour":"","latitude":"43.6878864","longitude":"-79.7705087"},{"source":"yellow page","service_name":"Improvements Direct Home","category":"handyman","phone":"9054599311","address":"9052 Creditview Rd, Brampton, ON L6X 0E3","postalcode":"L6X 0E3","website":" ","working_hour":"","latitude":"43.6578676","longitude":"-79.7938079"},{"source":"yellow page","service_name":"Direct Home Improvements","category":"handyman","phone":"9054593247","address":"9052 Creditview Rd, Brampton, ON L6X 0E3","postalcode":"L6X 0E3","website":" ","working_hour":"Monday 9:00 am - 12:00 pm   Tuesday 9:00 am - 12:00 pm   Wednesday 9:00 am - 12:00 pm   Thursday 9:00 am - 12:00 pm   Friday 9:00 am - 12:00 pm","latitude":"43.6578676","longitude":"-79.7938079"},{"source":"yellow page","service_name":"Rosehaven Homes","category":"handyman","phone":"905-230-4372","address":"2 Dufay Rd, Brampton, ON L7A 4A1","postalcode":"L7A 4A1","website":" ","working_hour":"","latitude":"43.679891","longitude":"-79.842712"},{"source":"yellow page","service_name":"Ace Renovations & Design","category":"handyman","phone":"9059513128","address":"1 Marconi Crt, ON L7E 1E2","postalcode":"L7E 1E2","website":"http://acereno.ca/","working_hour":"","latitude":"43.860268","longitude":"-79.727586"},{"source":"yellow page","service_name":"Tru-Pro Renos & Handyman Services","category":"handyman","phone":"4166482925","address":"251 Eaton St, Georgetown, ON L7G 6N9","postalcode":"L7G 6N9","website":" ","working_hour":"","latitude":"43.6342995","longitude":"-79.8975408"},{"source":"yellow page","service_name":"Maple Star Contracting","category":"handyman","phone":"9057031824","address":"277-162 guelph St, Georgetown, ON L7G 5X7","postalcode":"L7G 5X7","website":" ","working_hour":"","latitude":"43.65056","longitude":"-79.908746"},{"source":"yellow page","service_name":"Kroes Carpentry & Construction","category":"handyman","phone":"519-856-9281","address":"119 River Glen Path Private, Guelph, ON N1H 6H8","postalcode":"N1H 6H8","website":"http://kroescarpentry.ca","working_hour":"Please Call For An Appointment","latitude":"43.571574","longitude":"-80.144731"},{"source":"yellow page","service_name":"The Timber Barn","category":"handyman","phone":"519-664-3245","address":"8 Spring, St Jacobs, ON N0B 2N0","postalcode":"N0B 2N0","website":" ","working_hour":"Monday 12:00 pm - 5:00 pm   Tuesday 12:00 pm - 5:00 pm   Wednesday 12:00 pm - 5:00 pm   Thursday 12:00 pm - 5:00 pm   Friday 12:00 pm - 5:00 pm   Saturday 10:00 am - 5:00 pm   Sunday 12:00 pm - 5:00 pm","latitude":"43.772806","longitude":"-80.06468"},{"source":"yellow page","service_name":"Reimer Construction","category":"handyman","phone":"9053158424","address":"1120 Burloak Dr, Burlington, ON L7L 6P8","postalcode":"L7L 6P8","website":" ","working_hour":"","latitude":"43.39815","longitude":"-79.760404"},{"source":"yellow page","service_name":"Midgits General Carpentry & Handyman Services","category":"handyman","phone":"9058758516","address":"3118 Parkgate Cres, Burlington, ON L7M 1C7","postalcode":"L7M 1C7","website":" ","working_hour":"","latitude":"43.362993","longitude":"-79.814574"},{"source":"yellow page","service_name":"The Small Jobs Handyman & Lawncare Specialist","category":"handyman","phone":"647-377-1419","address":"1 Towers Dr, Hamilton, ON L8H 7B7","postalcode":"L8H 7B7","website":" ","working_hour":"","latitude":"43.274204","longitude":"-79.780652"},{"source":"yellow page","service_name":"Collins Home Improvements","category":"handyman","phone":"9056438276","address":"318 Kelson Ave N, Grimsby, ON L3M 4E8","postalcode":"L3M 4E8","website":" ","working_hour":"","latitude":"43.215712","longitude":"-79.621275"},{"source":"yellow page","service_name":"Mr. Handyman","category":"handyman","phone":"8883486879","address":"201-237 Barton Street, Stoney Creek, ON L8E 2K4","postalcode":"L8E 2K4","website":" ","working_hour":"","latitude":"43.230992","longitude":"-79.73314"},{"source":"yellow page","service_name":"The Handyman Gabe And Sons","category":"handyman","phone":"9055452820","address":"300 Vansitmart Ave, Hamilton, ON L8H 3B4","postalcode":"L8H 3B4","website":" ","working_hour":"Monday 8:00 am - 6:00 pm   Tuesday 8:00 am - 6:00 pm   Wednesday 8:00 am - 6:00 pm   Thursday 8:00 am - 6:00 pm   Friday 8:00 am - 6:00 pm   Saturday 10:00 am - 4:00 pm   Please Call For Free Estimate.","latitude":"43.243785","longitude":"-79.776462"},{"source":"yellow page","service_name":"Mario the Handyman - A C General Carpentry","category":"handyman","phone":"289-680-8117","address":"415 Osborne St, Hamilton, ON L8H 6T1","postalcode":"L8H 6T1","website":" ","working_hour":"Monday 7:00 am - 5:00 pm   Tuesday 7:00 am - 5:00 pm   Wednesday 7:00 am - 5:00 pm   Thursday 7:00 am - 5:00 pm   Friday 7:00 am - 5:00 pm   Saturday 7:00 am - 12:00 pm","latitude":"43.243918","longitude":"-79.775114"},{"source":"yellow page","service_name":"Property Partners & Associates Inc","category":"handyman","phone":"2893964843","address":"Lwr 3 Minto Av, Hamilton, ON L8L 6E1","postalcode":"L8L 6E1","website":"http://www.PropertyPartnersandassociates.com","working_hour":"Monday 8:00 am - 6:00 pm   Tuesday 8:00 am - 6:00 pm   Wednesday 8:00 am - 6:00 pm   Thursday 8:00 am - 6:00 pm   Friday 8:00 am - 6:00 pm","latitude":"43.257037","longitude":"-79.842602"},{"source":"yellow page","service_name":"Leblanc Chris Handyman Services","category":"handyman","phone":"289-887-1616","address":"3-66 East 34th St, Hamilton, ON L8V 3W5","postalcode":"L8V 3W5","website":" ","working_hour":"","latitude":"43.236028","longitude":"-79.841629"},{"source":"yellow page","service_name":"Thomas Wieland Construction","category":"handyman","phone":"905-655-4683","address":"Oshawa, ON L0B 1C0","postalcode":"L0B 1C0","website":" ","working_hour":"","latitude":"44.072841","longitude":"-78.73624"},{"source":"yellow page","service_name":"A Handyman","category":"handyman","phone":"905-985-3897","address":"359 Queen St, Port Perry, ON L9L 1L5","postalcode":"L9L 1L5","website":" ","working_hour":"","latitude":"44.102601","longitude":"-78.949178"},{"source":"yellow page","service_name":"Premier Property Maintenance","category":"handyman","phone":"705-458-2347","address":"4794 5th Sideroad, Thornton, ON L0L 2N2","postalcode":"L0L 2N2","website":"http://premierpropertymaintenance.net","working_hour":"","latitude":"44.2110302","longitude":"-79.7350566"},{"source":"yellow page","service_name":"Sutherland Renovations","category":"handyman","phone":"4169377880","address":"16 Victoria St E RR 4, Cookstown, ON L0L 1L0","postalcode":"L0L 1L0","website":" ","working_hour":"","latitude":"44.1883165","longitude":"-79.6989808"},{"source":"yellow page","service_name":"Kenneth M Black Carpentry","category":"handyman","phone":"905-878-7803","address":"267 Elmwood Cres, Milton, ON L9T 1C3","postalcode":"L9T 1C3","website":"http://www.rediscoveryourhome.com","working_hour":"","latitude":"43.505132","longitude":"-79.880452"},{"source":"yellow page","service_name":"Profast Restoration Ltd","category":"handyman","phone":"9058763427","address":"100 Bronte St S, Milton, ON L9T 1Y8","postalcode":"L9T 1Y8","website":" ","working_hour":"","latitude":"43.506482","longitude":"-79.8853145"},{"source":"yellow page","service_name":"Bossiodesign Inc","category":"handyman","phone":"8073550214","address":"126 Purvis Cres, Scarborough, ON M1B 1H9","postalcode":"M1B 1H9","website":"http://www.bossiodesign.com","working_hour":"Monday 8:00 am - 5:00 pm   Tuesday 8:00 am - 5:00 pm   Wednesday 8:00 am - 5:00 pm   Thursday 8:00 am - 5:00 pm   Friday 8:00 am - 5:00 pm   Saturday 8:00 am - 5:00 pm","latitude":"43.79501","longitude":"-79.229691"},{"source":"yellow page","service_name":"Ajmal Renovation Contract","category":"handyman","phone":"416-357-8663","address":"155 Morningside Ave, Scarborough, ON M1E 3C8","postalcode":"M1E 3C8","website":"http://creditanddebtms.com","working_hour":"","latitude":"43.7624","longitude":"-79.183814"},{"source":"yellow page","service_name":"MJL Consultants Ltd","category":"handyman","phone":"4162510185","address":"66 Cedar Brae Blvd, Scarborough, ON M1J 2K5","postalcode":"M1J 2K5","website":" ","working_hour":"","latitude":"43.748477","longitude":"-79.235507"},{"source":"yellow page","service_name":"Salco General Contracting","category":"handyman","phone":"416-558-3680","address":"21 Scarcliff Gdns, Scarborough, ON M1E 2A1","postalcode":"M1E 2A1","website":"http://www.salcogta.ca","working_hour":"Monday 9:00 am - 5:00 pm   Tuesday 9:00 am - 5:00 pm   Wednesday 9:00 am - 5:00 pm   Thursday 9:00 am - 5:00 pm   Friday 9:00 am - 5:00 pm   Saturday 10:00 am - 5:00 pm","latitude":"43.752699","longitude":"-79.183776"},{"source":"yellow page","service_name":"Handymen-Services","category":"handyman","phone":"4169946822","address":"25 Newkirk Rd, Toronto, ON","postalcode":"","website":"http://www.handymen-services.com","working_hour":"","latitude":"43.775718","longitude":"-79.2207607"},{"source":"yellow page","service_name":"Butler James A General Building Contractors","category":"handyman","phone":"4162679481","address":"2 Chipper Cres, Scarborough, ON M1K 4R3","postalcode":"M1K 4R3","website":" ","working_hour":"Appointment only","latitude":"43.739513","longitude":"-79.258568"},{"source":"yellow page","service_name":"Alexander Interiors","category":"handyman","phone":"647-823-8245","address":"Scarborough, ON M1N 3L1","postalcode":"M1N 3L1","website":" ","working_hour":"Monday 9:00 am - 5:00 pm   Tuesday 9:00 am - 5:00 pm   Wednesday 9:00 am - 5:00 pm   Thursday 9:00 am - 5:00 pm   Friday 9:00 am - 5:00 pm","latitude":"43.701667","longitude":"-79.262698"},{"source":"yellow page","service_name":"Beach Handyman","category":"handyman","phone":"416-294-2130","address":"1282 Kingston Rd, Scarborough, ON M1N 1P5","postalcode":"M1N 1P5","website":" ","working_hour":"","latitude":"43.683907","longitude":"-79.276547"},{"source":"yellow page","service_name":"SHULAR Handyman Services","category":"handyman","phone":"4167571941","address":"229 Tower Dr, Scarborough, ON M1R 3P8","postalcode":"M1R 3P8","website":" ","working_hour":"","latitude":"43.754538","longitude":"-79.297822"},{"source":"yellow page","service_name":"Stephen McGrath Carpentry & Handyman","category":"handyman","phone":"647-656-1954","address":"100 Rowena Dr, North York, ON M3A 1P9","postalcode":"M3A 1P9","website":" ","working_hour":"","latitude":"43.751242","longitude":"-79.314181"},{"source":"yellow page","service_name":"First Maple Renovation","category":"handyman","phone":"4162738670","address":"211-4544 Sheppard Ave E, Scarborough, ON M1S 1V2","postalcode":"M1S 1V2","website":" ","working_hour":"","latitude":"43.7890374","longitude":"-79.2617415"},{"source":"yellow page","service_name":"RHI Renovation And Home Improvement","category":"handyman","phone":"416-699-0586","address":"4544 Sheppard Ave E, Scarborough, ON M1S 1V2","postalcode":"M1S 1V2","website":"http://www.salivanlandscape.com/","working_hour":"Monday 9:00 am - 12:00 pm   Tuesday 9:00 am - 12:00 pm   Wednesday 9:00 am - 12:00 pm   Thursday 9:00 am - 12:00 pm   Friday 9:00 am - 12:00 pm","latitude":"43.7890374","longitude":"-79.2617415"},{"source":"yellow page","service_name":"Pristine Medical Corp","category":"handyman","phone":"416-491-6000","address":"3510 Pharmacy Ave, Scarborough, ON M1W 2T7","postalcode":"M1W 2T7","website":" ","working_hour":"","latitude":"43.810736","longitude":"-79.333772"},{"source":"yellow page","service_name":"H & K Renovation Co","category":"handyman","phone":"416-293-3986","address":"2721 Markham Rd, Scarborough, ON M1X 1L5","postalcode":"M1X 1L5","website":" ","working_hour":"Monday 9:00 am - 12:00 pm   Tuesday 9:00 am - 12:00 pm   Wednesday 9:00 am - 12:00 pm   Thursday 9:00 am - 12:00 pm   Friday 9:00 am - 12:00 pm","latitude":"43.820502","longitude":"-79.246219"},{"source":"yellow page","service_name":"ProPlus Construction & Renovation","category":"handyman","phone":"905-479-3136","address":"77 Steelcase Rd W, Markham, ON L3R 2S5","postalcode":"L3R 2S5","website":" ","working_hour":"Monday 8:30 am - 6:00 pm   Tuesday 8:30 am - 6:00 pm   Wednesday 8:30 am - 6:00 pm   Thursday 8:30 am - 6:00 pm   Friday 8:30 am - 6:00 pm","latitude":"43.818028","longitude":"-79.356791"},{"source":"yellow page","service_name":"Nitta Casings Canada Inc","category":"handyman","phone":"905-475-1767","address":"57 Steelcase Rd W, Markham, ON L3R 2M4","postalcode":"L3R 2M4","website":" ","working_hour":"","latitude":"43.8181269","longitude":"-79.3572138"},{"source":"yellow page","service_name":"Spark Renovations","category":"handyman","phone":"6479986441","address":"35 Empress Ave Main, North York, ON M2N 6T3","postalcode":"M2N 6T3","website":" ","working_hour":"","latitude":"43.769564","longitude":"-79.411458"},{"source":"yellow page","service_name":"Home Handyman","category":"handyman","phone":"4166684917","address":"65 Glengarry Ave, Toronto, ON M5M 1C8","postalcode":"M5M 1C8","website":"http://www.familyhandyman.com","working_hour":"","latitude":"43.724656","longitude":"-79.408084"},{"source":"yellow page","service_name":"FGH Construction","category":"handyman","phone":"6478910247","address":"ON M2N 6Y7","postalcode":"M2N 6Y7","website":" ","working_hour":"","latitude":"43.769269","longitude":"-79.412141"},{"source":"yellow page","service_name":"Homeservice Club","category":"handyman","phone":"416-925-1111","address":"64 Prince Andrew Pl, North York, ON M3C 2H4","postalcode":"M3C 2H4","website":"http://www.homeserviceclub.com","working_hour":"","latitude":"43.727416","longitude":"-79.345558"},{"source":"yellow page","service_name":"Art Reno Inc","category":"handyman","phone":"416-636-8338","address":"1520 Lodestar Rd, North York, ON M3J 3C1","postalcode":"M3J 3C1","website":"http://unionvillerenovation.com","working_hour":"Monday 9:00 am - 5:00 pm   Tuesday 9:00 am - 5:00 pm   Wednesday 9:00 am - 5:00 pm   Thursday 9:00 am - 5:00 pm   Friday 9:00 am - 5:00 pm","latitude":"43.761941","longitude":"-79.468008"},{"source":"yellow page","service_name":"Kadoh Canada Inc","category":"handyman","phone":"4162199102","address":"4480 Chesswood Dr, North York, ON M3J 2B9","postalcode":"M3J 2B9","website":" ","working_hour":"","latitude":"43.763907","longitude":"-79.476417"},{"source":"yellow page","service_name":"Dekorum Home Improvements","category":"handyman","phone":"416-464-0363","address":"701-1120 Finch Ave W, Toronto, ON M3J 3H7","postalcode":"M3J 3H7","website":"http://www.dekorum.org/","working_hour":"Monday 8:00 am - 6:00 pm   Tuesday 8:00 am - 6:00 pm   Wednesday 8:00 am - 6:00 pm   Thursday 8:00 am - 6:00 pm   Friday 8:00 am - 6:00 pm   Emergency Appointments Available","latitude":"43.766986","longitude":"-79.475199"},{"source":"yellow page","service_name":"Modern Impressions","category":"handyman","phone":"416-697-9435","address":"1139 Lawrence Ave W, North York, ON M6A 1E1","postalcode":"M6A 1E1","website":" ","working_hour":"","latitude":"43.711697","longitude":"-79.465343"},{"source":"yellow page","service_name":"Alen Handyman","category":"handyman","phone":"647-391-4349","address":"1550 Lawrence Ave W, Toronto, ON M6L 1B8","postalcode":"M6L 1B8","website":"http://www.alenhandyman.ca/","working_hour":"Monday 8:00 am - 8:00 pm   Tuesday 8:00 am - 8:00 pm   Wednesday 8:00 am - 8:00 pm   Thursday 8:00 am - 8:00 pm   Friday 8:00 am - 8:00 pm   Saturday 8:00 am - 8:00 pm","latitude":"43.7065845","longitude":"-79.4867435"},{"source":"yellow page","service_name":"Handyman Group","category":"handyman","phone":"6478839873","address":"236 Albion Rd, Etobicoke, ON M9W 6A6","postalcode":"M9W 6A6","website":" ","working_hour":"","latitude":"43.721153","longitude":"-79.545384"},{"source":"yellow page","service_name":"BF Painting & Renovations","category":"handyman","phone":"6472921851","address":"3400 Weston Rd, North York, ON M9M 2W2","postalcode":"M9M 2W2","website":" ","working_hour":"","latitude":"43.749952","longitude":"-79.541951"},{"source":"yellow page","service_name":"Amazing Handyman FR","category":"handyman","phone":"4164362971","address":"1840 Victoria Park Ave, North York, ON M1R 1S9","postalcode":"M1R 1S9","website":" ","working_hour":"","latitude":"43.7430614","longitude":"-79.3101664"},{"source":"yellow page","service_name":"Restoration 1 Scarborough","category":"handyman","phone":"647-496-5707","address":"3-925 Warden Ave, Scarborough, ON M1L 4C5","postalcode":"M1L 4C5","website":" ","working_hour":"","latitude":"43.731206","longitude":"-79.289006"},{"source":"yellow page","service_name":"VC Renovations & Contracting","category":"handyman","phone":"6479291441","address":"15 Goldsmith Ave, Toronto, ON M1R 2M1","postalcode":"M1R 2M1","website":" ","working_hour":"","latitude":"43.743823","longitude":"-79.306636"},{"source":"yellow page","service_name":"Tam Home Improvements","category":"handyman","phone":"4164251352","address":"226 Coleridge Ave, East York, ON M4C 4J1","postalcode":"M4C 4J1","website":" ","working_hour":"","latitude":"43.693394","longitude":"-79.31509"},{"source":"yellow page","service_name":"Al Galati","category":"handyman","phone":"416-559-8609","address":"ON M4C 2K4","postalcode":"M4C 2K4","website":" ","working_hour":"","latitude":"43.693306","longitude":"-79.313372"},{"source":"yellow page","service_name":"A Handyman","category":"handyman","phone":"416-949-8276","address":"253 Merton St, Toronto, ON M4S 3H2","postalcode":"M4S 3H2","website":" ","working_hour":"","latitude":"43.69772","longitude":"-79.388553"},{"source":"yellow page","service_name":"Robs Renos & Handyman Services","category":"handyman","phone":"4164674888","address":"28 Industrial St, East York, ON M4G 1Y9","postalcode":"M4G 1Y9","website":" ","working_hour":"","latitude":"43.70802","longitude":"-79.358804"},{"source":"yellow page","service_name":"Today's Handyman","category":"handyman","phone":"647-779-6765","address":"695 Coxwell Ave, Toronto, ON M4C 5R6","postalcode":"M4C 5R6","website":" ","working_hour":"Appointment Only","latitude":"43.683195","longitude":"-79.323554"},{"source":"yellow page","service_name":"Top Handyman","category":"handyman","phone":"647-408-2568","address":"29 Eaton Ave, Toronto, ON M4J 2Z4","postalcode":"M4J 2Z4","website":"http://www.tophandyman.ca","working_hour":"Monday 7:00 am - 7:00 pm   Tuesday 7:00 am - 7:00 pm   Wednesday 7:00 am - 7:00 pm   Thursday 7:00 am - 7:00 pm   Friday 7:00 am - 7:00 pm","latitude":"43.680458","longitude":"-79.343516"},{"source":"yellow page","service_name":"ProfoundHypnosis.ca","category":"handyman","phone":"416-317-2213","address":"909 Bay St, Toronto, ON M5S 3G2","postalcode":"M5S 3G2","website":" ","working_hour":"","latitude":"43.663543","longitude":"-79.386808"},{"source":"yellow page","service_name":"Marc's Handyman Services","category":"handyman","phone":"416-833-6715","address":"130 Lower Sherbourne St, Toronto, ON M5A 4J4","postalcode":"M5A 4J4","website":" ","working_hour":"Appointment Only","latitude":"43.649515","longitude":"-79.367484"},{"source":"yellow page","service_name":"Fresh Coat Painting","category":"handyman","phone":"9057240796","address":"ON","postalcode":"","website":" ","working_hour":"","latitude":"43.651893","longitude":"-79.381713"},{"source":"yellow page","service_name":"A&A Masonry","category":"handyman","phone":"416-236-8721","address":"33 Billingham Rd, Etobicoke, ON M9B 3X2","postalcode":"M9B 3X2","website":"http://aamasonry.ca","working_hour":"Monday 9:00 am - 5:00 pm   Tuesday 9:00 am - 5:00 pm   Wednesday 9:00 am - 5:00 pm   Thursday 9:00 am - 5:00 pm   Friday 9:00 am - 5:00 pm   Appointments Available: Sunday, Saturday.","latitude":"43.632765","longitude":"-79.550133"},{"source":"yellow page","service_name":"A&A Home Improvements","category":"handyman","phone":"416-236-7989","address":"33 Billingham Rd, Etobicoke, ON M9B 3X2","postalcode":"M9B 3X2","website":"http://www.aamasonry.ca","working_hour":"","latitude":"43.632765","longitude":"-79.550133"},{"source":"yellow page","service_name":"First Waterproofing","category":"handyman","phone":"647-822-8171","address":"28 Billingham Rd, Toronto, ON M9B 3X1","postalcode":"M9B 3X1","website":" ","working_hour":"","latitude":"43.632704","longitude":"-79.550109"},{"source":"yellow page","service_name":"Dartmouth Constrn","category":"handyman","phone":"4165320888","address":"1 Albany Ave, Toronto, ON M5R 3C2","postalcode":"M5R 3C2","website":" ","working_hour":"","latitude":"43.66569","longitude":"-79.410129"},{"source":"yellow page","service_name":"Ira's Handyman Services","category":"handyman","phone":"416-724-6942","address":"1203 Roselawn Ave, Toronto, ON M6B 1C6","postalcode":"M6B 1C6","website":"http://buildbrigade.ca/","working_hour":"","latitude":"43.699326","longitude":"-79.456202"},{"source":"yellow page","service_name":"Precision Kitchen And Bath","category":"handyman","phone":"4162567206","address":"2417 Dufferin St, York, ON M6E 3S9","postalcode":"M6E 3S9","website":"http://www.precisionkitchenbath.com","working_hour":"","latitude":"43.6983423","longitude":"-79.4512267"},{"source":"yellow page","service_name":"Today's Handyman","category":"handyman","phone":"6478315679","address":"105-1 Nashville Ave, Toronto, ON M6M 1H9","postalcode":"M6M 1H9","website":" ","working_hour":"Monday 9:00 am - 5:00 pm   Tuesday 9:00 am - 5:00 pm   Wednesday 9:00 am - 5:00 pm   Thursday 9:00 am - 5:00 pm   Friday 9:00 am - 5:00 pm","latitude":"43.683564","longitude":"-79.473022"},{"source":"yellow page","service_name":"Urban Renovations","category":"handyman","phone":"4168032157","address":"752 Manning Ave, Toronto, ON M6G 2W4","postalcode":"M6G 2W4","website":" ","working_hour":"","latitude":"43.666656","longitude":"-79.416991"},{"source":"yellow page","service_name":"South Park Design Build","category":"handyman","phone":"416-850-0278","address":"2472 Dundas St W, Toronto, ON M6P 1W9","postalcode":"M6P 1W9","website":"http://southparkdesignbuild.com","working_hour":"","latitude":"43.6596176","longitude":"-79.4535217"},{"source":"yellow page","service_name":"Toronto Handyman Services & General Contracting","category":"handyman","phone":"4168334853","address":"451 Lansdowne Ave, Toronto, ON M6H 3Y2","postalcode":"M6H 3Y2","website":" ","working_hour":"","latitude":"43.654002","longitude":"-79.441097"},{"source":"yellow page","service_name":"General 4 Man Construction","category":"handyman","phone":"647-936-3052","address":"Toronto, ON M6G 3G6","postalcode":"M6G 3G6","website":" ","working_hour":"24 hours a day - 7 days a week   Appointment Only","latitude":"43.656608","longitude":"-79.418685"},{"source":"yellow page","service_name":"Mike The Downtown Handyman","category":"handyman","phone":"647-227-5518","address":"1163 Landsdowne Ave, Toronto, ON M6P 3Z7","postalcode":"M6P 3Z7","website":" ","working_hour":"Monday 8:00 am - 8:00 pm   Tuesday 8:00 am - 8:00 pm   Wednesday 8:00 am - 8:00 pm   Thursday 8:00 am - 8:00 pm   Friday 8:00 am - 8:00 pm   Saturday 8:30 am - 2:00 pm","latitude":"43.664271","longitude":"-79.455436"},{"source":"yellow page","service_name":"DMD Maintenance","category":"handyman","phone":"647-526-3602","address":"1750 Bloor Street, Toronto, ON M6P 1B3","postalcode":"M6P 1B3","website":" ","working_hour":"","latitude":"43.654807","longitude":"-79.459536"},{"source":"yellow page","service_name":"A Work In Progress","category":"handyman","phone":"4168949344","address":"240 Birmingham St, Etobicoke, ON M8V 2C8","postalcode":"M8V 2C8","website":" ","working_hour":"","latitude":"43.601652","longitude":"-79.513634"},{"source":"yellow page","service_name":"Fix My House Right Now","category":"handyman","phone":"416-807-9434","address":"101 Twenty Seventh St, Etobicoke, ON M8W 2X6","postalcode":"M8W 2X6","website":" ","working_hour":"","latitude":"43.602793","longitude":"-79.539863"},{"source":"yellow page","service_name":"Wet Basements GTA","category":"handyman","phone":"4168566144","address":"2-66 North Queen St, Etobicoke, ON M8Z 2C4","postalcode":"M8Z 2C4","website":" ","working_hour":"","latitude":"43.622569","longitude":"-79.540194"},{"source":"yellow page","service_name":"Lambton Group Ltd","category":"handyman","phone":"416-278-2661","address":"11 Bexhill Court, Toronto, ON M9A 3A8","postalcode":"M9A 3A8","website":"http://www.lambtongroupltd.com","working_hour":"Monday 8:00 am - 5:00 pm   Tuesday 8:00 am - 5:00 pm   Wednesday 8:00 am - 5:00 pm   Thursday 8:00 am - 5:00 pm   Friday 8:00 am - 5:00 pm","latitude":"43.662484","longitude":"-79.520878"},{"source":"yellow page","service_name":"M & M Handyman Services","category":"handyman","phone":"416-708-1967","address":"315 The Kingsway, Etobicoke, ON M9A 3V3","postalcode":"M9A 3V3","website":"http://www.memhandyman.com/","working_hour":"","latitude":"43.664787","longitude":"-79.523365"},{"source":"yellow page","service_name":"Greentech Contracting Inc","category":"handyman","phone":"905-851-1482","address":"20-320 Hanlan Rd, Woodbridge, ON L4L 3T4","postalcode":"L4L 3T4","website":" ","working_hour":"","latitude":"43.770627","longitude":"-79.556627"},{"source":"yellow page","service_name":"Suntown Co Ltd","category":"handyman","phone":"416-749-7113","address":"676 Garyray Dr, North York, ON M9L 1R3","postalcode":"M9L 1R3","website":"http://www.suntown.ca","working_hour":"","latitude":"43.765821","longitude":"-79.554792"},{"source":"yellow page","service_name":"JR Renovations","category":"handyman","phone":"416-999-3080","address":"9 Milvan Dr, North York, ON M9L 1Y9","postalcode":"M9L 1Y9","website":" ","working_hour":"Monday 9:00 am - 5:00 pm   Tuesday 9:00 am - 5:00 pm   Wednesday 9:00 am - 5:00 pm   Thursday 9:00 am - 5:00 pm   Friday 9:00 am - 5:00 pm","latitude":"43.751082","longitude":"-79.552776"},{"source":"yellow page","service_name":"Comfort Renovation","category":"handyman","phone":"4165692689","address":"200 Dora Spencer Rd, Toronto, ON M6M 5G5","postalcode":"M6M 5G5","website":"http://www.comfortrenovation.com","working_hour":"24 Hours a Day - 7 Days a Week","latitude":"43.691394","longitude":"-79.50495"},{"source":"yellow page","service_name":"B Constructive Carpentry & Renovations","category":"handyman","phone":"5196329333","address":"173 Main St, Ayr, ON N0B 1E0","postalcode":"N0B 1E0","website":" ","working_hour":"","latitude":"43.772277","longitude":"-80.066634"},{"source":"yellow page","service_name":"Darryl Saunders Handyman Services","category":"handyman","phone":"705-351-9247","address":"467471 Concession 12B, Collingwood, ON N0C 1C0","postalcode":"N0C 1C0","website":"http://darrylsaunders.i8.com","working_hour":"","latitude":"44.365292","longitude":"-80.358199"},{"source":"yellow page","service_name":"B&D Handyman Services","category":"handyman","phone":"519-688-3222","address":"32 North St E, Tillsonburg, ON N4G 1B3","postalcode":"N4G 1B3","website":" ","working_hour":"","latitude":"42.878834","longitude":"-80.742997"},{"source":"yellow page","service_name":"Alonzo Custom Design & Painting","category":"handyman","phone":"226-678-2703","address":"21 Chatham St, Port Burwell, ON N0J 1T0","postalcode":"N0J 1T0","website":" ","working_hour":"Monday 9:00 am - 5:00 pm   Tuesday 9:00 am - 5:00 pm   Wednesday 9:00 am - 5:00 pm   Thursday 9:00 am - 5:00 pm   Friday 9:00 am - 5:00 pm","latitude":"42.6479969","longitude":"-80.8102873"},{"source":"yellow page","service_name":"Tara Home Handyman Services","category":"handyman","phone":"5193778130","address":"20 Brook St W, Tara, ON N0H 2N0","postalcode":"N0H 2N0","website":" ","working_hour":"Monday 7:00 am - 5:00 pm   Tuesday 7:00 am - 5:00 pm   Wednesday 7:00 am - 5:00 pm   Thursday 7:00 am - 5:00 pm   Friday 7:00 am - 5:00 pm","latitude":"44.4818796","longitude":"-81.1474646"},{"source":"yellow page","service_name":"Adam's Handyman","category":"handyman","phone":"519-608-2313","address":"92 Canrobert St, Woodstock, ON N4S 8X4","postalcode":"N4S 8X4","website":" ","working_hour":"","latitude":"43.120349","longitude":"-80.771891"},{"source":"yellow page","service_name":"Boelens Construction (1991) Ltd","category":"handyman","phone":"519-845-3407","address":"495 Thames St, Wyoming, ON N0N 1T0","postalcode":"N0N 1T0","website":"http://www.boelensconstruction.com","working_hour":"Monday 7:00 am - 7:00 pm   Tuesday 7:00 am - 7:00 pm   Wednesday 7:00 am - 7:00 pm   Thursday 7:00 am - 7:00 pm   Friday 7:00 am - 7:00 pm","latitude":"42.9506843","longitude":"-82.1158895"},{"source":"yellow page","service_name":"Legacy Custom Homes Inc","category":"handyman","phone":"519-979-7571","address":"12805 St. Gregory's Rd, Tecumseh, ON N8N 5A4","postalcode":"N8N 5A4","website":" ","working_hour":"Call For Details: Sunday, Monday, Tuesday, Wednesday, Thursday, Friday, Saturday.","latitude":"42.3166285","longitude":"-82.8785464"},{"source":"yellow page","service_name":"BKS Handyman Services","category":"handyman","phone":"289-260-9371","address":"2268 Binbrook Rd RR 1, Binbrook, ON L0R 1C0","postalcode":"L0R 1C0","website":" ","working_hour":"","latitude":"43.1172345","longitude":"-79.7886535"},{"source":"yellow page","service_name":"Overland Custom Renovations","category":"handyman","phone":"226-780-7607","address":"420 Starwood Dr, Guelph, ON N1E 7A4","postalcode":"N1E 7A4","website":" ","working_hour":"Call For Details","latitude":"43.569819","longitude":"-80.233543"},{"source":"yellow page","service_name":"Ken Karpenter","category":"handyman","phone":"5199944357","address":"54 Couling Cres, Guelph, ON N1E 0J7","postalcode":"N1E 0J7","website":" ","working_hour":"Monday 8:00 am - 9:00 pm   Tuesday 8:00 am - 9:00 pm   Wednesday 8:00 am - 9:00 pm   Thursday 8:00 am - 9:00 pm   Friday 8:00 am - 9:00 pm   Saturday 9:00 am - 8:00 pm   Sunday 9:00 am - 8:00 pm","latitude":"43.581819","longitude":"-80.226078"},{"source":"yellow page","service_name":"Emerald Decks and Renovations LLC","category":"handyman","phone":"519-662-0991","address":"1586 Roseville Rd, Cambridge, ON N1R 5S3","postalcode":"N1R 5S3","website":"http://www.emeralddecksandrenovations.ca/","working_hour":"24 hours a day - 7 days a week","latitude":"43.3579183","longitude":"-80.3781615"},{"source":"yellow page","service_name":"JM Custom Renos Inc","category":"handyman","phone":"5197444544","address":"7B-871U Victoria St N, Kitchener, ON N2B 3C3","postalcode":"N2B 3C3","website":" ","working_hour":"","latitude":"43.4630292","longitude":"-80.4681258"},{"source":"yellow page","service_name":"Lcm Property Services","category":"handyman","phone":"2263368980","address":"634 Colby Dr, Waterloo, ON N2V 1A2","postalcode":"N2V 1A2","website":" ","working_hour":"","latitude":"43.506502","longitude":"-80.54084"},{"source":"yellow page","service_name":"John's Handyman Services","category":"handyman","phone":"5194425535","address":"17 Magnolia Dr, Paris, ON N3L 3M8","postalcode":"N3L 3M8","website":" ","working_hour":"","latitude":"43.209323","longitude":"-80.400456"},{"source":"yellow page","service_name":"Demelo Plumbing","category":"handyman","phone":"519-448-3944","address":"272 German School Rd, Paris, ON N3L 3E1","postalcode":"N3L 3E1","website":"http://demelohvac.com","working_hour":"Monday 9:00 am - 5:00 pm   Tuesday 9:00 am - 5:00 pm   Wednesday 9:00 am - 5:00 pm   Thursday 9:00 am - 5:00 pm   Friday 9:00 am - 5:00 pm   Saturday 9:00 am - 5:00 pm   Sunday 10:00 am - 4:00 pm","latitude":"43.225838","longitude":"-80.273568"},{"source":"yellow page","service_name":"AG Home Renovations","category":"handyman","phone":"2264001109","address":"Brantford, ON N3S 6X3","postalcode":"N3S 6X3","website":" ","working_hour":"Monday 8:00 am - 5:00 pm   Tuesday 8:00 am - 5:00 pm   Wednesday 8:00 am - 5:00 pm   Thursday 8:00 am - 5:00 pm   Friday 8:00 am - 5:00 pm   Emergency Appointments Available","latitude":"43.1418","longitude":"-80.229483"},{"source":"yellow page","service_name":"NB Refinishing","category":"handyman","phone":"905-923-3915","address":"51 Park Ave, Brantford, ON N3S 5H4","postalcode":"N3S 5H4","website":"http://nbrefinishing.ca","working_hour":"Monday 9:00 am - 5:00 pm   Tuesday 9:00 am - 5:00 pm   Wednesday 9:00 am - 5:00 pm   Thursday 9:00 am - 5:00 pm   Friday 9:00 am - 5:00 pm","latitude":"43.134116","longitude":"-80.252005"},{"source":"yellow page","service_name":"St Rick's Contracting","category":"handyman","phone":"289-441-2275","address":"2521 56 Hwy, Binbrook, ON L0R 1C0","postalcode":"L0R 1C0","website":" ","working_hour":"","latitude":"43.1312867","longitude":"-79.800055"},{"source":"yellow page","service_name":"M&E Custom Renovations and Landscaping","category":"handyman","phone":"2265670230","address":"2541 Cockshutt Rd, Waterford, ON N0E 1Y0","postalcode":"N0E 1Y0","website":" ","working_hour":"Monday 9:00 am - 5:00 pm   Tuesday 9:00 am - 5:00 pm   Wednesday 9:00 am - 5:00 pm   Thursday 9:00 am - 5:00 pm   Friday 9:00 am - 5:00 pm","latitude":"42.961744","longitude":"-80.25853"},{"source":"yellow page","service_name":"Gardening Specialist","category":"handyman","phone":"5193750831","address":"2932 Bruce Rd 13, Owen Sound, ON N0H 2T0","postalcode":"N0H 2T0","website":"http://helenesevergreen.ca","working_hour":"Monday 9:00 am - 5:00 pm   Tuesday 9:00 am - 5:00 pm   Wednesday 9:00 am - 5:00 pm   Thursday 9:00 am - 5:00 pm   Friday 9:00 am - 5:00 pm","latitude":"44.646072","longitude":"-81.118582"},{"source":"yellow page","service_name":"EcoRefinishers","category":"handyman","phone":"519-635-2566","address":"86 Charles St, Bright, ON N0J 1B0","postalcode":"N0J 1B0","website":" ","working_hour":"Monday 8:00 am - 9:00 pm   Tuesday 8:00 am - 9:00 pm   Wednesday 8:00 am - 9:00 pm   Thursday 8:00 am - 9:00 pm   Friday 8:00 am - 9:00 pm   Saturday 8:00 am - 9:00 pm   Sunday 8:00 am - 9:00 pm","latitude":"43.270929","longitude":"-80.651924"},{"source":"yellow page","service_name":"BVD Home Improvements","category":"handyman","phone":"519-537-4492","address":"27 Wilson St, Bright, ON N0J 1B0","postalcode":"N0J 1B0","website":" ","working_hour":"","latitude":"43.268869","longitude":"-80.655116"},{"source":"yellow page","service_name":"ServiceMaster Canada","category":"handyman","phone":"5194619156","address":"20529 Purple Hill Rd, Thorndale, ON N0M 2P0","postalcode":"N0M 2P0","website":"http://www.servicemaster.ca","working_hour":"Monday 9:00 am - 12:00 pm   Tuesday 9:00 am - 12:00 pm   Wednesday 9:00 am - 12:00 pm   Thursday 9:00 am - 12:00 pm   Friday 9:00 am - 12:00 pm","latitude":"43.0591868","longitude":"-81.0810492"},{"source":"yellow page","service_name":"Card and Company Construction","category":"handyman","phone":"5193197585","address":"Aylmer, ON","postalcode":"","website":"http://cardandcompany.com","working_hour":"","latitude":"","longitude":""},{"source":"yellow page","service_name":"IDW Kitchen Renovations","category":"handyman","phone":"5197777421","address":"Sales Pls Verify Billing Address With Customer, London, ON","postalcode":"","website":" ","working_hour":"","latitude":"43.651893","longitude":"-79.381713"},{"source":"yellow page","service_name":"Dekmar Home Improvements","category":"handyman","phone":"5197653507","address":"RR 4, Aylmer, ON N5H 2R3","postalcode":"N5H 2R3","website":"http://dekmar.ca/","working_hour":"Monday 9:00 am - 5:00 pm   Tuesday 9:00 am - 5:00 pm   Wednesday 9:00 am - 5:00 pm   Thursday 9:00 am - 5:00 pm   Friday 9:00 am - 5:00 pm   Saturday 9:00 am - 5:00 pm   Sunday 10:00 am - 4:00 pm","latitude":"","longitude":""},{"source":"yellow page","service_name":"2 Handyman on Call","category":"handyman","phone":"519-694-8824","address":"ON N5R 3X7","postalcode":"N5R 3X7","website":" ","working_hour":"Monday 9:00 am - 5:00 pm   Tuesday 9:00 am - 5:00 pm   Wednesday 9:00 am - 5:00 pm   Thursday 9:00 am - 5:00 pm   Friday 9:00 am - 5:00 pm   Saturday 9:00 am - 5:00 pm   Sunday 9:00 am - 5:00 pm","latitude":"","longitude":""},{"source":"yellow page","service_name":"DnA Renovations","category":"handyman","phone":"519-281-2892","address":"1403 Beckworth Ave, London, ON N5V 2K4","postalcode":"N5V 2K4","website":" ","working_hour":"","latitude":"43.0214603","longitude":"-81.2001658"},{"source":"yellow page","service_name":"Hillpark Home","category":"handyman","phone":"5194551300","address":"650 Little Simcoe St, London, ON N5Z 1P4","postalcode":"N5Z 1P4","website":" ","working_hour":"","latitude":"42.983633","longitude":"-81.225458"},{"source":"yellow page","service_name":"Victoria Design-Build Ltd","category":"handyman","phone":"519-280-4348","address":"London, ON N6C 6A7","postalcode":"N6C 6A7","website":"http://www.victoriadesign-build.com","working_hour":"Monday 8:00 am - 5:00 pm   Tuesday 8:00 am - 5:00 pm   Wednesday 8:00 am - 5:00 pm   Thursday 8:00 am - 5:00 pm   Friday 8:00 am - 5:00 pm","latitude":"42.955488","longitude":"-81.250636"},{"source":"yellow page","service_name":"Gencon Renovations","category":"handyman","phone":"5196708586","address":"116 Briscoe St W, London, ON N6J 1M5","postalcode":"N6J 1M5","website":" ","working_hour":"","latitude":"42.96544","longitude":"-81.270671"},{"source":"yellow page","service_name":"MK Handyman Services","category":"handyman","phone":"2262241596","address":"2-200 Commissioners Rd W, London, ON N6J 1Y1","postalcode":"N6J 1Y1","website":" ","working_hour":"","latitude":"42.9563919","longitude":"-81.2700881"},{"source":"yellow page","service_name":"The Happy Handyman","category":"handyman","phone":"226-224-4005","address":"1012 Griffith St, London, ON N6K 4B8","postalcode":"N6K 4B8","website":" ","working_hour":"Monday 9:00 am - 5:00 pm   Tuesday 9:00 am - 5:00 pm   Wednesday 9:00 am - 5:00 pm   Thursday 9:00 am - 5:00 pm   Friday 9:00 am - 5:00 pm","latitude":"42.9514864","longitude":"-81.3277016"},{"source":"yellow page","service_name":"Bedard Pat Construction","category":"handyman","phone":"519-236-4720","address":"Zurich, ON N0M 2T0","postalcode":"N0M 2T0","website":"http://www.hay.net","working_hour":"","latitude":"43.431836","longitude":"-81.708317"},{"source":"yellow page","service_name":"Jeffrey Brothers Ltd","category":"handyman","phone":"519-236-4441","address":"73271 Bluewater Hwy, Zurich, ON N0M 2T0","postalcode":"N0M 2T0","website":"http://www.hay.net","working_hour":"","latitude":"43.43516","longitude":"-81.703332"},{"source":"yellow page","service_name":"Bob Dietrich Handyman","category":"handyman","phone":"519-236-4989","address":"12 Mary St, Zurich, ON N0M 2T0","postalcode":"N0M 2T0","website":"http://www.skilledtradespersons.com","working_hour":"","latitude":"43.423774","longitude":"-81.626227"},{"source":"yellow page","service_name":"Andy's Handyman Service","category":"handyman","phone":"519-236-9963","address":"20 Goshen S, ON","postalcode":"","website":" ","working_hour":"","latitude":"43.419667","longitude":"-81.624509"},{"source":"yellow page","service_name":"J & D Baer Inc.","category":"handyman","phone":"1-855-868-6029","address":"4494 Scotchmere Dr RR 2, Glencoe, ON N0L 1M0","postalcode":"N0L 1M0","website":"http://jdbaerinc.com","working_hour":"Monday 9:00 am - 5:00 pm   Tuesday 9:00 am - 5:00 pm   Wednesday 9:00 am - 5:00 pm   Thursday 9:00 am - 5:00 pm   Friday 9:00 am - 5:00 pm","latitude":"42.8186651","longitude":"-81.738784"},{"source":"yellow page","service_name":"D & C Renovations and Cleanouts","category":"handyman","phone":"226-582-1547","address":"5270 Nauvoo Rd, Watford, ON N0M 2S0","postalcode":"N0M 2S0","website":" ","working_hour":"Monday 9:00 am - 5:00 pm   Tuesday 9:00 am - 5:00 pm   Wednesday 9:00 am - 5:00 pm   Thursday 9:00 am - 5:00 pm   Friday 9:00 am - 5:00 pm","latitude":"42.9465447","longitude":"-81.8800422"},{"source":"yellow page","service_name":"Geoffrey Doug Construction Ltd","category":"handyman","phone":"519-235-2961","address":"280 Thames Rd W, Exeter, ON N0M 1S3","postalcode":"N0M 1S3","website":"http://douggeoffreycons.com","working_hour":"","latitude":"43.360583","longitude":"-81.494176"},{"source":"yellow page","service_name":"Austin Renovations and Contracting","category":"handyman","phone":"519-784-9114","address":"8300 10th Line, Charing Cross, ON N0P 1G0","postalcode":"N0P 1G0","website":" ","working_hour":"","latitude":"42.3460003","longitude":"-82.1267832"},{"source":"yellow page","service_name":"J P Contractors","category":"handyman","phone":"519-351-8119","address":"8565 Doyle Line, Chatham, ON N7M 5J3","postalcode":"N7M 5J3","website":" ","working_hour":"Monday 8:00 am - 5:00 pm   Tuesday 8:00 am - 5:00 pm   Wednesday 8:00 am - 5:00 pm   Thursday 8:00 am - 5:00 pm   Friday 8:00 am - 5:00 pm","latitude":"42.40171","longitude":"-82.089496"},{"source":"yellow page","service_name":"Bartlett Restoration Ltd","category":"handyman","phone":"5194360675","address":"7950 Middle Line, Charing Cross, ON N0P 1G0","postalcode":"N0P 1G0","website":" ","working_hour":"","latitude":"42.3138313","longitude":"-82.1245515"},{"source":"yellow page","service_name":"Bert's Plumbing","category":"handyman","phone":"519-354-3781","address":"21007 Charing Cross, Charing Cross, ON N0P 1G0","postalcode":"N0P 1G0","website":" ","working_hour":"Monday 9:00 am - 4:00 pm   Tuesday 9:00 am - 4:00 pm   Wednesday 9:00 am - 4:00 pm   Thursday 9:00 am - 3:00 pm   Friday 9:00 am - 4:00 pm   Please Call To Schedule Appointment   Appointment Only   Emergency Appointments Available","latitude":"42.332823","longitude":"-82.097258"},{"source":"yellow page","service_name":"Essex-Kent Fence & Deck","category":"handyman","phone":"226-798-0094","address":"7183 Eighth Line, North Buxton, ON N0P 1W0","postalcode":"N0P 1W0","website":" ","working_hour":"Monday 8:00 am - 5:00 pm   Tuesday 8:00 am - 5:00 pm   Wednesday 8:00 am - 5:00 pm   Thursday 8:00 am - 5:00 pm   Friday 8:00 am - 5:00 pm","latitude":"42.3278042","longitude":"-82.2021443"},{"source":"yellow page","service_name":"Al-Mar Home Improvements","category":"handyman","phone":"519-351-5666","address":"11812 Longwoods Rd RR 6, Thamesville, ON N0P 2K0","postalcode":"N0P 2K0","website":"http://almarhomeimprovements.com","working_hour":"Monday 8:00 am - 6:00 pm   Tuesday 8:00 am - 6:00 pm   Wednesday 8:00 am - 6:00 pm   Thursday 8:00 am - 6:00 pm   Friday 8:00 am - 6:00 pm   Saturday 8:00 am - 12:00 pm","latitude":"42.519332","longitude":"-82.064491"},{"source":"yellow page","service_name":"Windsor Handyman Services","category":"handyman","phone":"226-280-7677","address":"2739 Parent Ave, Windsor, ON N8X 4K7","postalcode":"N8X 4K7","website":" ","working_hour":"","latitude":"42.285928","longitude":"-83.002806"},{"source":"yellow page","service_name":"Truax Design","category":"handyman","phone":"519-946-0561","address":"3585 Rhodes Dr, Windsor, ON N8W 5B3","postalcode":"N8W 5B3","website":" ","working_hour":"","latitude":"42.281814","longitude":"-82.96616"},{"source":"yellow page","service_name":"T & J Property Maintenance","category":"handyman","phone":"705-349-2661","address":"117 Main St W, Huntsville, ON P1H 1W8","postalcode":"P1H 1W8","website":"http://www.shopmuskoka.com/tjpropertymaintenance/","working_hour":"Monday 9:00 am - 5:00 pm   Tuesday 9:00 am - 5:00 pm   Wednesday 9:00 am - 5:00 pm   Thursday 9:00 am - 5:00 pm   Friday 9:00 am - 5:00 pm   Appointment Only","latitude":"45.320405","longitude":"-79.230738"},{"source":"yellow page","service_name":"Boyes Ted & Sons Construction Ltd","category":"handyman","phone":"705-382-2920","address":"5 Victoria, Burks Falls, ON P0A 1C0","postalcode":"P0A 1C0","website":" ","working_hour":"","latitude":"45.622283","longitude":"-79.395496"},{"source":"yellow page","service_name":"AOK Indoor Outdoor Property Maintenance","category":"handyman","phone":"705-788-9942","address":"2000 Ravenscliffe Rd, Huntsville, ON P1H 2J2","postalcode":"P1H 2J2","website":" ","working_hour":"","latitude":"45.3559063","longitude":"-79.3061746"},{"source":"yellow page","service_name":"Scotts Handyman Service","category":"handyman","phone":"705-788-9405","address":"19 Church St, Huntsville, ON P1H 1G9","postalcode":"P1H 1G9","website":" ","working_hour":"","latitude":"45.327374","longitude":"-79.2114"},{"source":"yellow page","service_name":"Indigo Property Services","category":"handyman","phone":"7056410300","address":"1211 Doe Lake Rd, Gravenhurst, ON P1P 1R3","postalcode":"P1P 1R3","website":"http://www.indigopropertyservices.ca/","working_hour":"Monday 9:00 am - 5:00 pm   Tuesday 9:00 am - 5:00 pm   Wednesday 9:00 am - 5:00 pm   Thursday 9:00 am - 5:00 pm   Friday 9:00 am - 5:00 pm","latitude":"44.9309704","longitude":"-79.3216246"},{"source":"yellow page","service_name":"Cody's Contracting","category":"handyman","phone":"647-696-4995","address":"51 Baker St, Cobalt, ON P0J 1C0","postalcode":"P0J 1C0","website":" ","working_hour":"Monday 9:00 am - 5:00 pm   Tuesday 9:00 am - 5:00 pm   Wednesday 9:00 am - 5:00 pm   Thursday 9:00 am - 5:00 pm   Friday 9:00 am - 5:00 pm","latitude":"47.3948733","longitude":"-79.6879983"},{"source":"yellow page","service_name":"Wood Chuck Renovation","category":"handyman","phone":"705-845-6138","address":"ON","postalcode":"","website":" ","working_hour":"","latitude":"","longitude":""},{"source":"yellow page","service_name":"Doug's Handyman & Tree Services","category":"handyman","phone":"7057532332","address":"ON","postalcode":"","website":" ","working_hour":"","latitude":"43.651893","longitude":"-79.381713"},{"source":"yellow page","service_name":"ABCO Building Services","category":"handyman","phone":"705-753-3630","address":"ON","postalcode":"","website":" ","working_hour":"","latitude":"","longitude":""},{"source":"yellow page","service_name":"Northern Green Energy Solutions","category":"handyman","phone":"705-499-2436","address":"North Bay and Area, Callander, ON P0H 1H0","postalcode":"P0H 1H0","website":"http://www.installgeo.ca","working_hour":"","latitude":"46.197651","longitude":"-79.447729"},{"source":"yellow page","service_name":"Eco Home Renovations","category":"handyman","phone":"705-647-8482","address":"170 Caroline Crt RR 2, New Liskeard, ON P0J 1P0","postalcode":"P0J 1P0","website":" ","working_hour":"","latitude":"47.5390752","longitude":"-79.6685659"},{"source":"yellow page","service_name":"Rénovation Éric Julien Enr","category":"handyman","phone":"819-629-3066","address":"50, rue Maisonneuve, Ville-Marie, QC J9V 1V6","postalcode":"J9V 1V6","website":" ","working_hour":"","latitude":"47.330913","longitude":"-79.435407"},{"source":"yellow page","service_name":"Construction N G Roy Inc","category":"handyman","phone":"819-625-2157","address":"18 Notre-Dame E, Lorrainville, QC J0Z 2R0","postalcode":"J0Z 2R0","website":" ","working_hour":"","latitude":"47.354034","longitude":"-79.358217"},{"source":"yellow page","service_name":"GST Renovations & Contracting","category":"handyman","phone":"7056485148","address":"ON","postalcode":"","website":" ","working_hour":"","latitude":"43.651893","longitude":"-79.381713"},{"source":"yellow page","service_name":"Maçonnerie Gilles Caya Inc","category":"handyman","phone":"819-629-7078","address":"47, rue Maisonneuve, Ville-Marie, QC J9V 1V3","postalcode":"J9V 1V3","website":" ","working_hour":"Monday 12:00 pm - 11:59 pm   Tuesday 12:00 pm - 11:59 pm   Wednesday 12:00 pm - 11:59 pm   Thursday 12:00 pm - 11:59 pm   Friday 12:00 pm - 11:59 pm   Saturday 12:00 pm - 11:59 pm   Sunday 12:00 pm - 11:59 pm","latitude":"47.330798","longitude":"-79.435766"},{"source":"yellow page","service_name":"Breton Renovation Inc","category":"handyman","phone":"819-629-7868","address":"22 D, Ville-Marie, QC J9V 2B7","postalcode":"J9V 2B7","website":" ","working_hour":"","latitude":"47.3306735","longitude":"-79.4407079"},{"source":"yellow page","service_name":"M Martel Construction","category":"handyman","phone":"705-647-4808","address":"723142 Benoit Rd RR 3, New Liskeard, ON P0J 1P0","postalcode":"P0J 1P0","website":" ","working_hour":"","latitude":"47.544872","longitude":"-79.653031"},{"source":"yellow page","service_name":"G4 Construction","category":"handyman","phone":"819-629-3003","address":"C-7 des Oblats N, Ville-Marie, QC J9V 1H9","postalcode":"J9V 1H9","website":" ","working_hour":"","latitude":"47.332757","longitude":"-79.43841"},{"source":"yellow page","service_name":"Desrochers Serge Rénovations","category":"handyman","phone":"819-634-2270","address":"1500-101 Rte, Fabre, QC J0Z 1Z0","postalcode":"J0Z 1Z0","website":" ","working_hour":"Monday 8:00 am - 5:00 pm   Tuesday 8:00 am - 5:00 pm   Wednesday 8:00 am - 5:00 pm   Thursday 8:00 am - 5:00 pm   Friday 8:00 am - 5:00 pm","latitude":"47.180632","longitude":"-79.367995"},{"source":"yellow page","service_name":"Construction François Viau Inc","category":"handyman","phone":"819-622-0840","address":"4, ch de la Sirardaie, Ville-Marie, QC J9V 1V1","postalcode":"J9V 1V1","website":" ","working_hour":"Monday 8:00 am - 8:00 pm   Tuesday 8:00 am - 8:00 pm   Wednesday 8:00 am - 8:00 pm   Thursday 8:00 am - 8:00 pm   Friday 8:00 am - 8:00 pm","latitude":"47.3356191","longitude":"-79.4792342"},{"source":"yellow page","service_name":"Luc's Home Improvements","category":"handyman","phone":"705-672-5216","address":"PO Box 44, Haileybury, ON P0J 1K0","postalcode":"P0J 1K0","website":" ","working_hour":"","latitude":"47.44383","longitude":"-79.63788"},{"source":"yellow page","service_name":"Construction et rénovation André Descôteaux Inc","category":"handyman","phone":"819-622-0461","address":"981 Rte 101 N, Duhamel Ouest, Duhamel O, QC J9V 2E2","postalcode":"J9V 2E2","website":" ","working_hour":"","latitude":"47.373686","longitude":"-79.443378"},{"source":"yellow page","service_name":"G4 Construction","category":"handyman","phone":"8197630103","address":"2648 rue Saguenay, Rouyn-Noranda, QC J9X 2H4","postalcode":"J9X 2H4","website":" ","working_hour":"Monday 12:00 am - 11:59 pm   Tuesday 12:00 am - 11:59 pm   Wednesday 12:00 am - 11:59 pm   Thursday 12:00 am - 11:59 pm   Friday 12:00 am - 11:59 pm   Saturday 12:00 am - 11:59 pm   Sunday 12:00 am - 11:59 pm","latitude":"48.2779645","longitude":"-79.0339906"},{"source":"yellow page","service_name":"Entrepreneur Général Philippe Rouleau","category":"handyman","phone":"1-855-737-9074","address":"030-700, av Dallaire, Rouyn-Noranda, QC J9X 4V9","postalcode":"J9X 4V9","website":" ","working_hour":"Monday 9:00 am - 5:00 pm   Tuesday 9:00 am - 5:00 pm   Wednesday 9:00 am - 5:00 pm   Thursday 9:00 am - 5:00 pm   Friday 9:00 am - 5:00 pm","latitude":"48.2274511","longitude":"-79.0276207"},{"source":"yellow page","service_name":"Techno Construction","category":"handyman","phone":"1-844-594-2771","address":"171, rue Monseigneur-Tessier O, Rouyn-Noranda, QC J9X 2S9","postalcode":"J9X 2S9","website":"http://www.votreprojet.ca","working_hour":"Monday 8:30 am - 4:30 pm   Tuesday 8:30 am - 4:30 pm   Wednesday 8:30 am - 4:30 pm   Thursday 8:30 am - 4:30 pm   Friday 8:30 am - 12:00 pm","latitude":"48.239046","longitude":"-79.025315"},{"source":"yellow page","service_name":"Paul Châtillon","category":"handyman","phone":"819-763-5313","address":"117, av Chadbourne, Rouyn-Noranda, QC J9X 1B8","postalcode":"J9X 1B8","website":"http://www.paulchatillonreno.com","working_hour":"","latitude":"48.249518","longitude":"-79.032088"},{"source":"yellow page","service_name":"Construction N Martel Inc","category":"handyman","phone":"1-855-508-9780","address":"417, av Larivière, Rouyn-Noranda, QC J9X 4H7","postalcode":"J9X 4H7","website":" ","working_hour":"","latitude":"48.2313424","longitude":"-79.0145427"},{"source":"yellow page","service_name":"Savard's Handyman Services","category":"handyman","phone":"7052222916","address":"2018 Kingsway, Sudbury, ON P3B 4J8","postalcode":"P3B 4J8","website":" ","working_hour":"","latitude":"46.500473","longitude":"-80.927385"},{"source":"yellow page","service_name":"Northwoods Carpentry & Renovations","category":"handyman","phone":"7052880316","address":"ON","postalcode":"","website":" ","working_hour":"","latitude":"43.651893","longitude":"-79.381713"},{"source":"yellow page","service_name":"A-Rock Handyman Services","category":"handyman","phone":"705-669-7356","address":"455 Monique St, Chelmsford, ON P0M 1L0","postalcode":"P0M 1L0","website":" ","working_hour":"","latitude":"46.5666999","longitude":"-81.1891792"},{"source":"yellow page","service_name":"HML Handyman Len","category":"handyman","phone":"807-229-0255","address":"","postalcode":"","website":" ","working_hour":"","latitude":"","longitude":""},{"source":"yellow page","service_name":"Ecolife Home Improvements Inc","category":"handyman","phone":"705-881-1571","address":"1716 Vermillion Lake Rd RR 2, Chelmsford, ON P0M 1L0","postalcode":"P0M 1L0","website":" ","working_hour":"","latitude":"46.5343082","longitude":"-81.3323523"},{"source":"yellow page","service_name":"Winmar","category":"handyman","phone":"705-482-7109","address":"1-102 Booth Rd, North Bay, ON P1B 8Z4","postalcode":"P1B 8Z4","website":" ","working_hour":"","latitude":"46.263707","longitude":"-79.417512"},{"source":"yellow page","service_name":"Reno's By Roch.ca","category":"handyman","phone":"705-471-9330","address":"North Bay, North Bay, ON P1A 3W7","postalcode":"P1A 3W7","website":" ","working_hour":"","latitude":"46.27425","longitude":"-79.441379"},{"source":"yellow page","service_name":"Nomad Restoration Mobile","category":"handyman","phone":"7054974303","address":"23 Commerce Cres, North Bay, ON P1A 0B3","postalcode":"P1A 0B3","website":" ","working_hour":"","latitude":"46.263165","longitude":"-79.41702"},{"source":"yellow page","service_name":"A & A Bricklayers","category":"handyman","phone":"705-476-3466","address":"910 Anita Ave, North Bay, ON P1C 0A7","postalcode":"P1C 0A7","website":" ","working_hour":"","latitude":"46.329817","longitude":"-79.378194"},{"source":"yellow page","service_name":"Ontario Stone Depot","category":"handyman","phone":"705-385-8000","address":"144 Stephenson Road 8 E, Port Sydney, ON P0B 1L0","postalcode":"P0B 1L0","website":"http://www.ontariostonedepot.com","working_hour":"","latitude":"45.173924","longitude":"-79.250954"},{"source":"yellow page","service_name":"Taylored Home Solution","category":"handyman","phone":"705-645-6366","address":"1239 Bonnie Lake Rd, Bracebridge, ON P1L 1W9","postalcode":"P1L 1W9","website":"http://www.tayloredhomesolutions.ca","working_hour":"","latitude":"45.1192752","longitude":"-79.2714145"},{"source":"yellow page","service_name":"The Handyman / White's Fences & Decks","category":"handyman","phone":"705-626-8709","address":"28 Rix St, Falconbridge, ON P0M 1S0","postalcode":"P0M 1S0","website":" ","working_hour":"Monday 7:00 am - 6:00 pm   Tuesday 7:00 am - 6:00 pm   Wednesday 7:00 am - 6:00 pm   Thursday 7:00 am - 6:00 pm   Friday 7:00 am - 6:00 pm   Saturday 7:00 am - 12:00 pm","latitude":"46.574781","longitude":"-80.811612"},{"source":"yellow page","service_name":"R Bartley Renovations","category":"handyman","phone":"7052881350","address":"ON","postalcode":"","website":" ","working_hour":"","latitude":"43.651893","longitude":"-79.381713"},{"source":"yellow page","service_name":"Sault Repair and Handyman Service","category":"handyman","phone":"705-297-0753","address":"34 Routledge Ave, Sault Ste Marie, ON P6B 2X7","postalcode":"P6B 2X7","website":" ","working_hour":"","latitude":"46.5206","longitude":"-84.315394"},{"source":"yellow page","service_name":"Handyman (Jerry)","category":"handyman","phone":"7059424894","address":"1260 Dennis St, Sault Ste Marie, ON P6A 2X1","postalcode":"P6A 2X1","website":" ","working_hour":"","latitude":"46.515501","longitude":"-84.336833"},{"source":"yellow page","service_name":"ABOR-RON Construction Services Inc","category":"handyman","phone":"807-344-5652","address":"920 Tungsten St, Thunder Bay, ON P7B 5Z6","postalcode":"P7B 5Z6","website":" ","working_hour":"","latitude":"48.410662","longitude":"-89.254049"},{"source":"yellow page","service_name":"B & M Contracting","category":"handyman","phone":"8076286252","address":"886B Alloy Pl, Thunder Bay, ON P7B 6E6","postalcode":"P7B 6E6","website":" ","working_hour":"","latitude":"48.412193","longitude":"-89.251621"},{"source":"yellow page","service_name":"Shawns Handyman Services","category":"handyman","phone":"807-633-0361","address":"228 Damon Cres, Thunder Bay, ON P7K 1J5","postalcode":"P7K 1J5","website":" ","working_hour":"Monday 9:00 am - 5:00 pm   Tuesday 9:00 am - 5:00 pm   Wednesday 9:00 am - 5:00 pm   Thursday 9:00 am - 5:00 pm   Friday 9:00 am - 5:00 pm","latitude":"48.3670363","longitude":"-89.3545626"},{"source":"yellow page","service_name":"Complete Installz","category":"handyman","phone":"8076274485","address":"170 Shirley Rd, Thunder Bay, ON P7G 2G4","postalcode":"P7G 2G4","website":"http://www.completeinstallz.com","working_hour":"Monday 9:00 am - 5:00 pm   Tuesday 9:00 am - 5:00 pm   Wednesday 9:00 am - 5:00 pm   Thursday 9:00 am - 5:00 pm   Friday 9:00 am - 5:00 pm","latitude":"48.491122","longitude":"-89.349382"},{"source":"yellow page","service_name":"Doug's Handyman Services","category":"handyman","phone":"1-844-630-3019","address":"11 Blake Hall Rd, Neebing, ON P7L 0B4","postalcode":"P7L 0B4","website":" ","working_hour":"Monday 7:00 am - 7:00 pm   Tuesday 7:00 am - 7:00 pm   Wednesday 7:00 am - 7:00 pm   Thursday 7:00 am - 7:00 pm   Friday 7:00 am - 7:00 pm   Saturday 7:00 am - 7:00 pm   Sunday 7:00 am - 7:00 pm","latitude":"48.244878","longitude":"-89.481071"},{"source":"yellow page","service_name":"Pioneer Fence","category":"handyman","phone":"204-694-6009","address":"2272 Logan Ave, Winnipeg, MB R2R 0J2","postalcode":"R2R 0J2","website":" ","working_hour":"","latitude":"49.925312","longitude":"-97.220807"},{"source":"yellow page","service_name":"D & D Contracting","category":"handyman","phone":"8072233395","address":"ON","postalcode":"","website":" ","working_hour":"","latitude":"43.651893","longitude":"-79.381713"},{"source":"yellow page","service_name":"NW Renovations","category":"handyman","phone":"8072203237","address":"ON","postalcode":"","website":" ","working_hour":"","latitude":"43.651893","longitude":"-79.381713"},{"source":"yellow page","service_name":"Get R Done Handyman Services","category":"handyman","phone":"8074683215","address":"ON","postalcode":"","website":" ","working_hour":"","latitude":"43.651893","longitude":"-79.381713"},{"source":"yellow page","service_name":"Mikes Home repair & Renovations","category":"handyman","phone":"8074661472","address":"ON","postalcode":"","website":" ","working_hour":"","latitude":"43.651893","longitude":"-79.381713"},{"source":"yellow page","service_name":"Warrior Renovations and Handyman Services","category":"handyman","phone":"8074641844","address":"ON","postalcode":"","website":" ","working_hour":"","latitude":"43.651893","longitude":"-79.381713"},{"source":"yellow page","service_name":"Brian Kostyniuk Renovations","category":"handyman","phone":"8074643700","address":"Kenora, ON","postalcode":"","website":" ","working_hour":"Monday 12:00 am - 11:59 pm   Tuesday 12:00 am - 11:59 pm   Wednesday 12:00 am - 11:59 pm   Thursday 12:00 am - 11:59 pm   Friday 12:00 am - 11:59 pm   Saturday 12:00 am - 11:59 pm   Sunday 12:00 am - 11:59 pm","latitude":"43.651893","longitude":"-79.381713"}]}