{"table":[{"source":"yellow page","service_name":"Southern Breeze Tanning Salon","category":"tanning","phone":"613-433-9797","address":"372 Raglan St S, Renfrew, ON K7V 1R7","postalcode":"K7V 1R7","website":" ","working_hour":"Monday 9:00 am - 7:00 pm   Tuesday 9:00 am - 7:00 pm   Wednesday 9:00 am - 7:00 pm   Thursday 9:00 am - 7:00 pm   Friday 9:00 am - 7:00 pm","latitude":"45.469361","longitude":"-76.680874"},{"source":"yellow page","service_name":"Suntek Studio","category":"tanning","phone":"613-836-4316","address":"121 Cardevco Rd RR 2, Carp, ON K0A 1L0","postalcode":"K0A 1L0","website":" ","working_hour":"","latitude":"45.2921606","longitude":"-75.9770427"},{"source":"yellow page","service_name":"Tropical Escape","category":"tanning","phone":"6132537888","address":"37 Lansdowne Ave, Carleton Place, ON K7C 3S9","postalcode":"K7C 3S9","website":" ","working_hour":"Monday 8:30 am - 7:00 pm   Tuesday 8:30 am - 7:00 pm   Wednesday 8:30 am - 7:00 pm   Thursday 8:30 am - 7:00 pm   Friday 8:30 am - 6:00 pm   Saturday 10:00 am - 4:00 pm","latitude":"45.1359537","longitude":"-76.1408975"},{"source":"yellow page","service_name":"L'Evasion Tropicale","category":"tanning","phone":"819-986-9665","address":"440, rue Charles, Gatineau, QC J8L 2K3","postalcode":"J8L 2K3","website":" ","working_hour":"","latitude":"45.588785","longitude":"-75.415731"},{"source":"yellow page","service_name":"Magic Tan","category":"tanning","phone":"613-632-6125","address":"382 Main St E, Hawkesbury, ON K6A 1A9","postalcode":"K6A 1A9","website":"http://magictaninc.com/","working_hour":"Monday 9:00 am - 8:00 pm   Tuesday 9:00 am - 8:00 pm   Wednesday 9:00 am - 8:00 pm   Thursday 9:00 am - 8:00 pm   Friday 9:00 am - 8:00 pm   Saturday 10:00 am - 5:00 pm   Sunday 11:00 am - 4:00 am","latitude":"45.6103644","longitude":"-74.6054557"},{"source":"yellow page","service_name":"Palm Beach Mega Tan - Orleans","category":"tanning","phone":"613-834-8826","address":"900 Watters, Orleans, ON K4A 0B4","postalcode":"K4A 0B4","website":" ","working_hour":"","latitude":"45.482976","longitude":"-75.475574"},{"source":"yellow page","service_name":"Nue O Soleil","category":"tanning","phone":"819-986-9990","address":"439, av de Buckingham, Gatineau, QC J8L 2G8","postalcode":"J8L 2G8","website":" ","working_hour":"Monday 11:00 am - 10:00 pm   Tuesday 11:00 am - 10:00 pm   Wednesday 11:00 am - 10:00 pm   Thursday 11:00 am - 10:00 pm   Friday 11:00 am - 10:00 pm   Saturday 11:00 am - 6:00 pm   Sunday 12:00 am - 6:00 pm","latitude":"45.588227","longitude":"-75.416837"},{"source":"yellow page","service_name":"Mi-Syl Santé","category":"tanning","phone":"819-427-8281","address":"154 St Denis, Papineauville, QC J0V 1R0","postalcode":"J0V 1R0","website":" ","working_hour":"","latitude":"45.6161666","longitude":"-75.0235691"},{"source":"yellow page","service_name":"Tropical Tanning Esthetics By Miriam","category":"tanning","phone":"6139336371","address":"725 Pitt St, Cornwall, ON K6J 3S1","postalcode":"K6J 3S1","website":" ","working_hour":"","latitude":"45.027067","longitude":"-74.73362"},{"source":"yellow page","service_name":"Sundeck Tanning","category":"tanning","phone":"6139373758","address":"100 Second St W, Cornwall, ON K6J 1G5","postalcode":"K6J 1G5","website":" ","working_hour":"Monday 9:00 am - 9:00 pm   Tuesday 9:00 am - 9:00 pm   Wednesday 9:00 am - 9:00 pm   Thursday 9:00 am - 9:00 pm   Friday 9:00 am - 9:00 pm   Saturday 9:00 am - 5:00 pm","latitude":"45.017492","longitude":"-74.731328"},{"source":"yellow page","service_name":"Ns Beauty Zone","category":"tanning","phone":"613-525-0091","address":"4162 County Rd 34, Green Valley, ON K0C 1L0","postalcode":"K0C 1L0","website":" ","working_hour":"Monday 7:00 am - 9:00 pm   Tuesday 7:00 am - 9:00 pm   Wednesday 7:00 am - 9:00 pm   Thursday 7:00 am - 9:00 pm   Friday 7:00 am - 9:00 pm   Saturday 8:00 am - 9:00 pm   Sunday 9:00 am - 7:00 pm","latitude":"45.2574566","longitude":"-74.5963986"},{"source":"yellow page","service_name":"Carte Blanche Bronzage Corporation","category":"tanning","phone":"613-841-3735","address":"2020 Lanthier Dr, Orleans, ON K4A 3V4","postalcode":"K4A 3V4","website":" ","working_hour":"","latitude":"45.458396","longitude":"-75.492587"},{"source":"yellow page","service_name":"Bronzage 2000","category":"tanning","phone":"613-446-0256","address":"1380 Laurier St, Rockland, ON K4K 1C7","postalcode":"K4K 1C7","website":" ","working_hour":"","latitude":"45.5525314","longitude":"-75.2863486"},{"source":"yellow page","service_name":"Tan on The Run Ottawa","category":"tanning","phone":"613-878-0274","address":"561 Petrichor Cres, Orléans, ON K4A 0Y4","postalcode":"K4A 0Y4","website":" ","working_hour":"24 hours a day - 7 days a week","latitude":"45.452512","longitude":"-75.490019"},{"source":"yellow page","service_name":"SecureTAN","category":"tanning","phone":"613-203-0388","address":"3349 Navan Rd, Navan, ON K4B 1H9","postalcode":"K4B 1H9","website":" ","working_hour":"","latitude":"45.427685","longitude":"-75.504254"},{"source":"yellow page","service_name":"Bronz'Eau Soleil","category":"tanning","phone":"613-632-4479","address":"1067 Main St E, Hawkesbury, ON K6A 1B8","postalcode":"K6A 1B8","website":" ","working_hour":"","latitude":"45.609833","longitude":"-74.592181"},{"source":"yellow page","service_name":"Bronzage Tropical Tanning","category":"tanning","phone":"6134465335","address":"2619 Laurier, Rockland, ON","postalcode":"","website":" ","working_hour":"","latitude":"45.5435268","longitude":"-75.2983866"},{"source":"yellow page","service_name":"Itan Studios (Merivale) Inc","category":"tanning","phone":"613-730-9779","address":"1867 Merivale Rd, Nepean, ON K2G 1E3","postalcode":"K2G 1E3","website":"http://www.southernlites.ca","working_hour":"","latitude":"45.334132","longitude":"-75.723632"},{"source":"yellow page","service_name":"iTan Advanced Tanning Studios","category":"tanning","phone":"613-248-4242","address":"1765 St. Laurent Blvd, Ottawa, ON K1G 3V4","postalcode":"K1G 3V4","website":" ","working_hour":"","latitude":"45.40436","longitude":"-75.626007"},{"source":"yellow page","service_name":"Mirage Tanning Centre","category":"tanning","phone":"613-736-8135","address":"5-2 Lorry Greenberg Dr, Ottawa, ON K1G 5H6","postalcode":"K1G 5H6","website":" ","working_hour":"","latitude":"45.369756","longitude":"-75.621325"},{"source":"yellow page","service_name":"iTAN Studios Corp","category":"tanning","phone":"613-274-0081","address":"2-1867 Merivale Rd, Nepean, ON K2G 1E3","postalcode":"K2G 1E3","website":" ","working_hour":"","latitude":"45.334132","longitude":"-75.723632"},{"source":"yellow page","service_name":"Du Soleil Tanning Studio","category":"tanning","phone":"613-258-0400","address":"2878 County Road 43 RR 1, Kemptville, ON K0G 1J0","postalcode":"K0G 1J0","website":"http://www.dusoleiltanningstudio.com","working_hour":"Because Our Hours Change By Season We Invite You To Call Anytime To Enquire.","latitude":"45.0255166","longitude":"-75.6450359"},{"source":"yellow page","service_name":"Itan Advanced Tanning Studios","category":"tanning","phone":"613-562-4826","address":"2-1867 Merivale Rd, Nepean, ON K2G 1E3","postalcode":"K2G 1E3","website":"http://www.itanstudios.com","working_hour":"","latitude":"45.334132","longitude":"-75.723632"},{"source":"yellow page","service_name":"Itan Advanced Tanning Studios","category":"tanning","phone":"613-823-8528","address":"3191 Strandherd Dr, Ottawa, ON K2J 4V1","postalcode":"K2J 4V1","website":" ","working_hour":"","latitude":"45.278955","longitude":"-75.725583"},{"source":"yellow page","service_name":"Bel-O-Sol Tanning Salon Inc","category":"tanning","phone":"6135233295","address":"1836 Bank St, Ottawa, ON K1V 7Y6","postalcode":"K1V 7Y6","website":"http://www.ottawatanningsalon.com","working_hour":"Monday 9:00 am - 9:00 pm   Tuesday 9:00 am - 9:00 pm   Wednesday 9:00 am - 9:00 pm   Thursday 9:00 am - 9:00 pm   Friday 9:00 am - 9:00 pm   Saturday 9:00 am - 7:00 pm   Sunday 10:00 am - 6:00 pm","latitude":"45.3713605","longitude":"-75.6638409"},{"source":"yellow page","service_name":"Ocean Tanning","category":"tanning","phone":"613-498-1740","address":"163 Ormond St, Brockville, ON K6V 7E6","postalcode":"K6V 7E6","website":" ","working_hour":"","latitude":"44.5982238","longitude":"-75.6843072"},{"source":"yellow page","service_name":"The Beach Tanning Salon","category":"tanning","phone":"613-544-0394","address":"396 Princess St, Kingston, ON K7L 5N3","postalcode":"K7L 5N3","website":"http://www.mrsuntan.com","working_hour":"","latitude":"44.233107","longitude":"-76.492171"},{"source":"yellow page","service_name":"Sundeck Tanning Salon","category":"tanning","phone":"6134984826","address":"27 King St E, Brockville, ON K6V 1A7","postalcode":"K6V 1A7","website":" ","working_hour":"","latitude":"44.591081","longitude":"-75.681905"},{"source":"yellow page","service_name":"Fabutan Sun Tan Studios","category":"tanning","phone":"613-384-0030","address":"1650 Bath Road, Kingston, ON K7M 4X6","postalcode":"K7M 4X6","website":" ","working_hour":"","latitude":"44.237269","longitude":"-76.566886"},{"source":"yellow page","service_name":"Du Soleil Tanning Studio","category":"tanning","phone":"6132830422","address":"23 Beckwith St N, Smiths Falls, ON K7A 2B2","postalcode":"K7A 2B2","website":"http://dusoleiltanningstudio.com","working_hour":"","latitude":"44.90024","longitude":"-76.02122"},{"source":"yellow page","service_name":"Palm Beach Mega Tan","category":"tanning","phone":"6136348400","address":"770 Gardiners Rd, Kingston, ON K7M 3X9","postalcode":"K7M 3X9","website":"http://www.palmbeachmegatan.com","working_hour":"","latitude":"44.249237","longitude":"-76.567971"},{"source":"yellow page","service_name":"Palm Beach Mega Tan","category":"tanning","phone":"613-345-6888","address":"1981 Parkedale Ave E, Brockville, ON K6V 5T2","postalcode":"K6V 5T2","website":" ","working_hour":"","latitude":"44.612004","longitude":"-75.687568"},{"source":"yellow page","service_name":"Artswear & Tanning Plus","category":"tanning","phone":"613-635-7500","address":"185 Pembroke W, Pembroke, ON K8A 5M8","postalcode":"K8A 5M8","website":" ","working_hour":"","latitude":"45.8249717","longitude":"-77.1171951"},{"source":"yellow page","service_name":"Sunsation Tanning","category":"tanning","phone":"613-687-6006","address":"3351 Petawawa Blvd, Petawawa, ON K8H 1X7","postalcode":"K8H 1X7","website":" ","working_hour":"Monday 9:00 am - 9:00 pm   Tuesday 9:00 am - 9:00 pm   Wednesday 9:00 am - 9:00 pm   Thursday 9:00 am - 9:00 pm   Friday 9:00 am - 7:00 pm   Saturday 10:00 am - 6:00 pm   Sunday 11:00 am - 5:00 pm","latitude":"45.895632","longitude":"-77.278962"},{"source":"yellow page","service_name":"The Hot Spot","category":"tanning","phone":"613-732-4446","address":"1041 Pembroke St W, Pembroke, ON K8A 5R3","postalcode":"K8A 5R3","website":" ","working_hour":"Monday 11:00 am - 4:00 pm   Tuesday 11:00 am - 4:00 pm   Wednesday 11:00 am - 4:00 pm   Thursday 11:00 am - 4:00 pm   Friday 11:00 am - 4:00 pm","latitude":"45.8302305","longitude":"-77.1397175"},{"source":"yellow page","service_name":"Paradise Tanning","category":"tanning","phone":"613-478-3630","address":"319 Victoria N, Tweed, ON K0K 3J0","postalcode":"K0K 3J0","website":"http://www.paradisetanningpa.com/","working_hour":"","latitude":"44.4783058","longitude":"-77.3138292"},{"source":"yellow page","service_name":"Palm Beach Mega Tan","category":"tanning","phone":"613-392-5800","address":"266 Dundas St E, Trenton, ON K8V 5Z9","postalcode":"K8V 5Z9","website":" ","working_hour":"","latitude":"44.1047069","longitude":"-77.5585481"},{"source":"yellow page","service_name":"Sunsational Sun Tanning Salon","category":"tanning","phone":"613-968-7875","address":"444 Dundas St E, Belleville, ON K8N 1E9","postalcode":"K8N 1E9","website":" ","working_hour":"Seasonal Hours - Call For Current Hours 6139687875","latitude":"44.1669417","longitude":"-77.3553409"},{"source":"yellow page","service_name":"Palm Beach Megatan","category":"tanning","phone":"613-354-7001","address":"113 Richmond Blvd, Napanee, ON K7R 3Z8","postalcode":"K7R 3Z8","website":" ","working_hour":"","latitude":"44.2631876","longitude":"-76.956646"},{"source":"yellow page","service_name":"Wellness In The Woods Salon Spa & Tanning","category":"tanning","phone":"613-354-0067","address":"7836-A County Road 2, Napanee, ON K7R 3K6","postalcode":"K7R 3K6","website":"http://www.wellnessinthewoods.com","working_hour":"Monday 9:00 am - 5:00 pm   Tuesday 9:00 am - 5:00 pm   Wednesday 9:00 am - 5:00 pm   Thursday 9:00 am - 5:00 pm   Friday 9:00 am - 5:00 pm","latitude":"44.2466265","longitude":"-76.9062817"},{"source":"yellow page","service_name":"Palm Beach Mega Tan","category":"tanning","phone":"613-962-1888","address":"145 Bell Blvd, Belleville, ON K8P 5N8","postalcode":"K8P 5N8","website":"http://www.palmbeachmegatan.com","working_hour":"","latitude":"44.1862393","longitude":"-77.405235"},{"source":"yellow page","service_name":"Cajun Tanz","category":"tanning","phone":"705-738-4040","address":"221 Main, ON K0M 1A0","postalcode":"K0M 1A0","website":" ","working_hour":"Monday 10:00 am - 7:00 pm   Tuesday 10:00 am - 7:00 pm   Wednesday 10:00 am - 7:00 pm   Thursday 10:00 am - 7:00 pm   Friday 10:00 am - 7:00 pm   Saturday 10:00 am - 5:00 pm","latitude":"44.583994","longitude":"-78.472544"},{"source":"yellow page","service_name":"Endless Summer Tanning & Nail Lounge","category":"tanning","phone":"6134765124","address":"14 Elizabeth St, Picton, ON K0K 2T0","postalcode":"K0K 2T0","website":" ","working_hour":"","latitude":"43.95061","longitude":"-77.203992"},{"source":"yellow page","service_name":"Golden Glow Tan","category":"tanning","phone":"705-876-9835","address":"1135 Lansdowne St W, Peterborough, ON K9J 7M2","postalcode":"K9J 7M2","website":"http://www.goldenglowtan.ca","working_hour":"Monday 9:00 am - 9:00 pm   Tuesday 9:00 am - 9:00 pm   Wednesday 9:00 am - 9:00 pm   Thursday 9:00 am - 9:00 pm   Friday 9:00 am - 9:00 pm   Saturday 9:00 am - 5:00 pm   Sunday 12:00 am - 5:00 pm","latitude":"44.281164","longitude":"-78.348359"},{"source":"yellow page","service_name":"Nu Bodies Fitness & Tanning World","category":"tanning","phone":"705-743-4994","address":"184 Marina Blvd, Peterborough, ON K9H 6M9","postalcode":"K9H 6M9","website":" ","working_hour":"Monday 5:00 am - 10:00 pm   Tuesday 5:00 am - 10:00 pm   Wednesday 5:00 am - 10:00 pm   Thursday 5:00 am - 10:00 pm   Friday 5:00 am - 10:00 pm   Saturday 7:00 am - 5:30 pm   Sunday 7:00 am - 5:30 pm","latitude":"44.332765","longitude":"-78.322745"},{"source":"yellow page","service_name":"Palm Beach Mega Tan","category":"tanning","phone":"705-745-3964","address":"864 Chemong Rd, Peterborough, ON K9H 5Z8","postalcode":"K9H 5Z8","website":"http://www.palmbeachmegatan.com","working_hour":"","latitude":"44.319481","longitude":"-78.332005"},{"source":"yellow page","service_name":"Trish's Hair Design","category":"tanning","phone":"7058871536","address":"9 Francis St W, Fenelon Falls, ON K0M 1N0","postalcode":"K0M 1N0","website":"http://trishshairdesign.com","working_hour":"","latitude":"44.537257","longitude":"-78.7368607"},{"source":"yellow page","service_name":"Carls Tanning Zone","category":"tanning","phone":"705-328-9656","address":"169 Queen St, Lindsay, ON K9V 1H5","postalcode":"K9V 1H5","website":" ","working_hour":"Monday 10:00 am - 8:00 pm   Tuesday 10:00 am - 8:00 pm   Wednesday 10:00 am - 8:00 pm   Thursday 10:00 am - 8:00 pm   Friday 10:00 am - 7:00 pm   Saturday 10:00 am - 4:00 pm   Sunday 10:00 am - 4:00 pm","latitude":"44.3611323","longitude":"-78.7210097"},{"source":"yellow page","service_name":"Sundaze Tanning Lounge","category":"tanning","phone":"705-745-0982","address":"194 Charlotte St, Peterborough, ON K9J 2T8","postalcode":"K9J 2T8","website":" ","working_hour":"Monday 10:00 am - 9:00 pm   Tuesday 10:00 am - 9:00 pm   Wednesday 10:00 am - 9:00 pm   Thursday 10:00 am - 9:00 pm   Friday 10:00 am - 9:00 pm   Saturday 12:00 pm - 5:00 pm   Sunday 12:00 pm - 5:00 pm","latitude":"44.303357","longitude":"-78.321468"},{"source":"yellow page","service_name":"Bronze Bliss Tanning Inc","category":"tanning","phone":"705-324-9365","address":"370 Kent St W, Lindsay, ON K9V 6G8","postalcode":"K9V 6G8","website":"http://www.bronzebliss.ca","working_hour":"","latitude":"44.3507539","longitude":"-78.7568745"},{"source":"yellow page","service_name":"Sun City Tanning Studio","category":"tanning","phone":"7054540250","address":"6670 Hwy 35, Coboconk, ON K0M 1K0","postalcode":"K0M 1K0","website":" ","working_hour":"","latitude":"44.6591842","longitude":"-78.7980077"},{"source":"yellow page","service_name":"Mirage Tanning Center","category":"tanning","phone":"613-742-7888","address":"C8-2200 Montreal Road, Gloucester, ON K1J 6M5","postalcode":"K1J 6M5","website":" ","working_hour":"","latitude":"45.450052","longitude":"-75.587318"},{"source":"yellow page","service_name":"Caribbean Exposure","category":"tanning","phone":"6137472820","address":"1980 Ogilvie Rd, Gloucester, ON K1J 9L3","postalcode":"K1J 9L3","website":" ","working_hour":"","latitude":"45.434174","longitude":"-75.611513"},{"source":"yellow page","service_name":"Instant Attraction Spray Tanning","category":"tanning","phone":"613-421-4664","address":"204 St. Patrick St, Ottawa, ON K1N 5K3","postalcode":"K1N 5K3","website":" ","working_hour":"","latitude":"45.43031","longitude":"-75.694114"},{"source":"yellow page","service_name":"Mirage Tanning Centre","category":"tanning","phone":"6137420806","address":"2200 Montreal Road, Gloucester, ON K1J 6M5","postalcode":"K1J 6M5","website":" ","working_hour":"","latitude":"45.450262","longitude":"-75.587074"},{"source":"yellow page","service_name":"ITAN Studios (Elgin) Inc","category":"tanning","phone":"613-798-8249","address":"190 MacLaren St, Ottawa, ON K2P 0L6","postalcode":"K2P 0L6","website":" ","working_hour":"","latitude":"45.417072","longitude":"-75.690066"},{"source":"yellow page","service_name":"Studio Natanielle & Bronzage Sunset Beach Inc","category":"tanning","phone":"819-669-3075","address":"922, boul Maloney E, Gatineau, QC J8P 1H5","postalcode":"J8P 1H5","website":" ","working_hour":"","latitude":"45.490409","longitude":"-75.594898"},{"source":"yellow page","service_name":"Acapulco Beach Tanning Studio","category":"tanning","phone":"613-741-8826","address":"385 McArthur Ave, Vanier, ON K1L 6N5","postalcode":"K1L 6N5","website":" ","working_hour":"","latitude":"45.432019","longitude":"-75.650356"},{"source":"yellow page","service_name":"Bronzage Ultime","category":"tanning","phone":"819-663-2555","address":"425, boul La Vérendrye E, Gatineau, QC J8R 2W8","postalcode":"J8R 2W8","website":" ","working_hour":"","latitude":"45.501057","longitude":"-75.640732"},{"source":"yellow page","service_name":"Salon de Bronzage Flamingo","category":"tanning","phone":"819-643-3030","address":"160, boul Saint-René O, Gatineau, QC J8P 2V4","postalcode":"J8P 2V4","website":" ","working_hour":"","latitude":"45.4921116","longitude":"-75.6528993"},{"source":"yellow page","service_name":"iTAN Studios","category":"tanning","phone":"613-562-1437","address":"133 Besserer St, Ottawa, ON K1N 6A7","postalcode":"K1N 6A7","website":" ","working_hour":"","latitude":"45.42654","longitude":"-75.688927"},{"source":"yellow page","service_name":"Tans To Go Mobile Tanning Service","category":"tanning","phone":"9022293512","address":"NS","postalcode":"","website":" ","working_hour":"","latitude":"45.420421","longitude":"-75.692432"},{"source":"yellow page","service_name":"Bronzage Ultime","category":"tanning","phone":"819-770-2220","address":"424, rue Saint-Mathieu, Gatineau, QC J8P 2X9","postalcode":"J8P 2X9","website":" ","working_hour":"","latitude":"45.4893643","longitude":"-75.6671058"},{"source":"yellow page","service_name":"Bronzage2go","category":"tanning","phone":"613-600-8157","address":"99 Cousineau, Gatineau, ON J8T 3R9","postalcode":"J8T 3R9","website":" ","working_hour":"","latitude":"45.464341","longitude":"-75.701966"},{"source":"yellow page","service_name":"Aqua Beach Tanning And Spa","category":"tanning","phone":"6137454747","address":"1437 Ogilvie Rd, Gloucester, ON K1J 7P3","postalcode":"K1J 7P3","website":" ","working_hour":"","latitude":"45.431625","longitude":"-75.61813"},{"source":"yellow page","service_name":"Il Paradiso Spa & Tanning","category":"tanning","phone":"613-249-8383","address":"2277 Riverside Dr, Ottawa, ON K1H 7X6","postalcode":"K1H 7X6","website":"http://precisionstyling.ca","working_hour":"","latitude":"45.3867005","longitude":"-75.6799921"},{"source":"yellow page","service_name":"Midnight Sun","category":"tanning","phone":"6137270646","address":"780 Baseline Rd, Ottawa, ON K2C 3V8","postalcode":"K2C 3V8","website":" ","working_hour":"","latitude":"45.371059","longitude":"-75.717386"},{"source":"yellow page","service_name":"Caribbean Exposure","category":"tanning","phone":"613-228-2826","address":"1642 Merivale Rd, Nepean, ON K2G 4A1","postalcode":"K2G 4A1","website":"http://www.caribbeanexposure.ca","working_hour":"","latitude":"45.345851","longitude":"-75.730563"},{"source":"yellow page","service_name":"Bronzage Ultime","category":"tanning","phone":"819-243-3535","address":"225 Boulevard de la Gappe, Ottawa-Gatineau Metro Area, QC J8T 7Y3","postalcode":"J8T 7Y3","website":" ","working_hour":"","latitude":"45.475964","longitude":"-75.706695"},{"source":"yellow page","service_name":"Salon De Bronzage Le Tropical","category":"tanning","phone":"819-776-6484","address":"697, boul Saint-Joseph, Gatineau, QC J8Y 4B4","postalcode":"J8Y 4B4","website":" ","working_hour":"","latitude":"45.4548816","longitude":"-75.7409595"},{"source":"yellow page","service_name":"La Villa du Soleil","category":"tanning","phone":"819-568-1551","address":"355, boul Gréber, Gatineau, QC J8T 6H8","postalcode":"J8T 6H8","website":" ","working_hour":"","latitude":"45.479226","longitude":"-75.701112"},{"source":"yellow page","service_name":"Bronzage Malibu Spa","category":"tanning","phone":"8196843883","address":"181 rue Principale, Gatineau, QC J9H 6A6","postalcode":"J9H 6A6","website":" ","working_hour":"","latitude":"45.395514","longitude":"-75.835468"},{"source":"yellow page","service_name":"Santa Fe Sun Tanning","category":"tanning","phone":"613-270-0632","address":"14-500 Eagleson Rd, Kanata, ON K2M 1H4","postalcode":"K2M 1H4","website":" ","working_hour":"","latitude":"45.290771","longitude":"-75.869565"},{"source":"yellow page","service_name":"Malibu Spa","category":"tanning","phone":"8196826252","address":"181 rue Principale, Gatineau, QC J9H 6A6","postalcode":"J9H 6A6","website":"http://www.malibuinc.ca","working_hour":"","latitude":"45.395514","longitude":"-75.835468"},{"source":"yellow page","service_name":"Paradise Spa & Tanning","category":"tanning","phone":"613-820-8887","address":"105-1902 Robertson Rd, Nepean, ON K2H 5B8","postalcode":"K2H 5B8","website":"http://www.paradisespaandtanning.com","working_hour":"","latitude":"45.3064922","longitude":"-75.8707041"},{"source":"yellow page","service_name":"Studio Top Bronzage","category":"tanning","phone":"819-684-1221","address":"99, rue Principale, Gatineau, QC J9H 3L9","postalcode":"J9H 3L9","website":"http://www.facebook.com/#!/pages/STUDIO-TOP-BRONZAGE-TANNING-/132635270091481","working_hour":"","latitude":"45.394838","longitude":"-75.845846"},{"source":"yellow page","service_name":"ITAN Studio","category":"tanning","phone":"613-831-4257","address":"474 Hazeldean Rd, Kanata, ON K2L 4E5","postalcode":"K2L 4E5","website":" ","working_hour":"","latitude":"45.297753","longitude":"-75.888866"},{"source":"yellow page","service_name":"IL Paradiso Spa & Tanning","category":"tanning","phone":"613-829-9393","address":"2525 Carling Ave, Ottawa, ON K2B 7Z2","postalcode":"K2B 7Z2","website":"http://www.ilparadiso.ca","working_hour":"Monday 9:00 am - 6:00 pm   Tuesday 9:00 am - 7:00 pm   Wednesday 9:00 am - 9:00 pm   Thursday 9:00 am - 9:00 pm   Friday 9:00 am - 9:00 pm   Saturday 9:00 am - 6:00 pm   Sunday 11:00 am - 5:00 pm","latitude":"45.363963","longitude":"-75.785079"},{"source":"yellow page","service_name":"Monaco Beauté","category":"tanning","phone":"450-744-1840","address":"6-695, ch Avila, Piedmont, QC J0R 1R3","postalcode":"J0R 1R3","website":" ","working_hour":"","latitude":"45.8889848","longitude":"-74.1447244"},{"source":"yellow page","service_name":"Salon De Bronzage Kheperatan","category":"tanning","phone":"450-424-2715","address":"2015, ch Sainte-Angélique, Saint-Lazare, QC J7T 2Y5","postalcode":"J7T 2Y5","website":" ","working_hour":"","latitude":"45.4005409","longitude":"-74.143735"},{"source":"yellow page","service_name":"Line Beaudoin Coiffure et Bronzage","category":"tanning","phone":"450-240-5678","address":"200, rue Principale, Saint-Sauveur, QC J0R 1R0","postalcode":"J0R 1R0","website":" ","working_hour":"Monday 9:00 am - 7:00 pm   Tuesday 9:00 am - 7:00 pm   Wednesday 9:00 am - 7:00 pm   Thursday 9:00 am - 7:00 pm   Friday 9:00 am - 7:00 pm","latitude":"45.8956181","longitude":"-74.1565393"},{"source":"yellow page","service_name":"Bronzage Action Soleil","category":"tanning","phone":"450-456-9650","address":"590, 201 Rte, St-Clet, QC J0P 1S0","postalcode":"J0P 1S0","website":" ","working_hour":"","latitude":"45.337906","longitude":"-74.245956"},{"source":"yellow page","service_name":"Bronzage Oceania","category":"tanning","phone":"4504915752","address":"3763 ch d'Oka d', Saint-Joseph-du-Lac, QC J0N 1M0","postalcode":"J0N 1M0","website":" ","working_hour":"","latitude":"45.536336","longitude":"-74.003202"},{"source":"yellow page","service_name":"Bronzage Midi Soleil","category":"tanning","phone":"450-455-1239","address":"110B rue Joseph Carrier, Vaudreuil-Dorion, QC J7V 5V5","postalcode":"J7V 5V5","website":"http://www.bronzagemidisoleil.com","working_hour":"","latitude":"45.4117271","longitude":"-74.0399278"},{"source":"yellow page","service_name":"L'Escale Santé Beauté","category":"tanning","phone":"450-744-0130","address":"895, boul des Laurentides RR 112, Piedmont, QC J0R 1K0","postalcode":"J0R 1K0","website":" ","working_hour":"Monday 9:00 am - 7:00 pm   Tuesday 9:00 am - 7:00 pm   Wednesday 9:00 am - 7:00 pm   Thursday 9:00 am - 7:00 pm   Friday 9:00 am - 7:00 pm   Saturday 10:00 am - 7:00 pm","latitude":"45.9124809","longitude":"-74.1470537"},{"source":"yellow page","service_name":"Bronzage Magie Soleil","category":"tanning","phone":"450-438-5210","address":"2140, boul du Curé-Labelle, Saint-Jérôme, QC J7Y 1T2","postalcode":"J7Y 1T2","website":" ","working_hour":"","latitude":"45.8015759","longitude":"-74.0112714"},{"source":"yellow page","service_name":"Bronzage International 2005","category":"tanning","phone":"450-438-3433","address":"500 Blvd des Laurentides, St Jérôme, QC J7Z 4M2","postalcode":"J7Z 4M2","website":" ","working_hour":"","latitude":"45.762645","longitude":"-73.992999"},{"source":"yellow page","service_name":"Art-Esthétique Inc","category":"tanning","phone":"4509904454","address":"1129 boul du Grand-Héron, Saint-Jérôme, QC J5L 1G2","postalcode":"J5L 1G2","website":"http://www.art-esthetique.ca","working_hour":"Tuesday 9:00 am - 8:30 pm   Wednesday 9:00 am - 8:30 pm   Thursday 9:00 am - 8:30 pm   Friday 9:00 am - 8:30 pm   Saturday 9:00 am - 5:00 pm","latitude":"45.7523296","longitude":"-74.0244097"},{"source":"yellow page","service_name":"Le Caveau Ensoleillé","category":"tanning","phone":"450-763-1592","address":"21, rue Principale, Coteau-du-Lac, QC J0P 1B0","postalcode":"J0P 1B0","website":" ","working_hour":"","latitude":"45.294261","longitude":"-74.176819"},{"source":"yellow page","service_name":"Centre esthétique et bronzage Denise St-Aubin","category":"tanning","phone":"4502276557","address":"59B av de la promenade RR 6, Saint-Sauveur, QC J0R 1R6","postalcode":"J0R 1R6","website":" ","working_hour":"","latitude":"45.896879","longitude":"-74.148096"},{"source":"yellow page","service_name":"Salon De Bronzage Cactus","category":"tanning","phone":"450-475-7555","address":"15519, rue de Saint-Augustin, Mirabel, QC J7N 1X5","postalcode":"J7N 1X5","website":" ","working_hour":"Appointment Only","latitude":"45.6266265","longitude":"-73.9734902"},{"source":"yellow page","service_name":"Air Brush Bronzage Sunsationnelle","category":"tanning","phone":"514-953-5266","address":"14, rue McMartin RR 1, Hudson, QC J0P 1H0","postalcode":"J0P 1H0","website":" ","working_hour":"Appointment Only","latitude":"45.448984","longitude":"-74.129594"},{"source":"yellow page","service_name":"Plaisirs Vacances","category":"tanning","phone":"450-565-9797","address":"895, boul des Laurentides, Piedmont, QC J0R 1K0","postalcode":"J0R 1K0","website":"http://www.plaisirsvacances.com","working_hour":"","latitude":"45.9124809","longitude":"-74.1470537"},{"source":"yellow page","service_name":"Ruttan Linda","category":"tanning","phone":"905-372-2100","address":"4036 Hwy 45, Baltimore, ON K0K 1C0","postalcode":"K0K 1C0","website":" ","working_hour":"","latitude":"44.060557","longitude":"-78.119573"},{"source":"yellow page","service_name":"Canada Blue Tanning Co","category":"tanning","phone":"9053720026","address":"96 Alice St, Cobourg, ON K9A 2E4","postalcode":"K9A 2E4","website":" ","working_hour":"","latitude":"43.965341","longitude":"-78.171871"},{"source":"yellow page","service_name":"Scissors Edge Alderville","category":"tanning","phone":"9053522211","address":"Hwy 45, Roseneath, ON K0K 2X0","postalcode":"K0K 2X0","website":"http://scissorsedge.ca","working_hour":"Monday 10:00 am - 7:00 pm   Tuesday 10:00 am - 7:00 pm   Wednesday 10:00 am - 7:00 pm   Thursday 10:00 am - 7:00 pm   Friday 10:00 am - 7:00 pm   Saturday 10:00 am - 6:00 pm","latitude":"44.194799","longitude":"-78.13168"},{"source":"yellow page","service_name":"Tan On The Run","category":"tanning","phone":"416-938-9300","address":"Port Hope, Toronto, ON L1A 0A4","postalcode":"L1A 0A4","website":" ","working_hour":"","latitude":"43.948094","longitude":"-78.315163"},{"source":"yellow page","service_name":"Palm Beach Mega Tan","category":"tanning","phone":"905-377-8172","address":"1 Strathy Rd, Cobourg, ON K9A 5J6","postalcode":"K9A 5J6","website":"http://www.palmbeachmegatan.com","working_hour":"","latitude":"43.97216","longitude":"-78.198325"},{"source":"yellow page","service_name":"Oasis Tans & Boutique","category":"tanning","phone":"705-932-8267","address":"24 King St E, Millbrook, ON L0A 1G0","postalcode":"L0A 1G0","website":"http://oasistansandboutique.com","working_hour":"","latitude":"44.1506771","longitude":"-78.4479499"},{"source":"yellow page","service_name":"Tiki Hut Tanning","category":"tanning","phone":"905-982-0062","address":"1869 Scugog St, Scugog, ON L9L 1J1","postalcode":"L9L 1J1","website":" ","working_hour":"Monday 8:00 am - 10:00 pm   Tuesday 8:00 am - 10:00 pm   Wednesday 8:00 am - 10:00 pm   Thursday 8:00 am - 10:00 pm   Friday 8:00 am - 10:00 pm   Saturday 8:00 am - 11:00 pm","latitude":"44.101562","longitude":"-78.939659"},{"source":"yellow page","service_name":"The Palm Beach Franchise Corporation","category":"tanning","phone":"9054342855","address":"202-1500 King Street East, Courtice, ON L1E 2T5","postalcode":"L1E 2T5","website":" ","working_hour":"","latitude":"43.907503","longitude":"-78.803852"},{"source":"yellow page","service_name":"Pure Nv Tan","category":"tanning","phone":"905-722-8125","address":"20907 Dalton Rd, Sutton West, ON L0E 1R0","postalcode":"L0E 1R0","website":" ","working_hour":"Monday 11:00 am - 8:00 pm   Tuesday 11:00 am - 8:00 pm   Wednesday 11:00 am - 8:00 pm   Thursday 11:00 am - 8:00 pm   Friday 11:00 am - 8:00 pm","latitude":"44.309995","longitude":"-79.365244"},{"source":"yellow page","service_name":"Lavish Salon And Spa Brooklyn Limited","category":"tanning","phone":"905-655-6667","address":"5969 Baldwin S, Whitby, ON L1M 2J7","postalcode":"L1M 2J7","website":" ","working_hour":"","latitude":"43.951789","longitude":"-78.962087"},{"source":"yellow page","service_name":"98 Degrees Tanning","category":"tanning","phone":"9059820448","address":"14500 Simcoe St, Port Perry, ON L9L 1V4","postalcode":"L9L 1V4","website":"http://98degreessalon.ca","working_hour":"Monday 9:00 am - 5:00 pm   Tuesday 9:00 am - 5:00 pm   Wednesday 9:00 am - 5:00 pm   Thursday 9:00 am - 5:00 pm   Friday 9:00 am - 5:00 pm   Saturday 9:00 am - 5:00 pm   Sunday 10:00 am - 4:00 pm","latitude":"44.094942","longitude":"-78.943049"},{"source":"yellow page","service_name":"Tan 7","category":"tanning","phone":"9055795109","address":"1100 Simcoe St N, Oshawa, ON L1G 4W6","postalcode":"L1G 4W6","website":" ","working_hour":"","latitude":"43.926837","longitude":"-78.876357"},{"source":"yellow page","service_name":"Palm Beach Mega Tan","category":"tanning","phone":"9054346342","address":"300 Taunton Rd E, Oshawa, ON L1G 7T4","postalcode":"L1G 7T4","website":"http://www.palmbeachmegatan.com","working_hour":"","latitude":"43.9352175","longitude":"-78.8690642"},{"source":"yellow page","service_name":"Cocoa Heaven Holistics Beauty and Tanning","category":"tanning","phone":"905-493-0356","address":"50 Kirkland Pl, Whitby, ON L1P 1X3","postalcode":"L1P 1X3","website":" ","working_hour":"","latitude":"43.904477","longitude":"-78.974976"},{"source":"yellow page","service_name":"Tropical Rayz","category":"tanning","phone":"905-927-9717","address":"9570 McCowan Rd, Gormley, ON L0H 1G0","postalcode":"L0H 1G0","website":"http://www.tropicalrayz.com","working_hour":"Monday 10:00 am - 9:00 pm   Tuesday 10:00 am - 9:00 pm   Wednesday 10:00 am - 9:00 pm   Thursday 10:00 am - 9:00 pm   Friday 10:00 am - 9:00 pm   Saturday 10:00 am - 6:00 pm   Sunday 12:00 pm - 5:00 pm","latitude":"43.932884","longitude":"-79.089721"},{"source":"yellow page","service_name":"South Beach Tanning Studio Ltd","category":"tanning","phone":"9056657176","address":"130 Dundas St W, Whitby, ON L1N 2L9","postalcode":"L1N 2L9","website":" ","working_hour":"","latitude":"43.87963","longitude":"-78.943132"},{"source":"yellow page","service_name":"Fantastic Tan Studio","category":"tanning","phone":"9054321506","address":"400 King St W, Oshawa, ON L1J 2J9","postalcode":"L1J 2J9","website":" ","working_hour":"Monday 8:00 am - 9:00 pm   Tuesday 8:00 am - 9:00 pm   Wednesday 8:00 am - 9:00 pm   Thursday 8:00 am - 9:00 pm   Friday 8:00 am - 9:00 pm   Saturday 10:00 am - 6:30 pm   Sunday 11:00 am - 5:00 pm","latitude":"43.8943121","longitude":"-78.8779565"},{"source":"yellow page","service_name":"Tanning World Inc","category":"tanning","phone":"905-619-9379","address":"65 Kingston Rd E, Ajax, ON L1S 7J4","postalcode":"L1S 7J4","website":"http://www.isleuth.com/wbsearch.htm?q=tanningandnojsredir","working_hour":"Monday 10:00 am - 10:00 pm   Tuesday 10:00 am - 10:00 pm   Wednesday 10:00 am - 10:00 pm   Thursday 10:00 am - 10:00 pm   Friday 10:00 am - 8:00 pm   Saturday 10:00 am - 6:00 pm   Sunday 10:00 am - 5:00 pm","latitude":"43.86212","longitude":"-79.021593"},{"source":"yellow page","service_name":"Even Tan 2","category":"tanning","phone":"905-250-2332","address":"705 Kingston Rd, Pickering, ON L1V 6K3","postalcode":"L1V 6K3","website":" ","working_hour":"Monday 10:00 am - 9:00 pm   Tuesday 10:00 am - 9:00 pm   Wednesday 10:00 am - 9:00 pm   Thursday 10:00 am - 9:00 pm   Friday 10:00 am - 9:00 pm   Saturday 10:30 am - 6:00 pm   Sunday 12:00 pm - 5:00 pm","latitude":"43.81982","longitude":"-79.114225"},{"source":"yellow page","service_name":"Caribbean Colour","category":"tanning","phone":"905-839-8508","address":"2066 Liverpool Rd, Pickering, ON L1X 1E2","postalcode":"L1X 1E2","website":" ","working_hour":"Monday 9:30 am - 9:30 pm   Tuesday 9:30 am - 9:30 pm   Wednesday 9:30 am - 9:30 pm   Thursday 9:30 am - 9:30 pm   Friday 9:30 am - 9:30 pm   Saturday 10:00 am - 6:00 pm   Sunday 11:00 am - 5:00 pm","latitude":"43.8474008","longitude":"-79.095834"},{"source":"yellow page","service_name":"Fabutan Sun Tan Studios","category":"tanning","phone":"905-686-8187","address":"8-603 Church St N, Ajax, ON L1T 0B8","postalcode":"L1T 0B8","website":" ","working_hour":"","latitude":"43.865445","longitude":"-79.06029"},{"source":"yellow page","service_name":"Fabutan Sun Tan Studios","category":"tanning","phone":"905-421-0111","address":"6-1822 Whites Road, Pickering, ON L1V 4M1","postalcode":"L1V 4M1","website":"http://fabutan.com","working_hour":"","latitude":"43.830997","longitude":"-79.12088"},{"source":"yellow page","service_name":"Perfect Spray Tan","category":"tanning","phone":"905-706-2228","address":"","postalcode":"","website":" ","working_hour":"","latitude":"","longitude":""},{"source":"yellow page","service_name":"Priceless Beauty","category":"tanning","phone":"647-455-1400","address":"1415 Fieldlight Blvd, Pickering, ON L1V 2S3","postalcode":"L1V 2S3","website":"http://www.priceless-beauty.com","working_hour":"By Appointment Only   Please Call For Details & Appointments","latitude":"43.84359","longitude":"-79.089533"},{"source":"yellow page","service_name":"Cool Rays Tanning & Spray Tanning","category":"tanning","phone":"905-426-9900","address":"596 Kingston Rd W, Ajax, ON L1T 3A2","postalcode":"L1T 3A2","website":"http://www.coolrays.ca","working_hour":"Monday 10:00 am - 9:00 pm   Tuesday 10:00 am - 9:00 pm   Wednesday 10:00 am - 9:00 pm   Thursday 10:00 am - 9:00 pm   Friday 10:00 am - 9:00 pm   Saturday 10:00 am - 6:00 pm   Sunday 11:00 am - 5:00 pm","latitude":"43.8546084","longitude":"-79.0552478"},{"source":"yellow page","service_name":"Cool Rays Tanning And Spray Tan","category":"tanning","phone":"905-426-9900","address":"596 Kingston Rd W, Ajax, ON L1T 3A2","postalcode":"L1T 3A2","website":" ","working_hour":"","latitude":"43.8546084","longitude":"-79.0552478"},{"source":"yellow page","service_name":"Sol'exotica","category":"tanning","phone":"7057223575","address":"546 Bryne Dr, Barrie, ON L4N 9P6","postalcode":"L4N 9P6","website":" ","working_hour":"","latitude":"44.3282435","longitude":"-79.6884783"},{"source":"yellow page","service_name":"Fabutan Sun Tan Studios","category":"tanning","phone":"705-721-5116","address":"420 Leacock Drive, Barrie, ON L4N 5G5","postalcode":"L4N 5G5","website":" ","working_hour":"","latitude":"44.391435","longitude":"-79.723127"},{"source":"yellow page","service_name":"Pure Nv Tan","category":"tanning","phone":"905-535-8125","address":"24018 Woodbine Ave, Georgina, ON L4P 3E9","postalcode":"L4P 3E9","website":"http://purenvtan.ca","working_hour":"Monday 11:00 am - 8:00 pm   Tuesday 11:00 am - 8:00 pm   Wednesday 11:00 am - 8:00 pm   Thursday 11:00 am - 8:00 pm   Friday 11:00 am - 8:00 pm   Saturday 11:00 am - 5:00 pm   Sunday 12:00 pm - 5:00 pm","latitude":"44.227059","longitude":"-79.447003"},{"source":"yellow page","service_name":"Palm Beach Mega Tan","category":"tanning","phone":"705-792-1979","address":"555 Essa Rd, Barrie, ON L4N 6A9","postalcode":"L4N 6A9","website":"http://www.palmbeachmegatan.com","working_hour":"","latitude":"44.338365","longitude":"-79.7092364"},{"source":"yellow page","service_name":"Cabana Tan","category":"tanning","phone":"905-778-8268","address":"157 Holland St E, Bradford West Gwillimbury, ON L3Z 2B1","postalcode":"L3Z 2B1","website":"http://cabanatanbradford.com","working_hour":"","latitude":"44.1156061","longitude":"-79.5590674"},{"source":"yellow page","service_name":"Extreme Tanning","category":"tanning","phone":"705-739-5151","address":"2-350 Big Bay Point Rd, Barrie, ON L4N 8A8","postalcode":"L4N 8A8","website":"http://www.extremetanning.ca","working_hour":"Monday 8:30 am - 4:30 pm   Tuesday 8:30 am - 4:30 pm   Wednesday 8:30 am - 4:30 pm   Thursday 8:30 am - 4:30 pm   Friday 8:30 am - 4:30 pm","latitude":"44.3543769","longitude":"-79.6598216"},{"source":"yellow page","service_name":"Rosie Cheeks Mobile Spray Tanning & Teeth Whitening","category":"tanning","phone":"7057176732","address":"117 Leggott Ave, Barrie, ON L4N 8W9","postalcode":"L4N 8W9","website":" ","working_hour":"Tuesday 9:00 am - 4:00 pm   Wednesday 9:00 am - 5:00 pm   Thursday 10:00 am - 8:30 pm   Friday 9:00 am - 4:00 pm   Saturday 10:00 am - 2:00 pm   Appointment Only","latitude":"44.3590393","longitude":"-79.6629687"},{"source":"yellow page","service_name":"California Dreams","category":"tanning","phone":"705-325-1555","address":"425 West St N, Orillia, ON L3V 7R2","postalcode":"L3V 7R2","website":"http://californiadreams.salonpages.ca","working_hour":"","latitude":"44.6226992","longitude":"-79.4316518"},{"source":"yellow page","service_name":"Organic Tan Barrie Orillia","category":"tanning","phone":"705-816-4569","address":"23 Alexander Dr, Orillia, ON L3V 5L9","postalcode":"L3V 5L9","website":"http://barrie.organictan.ca/","working_hour":"Appointment Only   Please Call For Details And Appointments","latitude":"44.622902","longitude":"-79.435838"},{"source":"yellow page","service_name":"Beverly Hills Tanning Centre","category":"tanning","phone":"705-722-3575","address":"546 Bryne Dr, Barrie, ON L4N 9P6","postalcode":"L4N 9P6","website":" ","working_hour":"","latitude":"44.3282435","longitude":"-79.6884783"},{"source":"yellow page","service_name":"Bronze Sensations","category":"tanning","phone":"705-719-7700","address":"D 144 Burton Av, Barrie, ON L4N 2R8","postalcode":"L4N 2R8","website":" ","working_hour":"Monday 9:00 am - 9:00 pm   Tuesday 9:00 am - 9:00 pm   Wednesday 9:00 am - 9:00 pm   Thursday 9:00 am - 9:00 pm   Friday 9:00 am - 9:00 pm   Saturday 10:00 am - 6:00 pm   Sunday 10:00 am - 4:00 pm","latitude":"44.371159","longitude":"-79.683094"},{"source":"yellow page","service_name":"Galaxy Nails Tanning","category":"tanning","phone":"7055035807","address":"636 Yonge St, Barrie, ON L4N 4E6","postalcode":"L4N 4E6","website":" ","working_hour":"","latitude":"44.3560153","longitude":"-79.6453383"},{"source":"yellow page","service_name":"Fabutan Sun Tan Studios","category":"tanning","phone":"705-792-5252","address":"477 Grove St East, Barrie, ON L4M 6M3","postalcode":"L4M 6M3","website":" ","working_hour":"","latitude":"44.4053107","longitude":"-79.6560256"},{"source":"yellow page","service_name":"Beach Bodies","category":"tanning","phone":"705-300-7519","address":"438 West St N, Orillia, ON L3V 5E8","postalcode":"L3V 5E8","website":" ","working_hour":"Monday 9:00 am - 8:00 pm   Tuesday 9:00 am - 8:00 pm   Wednesday 9:00 am - 8:00 pm   Thursday 9:00 am - 8:00 pm   Friday 9:00 am - 7:00 pm   Saturday 9:00 am - 3:00 pm   Seasonal Sundays (January To End Of March) - 11am To 3 Pm","latitude":"44.6238055","longitude":"-79.4325285"},{"source":"yellow page","service_name":"Avaia Salon Spa & Tanning Studio","category":"tanning","phone":"7055583514","address":"9 Front St S, Orillia, ON L3V 4S1","postalcode":"L3V 4S1","website":" ","working_hour":"Monday 9:00 am - 5:00 pm   Tuesday 9:00 am - 5:00 pm   Wednesday 9:00 am - 5:00 pm   Thursday 9:00 am - 5:00 pm   Friday 9:00 am - 5:00 pm   Saturday 9:00 am - 4:00 pm   Appointments Available, Not Required","latitude":"44.609975","longitude":"-79.414337"},{"source":"yellow page","service_name":"The Sun Emporium","category":"tanning","phone":"705-733-2227","address":"10-181 Livingstone St E, Barrie, ON L4N 7J7","postalcode":"L4N 7J7","website":" ","working_hour":"","latitude":"44.4184694","longitude":"-79.6952621"},{"source":"yellow page","service_name":"Adam & Eve Tanning Tattooing & Piercing","category":"tanning","phone":"705-436-2826","address":"11-1070 Innisfil Beach Rd, Innisfil, ON L9S 4T9","postalcode":"L9S 4T9","website":"http://www.adamevetanning.com","working_hour":"","latitude":"44.313637","longitude":"-79.55375"},{"source":"yellow page","service_name":"Tanning Place Ltd","category":"tanning","phone":"905-830-9199","address":"17080 Bathurst St, Newmarket, ON L3X 3A5","postalcode":"L3X 3A5","website":" ","working_hour":"","latitude":"44.0393407","longitude":"-79.5018696"},{"source":"yellow page","service_name":"Second Sun Tanning Studios","category":"tanning","phone":"905-853-8861","address":"17480 Yonge St, Newmarket, ON L3Y 8A7","postalcode":"L3Y 8A7","website":" ","working_hour":"","latitude":"44.053795","longitude":"-79.480176"},{"source":"yellow page","service_name":"Synergy Tanning","category":"tanning","phone":"905-713-2100","address":"297 Wellington St E, Aurora, ON L4G 6K9","postalcode":"L4G 6K9","website":" ","working_hour":"","latitude":"44.0035155","longitude":"-79.4498567"},{"source":"yellow page","service_name":"The Sunroom","category":"tanning","phone":"905-939-0700","address":"17250 Hwy 27, Schomberg, ON L0G 1T0","postalcode":"L0G 1T0","website":" ","working_hour":"","latitude":"44.005781","longitude":"-79.6773207"},{"source":"yellow page","service_name":"Planet Sun Tanning Centres","category":"tanning","phone":"905-830-9777","address":"16640 Yonge St, Unit 11, Newmarket, ON L3X 2N8","postalcode":"L3X 2N8","website":" ","working_hour":"Monday 9:00 am - 9:00 pm   Tuesday 9:00 am - 9:00 pm   Wednesday 9:00 am - 9:00 pm   Thursday 9:00 am - 9:00 pm   Friday 9:00 am - 9:00 pm   Saturday 10:00 am - 5:00 pm   Sunday 12:00 pm - 5:00 pm","latitude":"44.034239","longitude":"-79.475648"},{"source":"yellow page","service_name":"Blaze Tanning Studio","category":"tanning","phone":"905-758-0168","address":"ON","postalcode":"","website":" ","working_hour":"","latitude":"","longitude":""},{"source":"yellow page","service_name":"Sol Exotica Tanning And Spa","category":"tanning","phone":"905-713-1077","address":"150 Hollidge Bl, Aurora, ON L4G 8A3","postalcode":"L4G 8A3","website":" ","working_hour":"","latitude":"44.012488","longitude":"-79.447013"},{"source":"yellow page","service_name":"Bronzeado Tanning Salon","category":"tanning","phone":"9055512409","address":"8-450 Holland St W, Bradford, ON L3Z 0G1","postalcode":"L3Z 0G1","website":" ","working_hour":"","latitude":"44.109497","longitude":"-79.5858219"},{"source":"yellow page","service_name":"Planet Sun Tanning Centres","category":"tanning","phone":"905-715-7797","address":"1111 Davis Dr. Unit 22, Newmarket, ON L3Y 8X2","postalcode":"L3Y 8X2","website":"http://www.planetsun.ca","working_hour":"Monday 10:00 am - 9:00 pm   Tuesday 10:00 am - 9:00 pm   Wednesday 10:00 am - 9:00 pm   Thursday 10:00 am - 9:00 pm   Friday 10:00 am - 9:00 pm   Saturday 10:00 am - 5:00 pm   Sunday 12:00 pm - 5:00 pm","latitude":"44.065971","longitude":"-79.431348"},{"source":"yellow page","service_name":"Sturgeon Zach","category":"tanning","phone":"905-252-9448","address":"ON","postalcode":"","website":" ","working_hour":"","latitude":"","longitude":""},{"source":"yellow page","service_name":"Monaco Sun Organic Spray Tan Inc","category":"tanning","phone":"905-761-7174","address":"207 Edgeley Blvd, Concord, ON L4K 4B5","postalcode":"L4K 4B5","website":"http://www.monacosun.ca","working_hour":"Wednesday 10:00 am - 7:00 pm   Thursday 10:00 am - 7:00 pm   Friday 10:00 am - 7:00 pm   Saturday 10:00 am - 3:00 pm   Appointment Only On Tuesday","latitude":"43.797672","longitude":"-79.53298"},{"source":"yellow page","service_name":"Urban Sun Tanning Gallery","category":"tanning","phone":"9058500237","address":"7540 Weston Rd, Woodbridge, ON L4L 9L9","postalcode":"L4L 9L9","website":" ","working_hour":"Monday 9:00 am - 10:00 pm   Tuesday 9:00 am - 10:00 pm   Wednesday 9:00 am - 10:00 pm   Thursday 9:00 am - 10:00 pm   Friday 9:00 am - 9:00 pm   Saturday 9:00 am - 8:00 pm   Sunday 10:00 am - 6:00 pm","latitude":"43.786577","longitude":"-79.546962"},{"source":"yellow page","service_name":"Selfish Beauty Lounge","category":"tanning","phone":"905-850-5899","address":"200 Marycroft, Woodbridge, ON L4L 5X5","postalcode":"L4L 5X5","website":"http://www.selfishbeautylounge.com","working_hour":"Monday 10:00 am - 7:00 pm   Tuesday 10:00 am - 7:00 pm   Wednesday 10:00 am - 7:00 pm   Thursday 10:00 am - 7:00 pm   Friday 10:00 am - 7:00 pm   Saturday 10:00 am - 5:00 pm","latitude":"43.784702","longitude":"-79.566413"},{"source":"yellow page","service_name":"Club De Soleil Tanning Salon","category":"tanning","phone":"416-633-6222","address":"1077 Wilson Ave, North York, ON M3K 1G7","postalcode":"M3K 1G7","website":" ","working_hour":"Monday 11:00 am - 8:00 pm   Tuesday 11:00 am - 8:00 pm   Wednesday 11:00 am - 8:00 pm   Thursday 11:00 am - 8:00 pm   Friday 11:00 am - 8:00 pm   Saturday 11:00 am - 6:00 pm   Sunday 11:00 am - 4:00 pm","latitude":"43.727053","longitude":"-79.480912"},{"source":"yellow page","service_name":"Raydiance Sunlight Centre And Spa","category":"tanning","phone":"905-265-8806","address":"200 Whitmore Rd, Woodbridge, ON L4L 7K4","postalcode":"L4L 7K4","website":" ","working_hour":"Monday 9:30 am - 9:00 pm   Tuesday 9:30 am - 9:00 pm   Wednesday 9:30 am - 9:00 pm   Thursday 9:30 am - 9:00 pm   Friday 9:30 am - 9:00 pm   Saturday 10:00 am - 6:00 pm   Sunday 11:00 am - 5:00 pm","latitude":"43.7861621","longitude":"-79.5557484"},{"source":"yellow page","service_name":"Suntouch Tanning Studio","category":"tanning","phone":"905-709-4114","address":"8707 Dufferin St, Vaughan, ON L4J 0A6","postalcode":"L4J 0A6","website":"http://suntouch.ca","working_hour":"Monday 9:00 am - 9:00 pm   Tuesday 9:00 am - 9:00 pm   Wednesday 9:00 am - 9:00 pm   Thursday 9:00 am - 9:00 pm   Friday 9:00 am - 9:00 pm   Saturday 10:00 am - 6:00 pm   Sunday 10:00 am - 5:00 pm","latitude":"43.828422","longitude":"-79.479668"},{"source":"yellow page","service_name":"Coconut Tanning","category":"tanning","phone":"6473411133","address":"1280 Finch Ave W, North York, ON M3J 3K6","postalcode":"M3J 3K6","website":" ","working_hour":"","latitude":"43.764061","longitude":"-79.488439"},{"source":"yellow page","service_name":"Sunshine Tanning","category":"tanning","phone":"905-762-1119","address":"1118 Centre St, Vaughan, ON","postalcode":"","website":" ","working_hour":"","latitude":"43.808578","longitude":"-79.461102"},{"source":"yellow page","service_name":"Oasis Sun","category":"tanning","phone":"9052640336","address":"7887 Weston Rd, Woodbridge, ON L4L 1A6","postalcode":"L4L 1A6","website":" ","working_hour":"","latitude":"43.792104","longitude":"-79.548077"},{"source":"yellow page","service_name":"Tropical Island Tanning & Toning","category":"tanning","phone":"4162413543","address":"1593 Wilson Ave, North York, ON M3L 1A5","postalcode":"M3L 1A5","website":" ","working_hour":"","latitude":"43.720414","longitude":"-79.51093"},{"source":"yellow page","service_name":"Tanlicious Tan & Laser Clinic","category":"tanning","phone":"416-633-6468","address":"1B-897 Sheppard Ave W, North York, ON M3H 2T4","postalcode":"M3H 2T4","website":"http://tanlicioustan.com","working_hour":"Monday 7:00 am - 10:00 pm   Tuesday 7:00 am - 10:00 pm   Wednesday 7:00 am - 10:00 pm   Thursday 7:00 am - 10:00 pm   Friday 7:00 am - 10:00 pm   Saturday 8:00 am - 10:00 pm   Sunday 9:00 am - 9:00 pm","latitude":"43.75196","longitude":"-79.455317"},{"source":"yellow page","service_name":"Platinum Tanning Studios","category":"tanning","phone":"416-638-1427","address":"423 Wilson Ave, Toronto, ON M3H 1T5","postalcode":"M3H 1T5","website":"http://platinumtanning.ca","working_hour":"Monday 10:00 am - 9:00 pm   Tuesday 10:00 am - 9:00 pm   Wednesday 10:00 am - 9:00 pm   Thursday 10:00 am - 9:00 pm   Friday 10:00 am - 9:00 pm   Saturday 10:00 am - 6:00 pm   Sunday 12:00 pm - 5:00 pm","latitude":"43.7360838","longitude":"-79.4401882"},{"source":"yellow page","service_name":"Renaissance Sun Tanning Studio Inc","category":"tanning","phone":"905-856-1523","address":"8383 Weston Rd, Woodbridge, ON L4L 1A6","postalcode":"L4L 1A6","website":" ","working_hour":"Monday 8:00 am - 5:00 pm   Tuesday 8:00 am - 5:00 pm   Wednesday 8:00 am - 5:00 pm   Thursday 8:00 am - 5:00 pm   Friday 8:00 am - 5:00 pm","latitude":"43.806192","longitude":"-79.551372"},{"source":"yellow page","service_name":"Ozone","category":"tanning","phone":"6474305991","address":"1625 Wilson Ave, North York, ON M3L 1A5","postalcode":"M3L 1A5","website":" ","working_hour":"","latitude":"43.7201324","longitude":"-79.5121184"},{"source":"yellow page","service_name":"Tropical Island Tanning","category":"tanning","phone":"4162413544","address":"1593 Wilson Ave, North York, ON M3L 1A5","postalcode":"M3L 1A5","website":" ","working_hour":"","latitude":"43.720414","longitude":"-79.51093"},{"source":"yellow page","service_name":"Sunvibes Tanning Studio","category":"tanning","phone":"905-264-9544","address":"8633 Weston Rd, Vaughan, ON L4L 1A6","postalcode":"L4L 1A6","website":"http://www.sunvibestanning.com","working_hour":"","latitude":"43.812058","longitude":"-79.552771"},{"source":"yellow page","service_name":"Eternal Tan","category":"tanning","phone":"416-633-1044","address":"899B Sheppard Ave W, North York, ON M3H 2T4","postalcode":"M3H 2T4","website":"http://ww42.eternaltanning.com/?kw=jobs","working_hour":"Monday 8:00 am - 5:00 pm   Tuesday 8:00 am - 5:00 pm   Wednesday 8:00 am - 5:00 pm   Thursday 8:00 am - 5:00 pm   Friday 8:00 am - 5:00 pm   Call For Details: Sunday, Saturday.","latitude":"43.751897","longitude":"-79.455602"},{"source":"yellow page","service_name":"Synergy Tanning Studios Inc","category":"tanning","phone":"416-913-3334","address":"1593 Wilson Ave, North York, ON M3L 1A5","postalcode":"M3L 1A5","website":" ","working_hour":"","latitude":"43.720414","longitude":"-79.51093"},{"source":"yellow page","service_name":"Grid Company Ltd","category":"tanning","phone":"9058508842","address":"60 Vinyl Crt, Woodbridge, ON L4L 4A3","postalcode":"L4L 4A3","website":"http://www.certainteed.com","working_hour":"","latitude":"43.767531","longitude":"-79.57054"},{"source":"yellow page","service_name":"Tan-Trum Tanning Salon","category":"tanning","phone":"705-526-9617","address":"9225 County Road 93, Lafontaine, ON L4R 4K4","postalcode":"L4R 4K4","website":" ","working_hour":"","latitude":"44.732906","longitude":"-79.910377"},{"source":"yellow page","service_name":"Sun Kiss Tanning Studio","category":"tanning","phone":"705-681-0576","address":"685 Muskoka Rd N, Gravenhurst, ON P1P 1N5","postalcode":"P1P 1N5","website":" ","working_hour":"Monday 11:00 am - 6:00 pm   Tuesday 11:00 am - 6:00 pm   Wednesday 11:00 am - 6:00 pm   Thursday 11:00 am - 6:00 pm   Friday 11:00 am - 6:00 pm   Saturday 11:00 am - 3:00 pm   Sunday 11:00 am - 3:00 pm","latitude":"44.9249943","longitude":"-79.376293"},{"source":"yellow page","service_name":"Coastal Rays Tanning","category":"tanning","phone":"705-528-8267","address":"788 Yonge St, Midland, ON L4R 2E6","postalcode":"L4R 2E6","website":"http://www.penetang.com/mobile/coastalrays","working_hour":"","latitude":"44.741603","longitude":"-79.895367"},{"source":"yellow page","service_name":"Bronze Xpress Mobile Spray Tanning","category":"tanning","phone":"7053050112","address":"ON","postalcode":"","website":" ","working_hour":"","latitude":"43.651893","longitude":"-79.381713"},{"source":"yellow page","service_name":"Purity Esthetics And Tanning","category":"tanning","phone":"705-516-1230","address":"162 Mill St, Angus, ON L0M 1B2","postalcode":"L0M 1B2","website":" ","working_hour":"","latitude":"44.326295","longitude":"-79.883294"},{"source":"yellow page","service_name":"Rosie Cheeks Mobile Spray Tanning","category":"tanning","phone":"705-717-6732","address":"BARRIE","postalcode":"","website":" ","working_hour":"","latitude":"","longitude":""},{"source":"yellow page","service_name":"Extreme Tanning","category":"tanning","phone":"705-792-4509","address":"ON","postalcode":"","website":" ","working_hour":"","latitude":"","longitude":""},{"source":"yellow page","service_name":"Tanfastic","category":"tanning","phone":"519-942-8150","address":"121 First St, Orangeville, ON L9W 3J8","postalcode":"L9W 3J8","website":" ","working_hour":"","latitude":"43.930335","longitude":"-80.099342"},{"source":"yellow page","service_name":"Labella Sole Tanning Lounge","category":"tanning","phone":"905-857-5116","address":"12788 Hwy 50, Bolton, ON L7E 4G1","postalcode":"L7E 4G1","website":" ","working_hour":"","latitude":"43.864064","longitude":"-79.7167241"},{"source":"yellow page","service_name":"Head 2 Toe Boutique & Tanning","category":"tanning","phone":"519-787-7083","address":"181 St Andrew St E, Fergus, ON N1M 1P9","postalcode":"N1M 1P9","website":" ","working_hour":"","latitude":"43.70683","longitude":"-80.376785"},{"source":"yellow page","service_name":"Oasis Tanning & Esthetics","category":"tanning","phone":"519-925-9900","address":"526 Main St E, Shelburne, ON L9V 2Z2","postalcode":"L9V 2Z2","website":"http://www.oasis-spa.ca","working_hour":"Monday 10:00 am - 8:00 pm   Tuesday 10:00 am - 8:00 pm   Wednesday 10:00 am - 8:00 pm   Thursday 10:00 am - 8:00 pm   Friday 10:00 am - 8:00 pm   Saturday 10:00 am - 5:00 pm   Sunday 11:00 am - 3:00 pm","latitude":"44.080548","longitude":"-80.195099"},{"source":"yellow page","service_name":"Siesta Sun Spa Inc","category":"tanning","phone":"705-429-7474","address":"30 46th St N, Wasaga Beach, ON L9Z 1Y7","postalcode":"L9Z 1Y7","website":"http://tanningwasagabeach.com","working_hour":"Tuesday 10:00 am - 7:00 pm   Wednesday 10:00 am - 7:00 pm   Thursday 10:00 am - 7:00 pm   Friday 10:00 am - 6:00 pm   Saturday 10:00 am - 2:00 pm","latitude":"44.4767668","longitude":"-80.0785648"},{"source":"yellow page","service_name":"Hot Body Tanning","category":"tanning","phone":"226-383-8383","address":"170 Tower St N, Fergus, ON N1M 2N5","postalcode":"N1M 2N5","website":" ","working_hour":"","latitude":"43.703876","longitude":"-80.380026"},{"source":"yellow page","service_name":"Mountain Fitness","category":"tanning","phone":"705-444-6851","address":"1 First St, Collingwood, ON L9Y 1A1","postalcode":"L9Y 1A1","website":" ","working_hour":"","latitude":"44.502767","longitude":"-80.218165"},{"source":"yellow page","service_name":"Sol Revival Tanning Inc","category":"tanning","phone":"9059518266","address":"55 Healey, Caledon, ON L7E 5A2","postalcode":"L7E 5A2","website":" ","working_hour":"","latitude":"43.8632741","longitude":"-79.7173511"},{"source":"yellow page","service_name":"Classic Tan","category":"tanning","phone":"519-787-3272","address":"735 Tower St S, Fergus, ON N1M 2R2","postalcode":"N1M 2R2","website":" ","working_hour":"Monday 10:00 am - 9:00 pm   Tuesday 10:00 am - 9:00 pm   Wednesday 10:00 am - 9:00 pm   Thursday 10:00 am - 9:00 pm   Friday 10:00 am - 8:00 pm   Saturday 10:00 am - 6:00 pm","latitude":"43.698626","longitude":"-80.371213"},{"source":"yellow page","service_name":"Tan-Tations","category":"tanning","phone":"519-942-4449","address":"502 Riddell Rd, Orangeville, ON L9W 5L1","postalcode":"L9W 5L1","website":" ","working_hour":"Monday 10:00 am - 9:00 pm   Tuesday 10:00 am - 9:00 pm   Wednesday 10:00 am - 9:00 pm   Thursday 10:00 am - 9:00 pm   Friday 10:00 am - 9:00 pm   Saturday 10:00 am - 6:00 pm   Sunday 10:00 am - 4:00 pm","latitude":"43.9093453","longitude":"-80.1384069"},{"source":"yellow page","service_name":"White Tanning Co","category":"tanning","phone":"519-856-4240","address":"5153 Eramosa-Erin Townline, Rockwood, ON N0B 2K0","postalcode":"N0B 2K0","website":" ","working_hour":"Monday 7:00 am - 5:00 pm   Tuesday 7:00 am - 5:00 pm   Wednesday 7:00 am - 5:00 pm   Thursday 7:00 am - 5:00 pm   Friday 7:00 am - 5:00 pm","latitude":"43.653106","longitude":"-80.1201385"},{"source":"yellow page","service_name":"Blue Rock Tanning","category":"tanning","phone":"705-293-4455","address":"3-20 Balsam St, Collingwood, ON L9Y 4H7","postalcode":"L9Y 4H7","website":" ","working_hour":"","latitude":"44.504269","longitude":"-80.235181"},{"source":"yellow page","service_name":"MS.tique Spa, Laser Clinic & Tanning Salon","category":"tanning","phone":"705-445-0089","address":"43 Hurontario St, Collingwood, ON L9Y 2L7","postalcode":"L9Y 2L7","website":" ","working_hour":"Monday 9:30 am - 6:00 pm   Tuesday 9:30 am - 6:00 pm   Wednesday 9:30 am - 6:00 pm   Thursday 9:30 am - 6:00 pm   Friday 9:30 am - 6:00 pm   Saturday 9:30 am - 5:00 pm   Sunday 11:00 am - 3:00 pm   Sundays By Appointment","latitude":"44.501824","longitude":"-80.217212"},{"source":"yellow page","service_name":"Orangeville Sun Beach Tanning","category":"tanning","phone":"519-940-4240","address":"280 Broadway Ave, Orangeville, ON L9W 1L1","postalcode":"L9W 1L1","website":" ","working_hour":"Monday 10:00 am - 9:00 pm   Tuesday 10:00 am - 9:00 pm   Wednesday 10:00 am - 9:00 pm   Thursday 10:00 am - 9:00 pm   Friday 10:00 am - 9:00 pm   Saturday 10:00 am - 6:00 pm   Sunday 11:00 am - 5:00 pm","latitude":"43.917279","longitude":"-80.106409"},{"source":"yellow page","service_name":"Prima Tan Inc","category":"tanning","phone":"905-633-6890","address":"645 Plains Rd E, Burlington, ON L7T 4J5","postalcode":"L7T 4J5","website":"http://www.primatan.com","working_hour":"Monday 10:00 am - 9:00 pm   Tuesday 10:00 am - 9:00 pm   Wednesday 10:00 am - 9:00 pm   Thursday 10:00 am - 9:00 pm   Friday 10:00 am - 9:00 pm   Saturday 10:00 am - 6:00 pm","latitude":"43.322668","longitude":"-79.831463"},{"source":"yellow page","service_name":"Sunvision Swimwear Tanning Centre","category":"tanning","phone":"9056907866","address":"11 B 32 Hamilton N, Waterdown, ON L0R 2H0","postalcode":"L0R 2H0","website":" ","working_hour":"Monday 9:30 am - 8:30 pm   Tuesday 9:30 am - 8:30 pm   Wednesday 9:30 am - 8:30 pm   Thursday 9:30 am - 8:30 pm   Friday 9:30 am - 8:30 pm   Saturday 10:00 am - 5:00 pm","latitude":"43.334716","longitude":"-79.894954"},{"source":"yellow page","service_name":"Banana Joe's Tanning Salon","category":"tanning","phone":"9053408267","address":"417 Guelph Line, Burlington, ON L7R 3L7","postalcode":"L7R 3L7","website":" ","working_hour":"","latitude":"43.3376405","longitude":"-79.7842491"},{"source":"yellow page","service_name":"Millennium ICE Canada","category":"tanning","phone":"8009192796","address":"1179 Northside Rd, Burlington, ON L7M 1H5","postalcode":"L7M 1H5","website":"http://www.millenniumice.ca","working_hour":"Monday 9:00 am - 5:00 pm   Tuesday 9:00 am - 5:00 pm   Wednesday 9:00 am - 5:00 pm   Thursday 9:00 am - 5:00 pm   Friday 9:00 am - 5:00 pm   Saturday 9:00 am - 5:00 pm   Sunday 9:00 am - 5:00 pm","latitude":"43.360368","longitude":"-79.805309"},{"source":"yellow page","service_name":"Beachin' Tan","category":"tanning","phone":"905-689-9999","address":"94 Dundas E B9, Waterdown, ON L0R 2H2","postalcode":"L0R 2H2","website":" ","working_hour":"Monday 10:00 am - 9:00 pm   Tuesday 10:00 am - 9:00 pm   Wednesday 10:00 am - 9:00 pm   Thursday 10:00 am - 9:00 pm   Friday 10:00 am - 9:00 pm   Saturday 10:00 am - 6:00 pm   Sunday 11:00 am - 5:00 pm","latitude":"43.310117","longitude":"-80.076875"},{"source":"yellow page","service_name":"Venus Tanning Resort","category":"tanning","phone":"905-632-1826","address":"10B-1035 Brant St, Burlington, ON L7R 4X6","postalcode":"L7R 4X6","website":"http://www.venustanning.ca","working_hour":"Monday 10:00 am - 9:00 pm   Tuesday 10:00 am - 9:00 pm   Wednesday 10:00 am - 9:00 pm   Thursday 10:00 am - 9:00 pm   Friday 10:00 am - 9:00 pm   Saturday 10:00 am - 6:00 pm   Sunday 11:00 am - 5:00 pm","latitude":"43.33893","longitude":"-79.818349"},{"source":"yellow page","service_name":"Tan Your Hide","category":"tanning","phone":"9053199220","address":"1505 Guelph Line, Burlington, ON L7P 3B6","postalcode":"L7P 3B6","website":" ","working_hour":"Monday 10:00 am - 8:00 pm   Tuesday 10:00 am - 8:00 pm   Wednesday 10:00 am - 8:00 pm   Thursday 10:00 am - 8:00 pm   Friday 10:00 am - 8:00 pm   Saturday 10:00 am - 5:00 pm   Yes","latitude":"43.363733","longitude":"-79.820243"},{"source":"yellow page","service_name":"Sunkist Tan","category":"tanning","phone":"905-631-8004","address":"110-676 Appleby Line, Burlington, ON L7L 5Y1","postalcode":"L7L 5Y1","website":" ","working_hour":"Monday 10:00 am - 9:00 pm   Tuesday 10:00 am - 9:00 pm   Wednesday 10:00 am - 9:00 pm   Thursday 10:00 am - 9:00 pm   Friday 10:00 am - 9:00 pm   Saturday 10:00 am - 5:00 pm   Sunday 10:00 am - 6:00 pm","latitude":"43.3730294","longitude":"-79.7615731"},{"source":"yellow page","service_name":"Extreme Tan","category":"tanning","phone":"905-203-0657","address":"840 Main St E, Milton, ON L9T 0J4","postalcode":"L9T 0J4","website":"http://www.extremetan.ca","working_hour":"","latitude":"43.527112","longitude":"-79.867249"},{"source":"yellow page","service_name":"Sun Haven Tanning","category":"tanning","phone":"905-878-2324","address":"550 Ontario St S, Milton, ON L9T 5E4","postalcode":"L9T 5E4","website":"http://www.sunhaventanning.com","working_hour":"Monday 9:00 am - 9:00 pm   Tuesday 9:00 am - 9:00 pm   Wednesday 9:00 am - 9:00 pm   Thursday 9:00 am - 9:00 pm   Friday 9:00 am - 9:00 pm   Saturday 9:00 am - 6:00 pm   Sunday 10:00 am - 5:00 pm","latitude":"43.507023","longitude":"-79.862236"},{"source":"yellow page","service_name":"Vivid Tanning Studio Inc","category":"tanning","phone":"705-435-5660","address":"86 Young St, Alliston, ON L9R 1P8","postalcode":"L9R 1P8","website":" ","working_hour":"Monday 10:00 am - 9:00 pm   Tuesday 10:00 am - 9:00 pm   Wednesday 10:00 am - 9:00 pm   Thursday 10:00 am - 9:00 pm   Friday 10:00 am - 9:00 pm   Saturday 11:00 am - 4:00 pm   Sunday 10:00 am - 4:00 pm","latitude":"44.1483803","longitude":"-79.8818989"},{"source":"yellow page","service_name":"Bronze Beach","category":"tanning","phone":"905-633-4826","address":"814 Brant St, Burlington, ON L7R 2J5","postalcode":"L7R 2J5","website":"http://bronzebeachstudio.com/","working_hour":"Monday 11:00 am - 8:00 pm   Tuesday 11:00 am - 8:00 pm   Wednesday 11:00 am - 8:00 pm   Thursday 11:00 am - 8:00 pm   Friday 11:00 am - 8:00 pm   Saturday 12:00 pm - 5:00 pm   Sunday 12:00 pm - 3:00 pm   $7 Tan All Day Saturday!","latitude":"43.334288","longitude":"-79.810372"},{"source":"yellow page","service_name":"Sun Haven Tanning","category":"tanning","phone":"905-335-5050","address":"3505 Upper Middle Rd, Burlington, ON L7M 4C6","postalcode":"L7M 4C6","website":"http://www.sunhaventanning.com","working_hour":"Monday 9:00 am - 9:00 pm   Tuesday 9:00 am - 9:00 pm   Wednesday 9:00 am - 9:00 pm   Thursday 9:00 am - 9:00 pm   Friday 9:00 am - 9:00 pm   Saturday 9:00 am - 6:00 pm   Sunday 10:00 am - 5:00 pm","latitude":"43.378196","longitude":"-79.807246"},{"source":"yellow page","service_name":"Sol'exotica Tanning Spa","category":"tanning","phone":"2893371826","address":"645 Plains Rd E, Burlington, ON L7T 4J5","postalcode":"L7T 4J5","website":" ","working_hour":"Monday 9:00 am - 10:00 pm   Tuesday 9:00 am - 10:00 pm   Wednesday 9:00 am - 10:00 pm   Thursday 9:00 am - 10:00 pm   Friday 9:00 am - 10:00 pm   Saturday 9:00 am - 6:00 pm   Sunday 10:00 am - 4:00 pm","latitude":"43.322668","longitude":"-79.831463"},{"source":"yellow page","service_name":"Gerri's Beauty Salon","category":"tanning","phone":"519-323-4795","address":"480 Waterloo St SS 3, Mount Forest, ON N0G 2L3","postalcode":"N0G 2L3","website":" ","working_hour":"Tuesday 9:00 am - 8:00 pm   Wednesday 9:00 am - 8:00 pm   Friday 9:00 am - 6:00 pm   Saturday 9:00 am - 2:00 pm","latitude":"43.976947","longitude":"-80.736851"},{"source":"yellow page","service_name":"Midnight Sun Burlington","category":"tanning","phone":"289-812-2078","address":"3455 Fairview St, Burlington, ON L7N 2R4","postalcode":"L7N 2R4","website":" ","working_hour":"Monday 9:00 am - 10:00 pm   Tuesday 9:00 am - 10:00 pm   Wednesday 9:00 am - 10:00 pm   Thursday 9:00 am - 10:00 pm   Friday 9:00 am - 10:00 pm   Saturday 9:00 am - 6:00 pm   Sunday 10:00 am - 5:00 pm   Open Every Holiday, Except Xmas & New Year's Day","latitude":"43.357381","longitude":"-79.782142"},{"source":"yellow page","service_name":"Island Heat Tanning Centres","category":"tanning","phone":"905-994-7866","address":"ON","postalcode":"","website":"http://www.islandheattanning.com","working_hour":"Monday 7:00 pm - 7:00 am   Tuesday 7:00 pm - 7:00 am   Wednesday 7:00 pm - 7:00 am   Thursday 7:00 pm - 7:00 am   Friday 7:00 pm - 7:00 am","latitude":"","longitude":""},{"source":"yellow page","service_name":"Glo Niagara Tanning Centre","category":"tanning","phone":"905-371-3525","address":"10-4465 Drummond Rd, Niagara Falls, ON L2E 6C5","postalcode":"L2E 6C5","website":"http://www.gloniagaratanning.com/","working_hour":"","latitude":"43.109282","longitude":"-79.098677"},{"source":"yellow page","service_name":"Tan Arama","category":"tanning","phone":"905-371-3332","address":"8214 Lundy's Lane, Niagara Falls, ON L2H 1H1","postalcode":"L2H 1H1","website":" ","working_hour":"Monday 9:00 am - 9:30 pm   Tuesday 9:00 am - 9:30 pm   Wednesday 9:00 am - 9:30 pm   Thursday 9:00 am - 9:30 pm   Friday 9:00 am - 9:30 pm   Saturday 9:00 am - 7:00 pm   Sunday 1:00 pm - 6:00 pm","latitude":"43.088805","longitude":"-79.135507"},{"source":"yellow page","service_name":"Paradise TAN","category":"tanning","phone":"905-387-8266","address":"930 Upper Paradise Rd, Hamilton, ON L9B 2N1","postalcode":"L9B 2N1","website":"http://www.paradisetan.ca","working_hour":"Monday 10:00 am - 9:00 pm   Tuesday 10:00 am - 9:00 pm   Wednesday 10:00 am - 9:00 pm   Thursday 10:00 am - 9:00 pm   Friday 10:00 am - 9:00 pm   Saturday 10:00 am - 5:00 pm   Sunday 10:00 am - 5:00 pm","latitude":"43.2175583","longitude":"-79.9188659"},{"source":"yellow page","service_name":"Me Time Tanning","category":"tanning","phone":"2893622173","address":"130 Hartzel Rd, St Catharines, ON L2P 1N7","postalcode":"L2P 1N7","website":"http://www.metimetanning.com/","working_hour":"Monday 10:00 am - 9:00 pm   Tuesday 10:00 am - 9:00 pm   Wednesday 10:00 am - 9:00 pm   Thursday 10:00 am - 9:00 pm   Friday 10:00 am - 9:00 pm   Saturday 10:00 am - 8:00 pm   Sunday 10:00 am - 8:00 pm","latitude":"43.149658","longitude":"-79.214272"},{"source":"yellow page","service_name":"Siesta Sun","category":"tanning","phone":"905-685-1222","address":"286 Bunting Rd, St Catharines, ON L2M 7S5","postalcode":"L2M 7S5","website":" ","working_hour":"Monday 10:00 am - 9:00 pm   Tuesday 10:00 am - 9:00 pm   Wednesday 10:00 am - 9:00 pm   Thursday 10:00 am - 9:00 pm   Friday 10:00 am - 9:00 pm   Saturday 10:00 am - 5:00 pm   Sunday 12:00 pm - 4:00 pm","latitude":"43.178269","longitude":"-79.210286"},{"source":"yellow page","service_name":"Bermuda Tanning","category":"tanning","phone":"905-937-7877","address":"7-353 Lake St, St Catharines, ON L2N 7G4","postalcode":"L2N 7G4","website":" ","working_hour":"","latitude":"43.1831486","longitude":"-79.2516402"},{"source":"yellow page","service_name":"Real Beauty Studios","category":"tanning","phone":"289-214-7834","address":"455 Mahogany Blvd SE, Calgary, AB T3M 1Z5","postalcode":"T3M 1Z5","website":" ","working_hour":"","latitude":"50.880637","longitude":"-113.952041"},{"source":"yellow page","service_name":"Island Heat Tanning Centres","category":"tanning","phone":"905-714-7989","address":"30 Rice Rd, Welland, ON L3C 5Y6","postalcode":"L3C 5Y6","website":" ","working_hour":"Monday 9:00 am - 9:00 pm   Tuesday 9:00 am - 9:00 pm   Wednesday 9:00 am - 9:00 pm   Thursday 9:00 am - 9:00 pm   Friday 9:00 am - 9:00 pm   Saturday 9:00 am - 9:00 pm   Sunday 11:00 am - 5:00 pm","latitude":"43.005062","longitude":"-79.2701448"},{"source":"yellow page","service_name":"Brenda Nails & Tanning","category":"tanning","phone":"9059372323","address":"353 Lake St, St Catharines, ON L2N 7G4","postalcode":"L2N 7G4","website":" ","working_hour":"","latitude":"43.1831486","longitude":"-79.2516402"},{"source":"yellow page","service_name":"Malibu Beach Tanning","category":"tanning","phone":"905-358-8110","address":"3969 Montrose Rd, Niagara Falls, ON L2H 3A1","postalcode":"L2H 3A1","website":" ","working_hour":"","latitude":"43.11531","longitude":"-79.124689"},{"source":"yellow page","service_name":"Sunset Tan","category":"tanning","phone":"905-937-2126","address":"353 Lake St, St Catharines, ON L2N 7G4","postalcode":"L2N 7G4","website":" ","working_hour":"","latitude":"43.1831486","longitude":"-79.2516402"},{"source":"yellow page","service_name":"Arizona Tan","category":"tanning","phone":"905-688-9778","address":"210 Glendale Ave, St Catharines, ON L2T 3Y6","postalcode":"L2T 3Y6","website":"http://www.ArizonaTan.info","working_hour":"Monday 9:30 am - 10:00 pm   Tuesday 9:30 am - 10:00 pm   Wednesday 9:30 am - 10:00 pm   Thursday 9:30 am - 10:00 pm   Friday 9:30 am - 10:00 pm   Saturday 10:00 am - 7:00 pm   Sunday 10:00 am - 6:00 pm","latitude":"43.132484","longitude":"-79.226082"},{"source":"yellow page","service_name":"G & M Fitness","category":"tanning","phone":"905-834-0550","address":"251 King St, Port Colborne, ON L3K 4G8","postalcode":"L3K 4G8","website":"http://www.gandmfitness.com","working_hour":"Monday 8:00 am - 9:00 pm   Tuesday 8:00 am - 9:00 pm   Wednesday 8:00 am - 9:00 pm   Thursday 8:00 am - 9:00 pm   Friday 8:00 am - 9:00 pm   Saturday 9:00 am - 4:00 pm   Sunday 9:00 am - 4:00 pm","latitude":"42.8867","longitude":"-79.251415"},{"source":"yellow page","service_name":"Bronze Envy","category":"tanning","phone":"905-227-8880","address":"3-45 Ormond St N, Thorold, ON L2V 1Y9","postalcode":"L2V 1Y9","website":"http://www.bronzeenvy.com/","working_hour":"Monday 10:00 am - 10:00 pm   Tuesday 10:00 am - 10:00 pm   Wednesday 10:00 am - 10:00 pm   Thursday 10:00 am - 10:00 pm   Friday 10:00 am - 8:00 pm","latitude":"43.1280642","longitude":"-79.1991852"},{"source":"yellow page","service_name":"West Coast Tan Studio","category":"tanning","phone":"2893625004","address":"350 Scott St, St Catharines, ON L2N 6T4","postalcode":"L2N 6T4","website":"http://westcoasttans.com/","working_hour":"Monday 11:00 am - 7:00 pm   Tuesday 11:00 am - 7:00 pm   Wednesday 11:00 am - 7:00 pm   Thursday 11:00 am - 7:00 pm   Friday 11:00 am - 7:00 pm   Saturday 10:00 am - 6:00 pm","latitude":"43.187667","longitude":"-79.232655"},{"source":"yellow page","service_name":"Tantalize Tanning","category":"tanning","phone":"2892358046","address":"39 Viking Dr, Grimsby, ON L3M 3V2","postalcode":"L3M 3V2","website":" ","working_hour":"","latitude":"43.205201","longitude":"-79.568091"},{"source":"yellow page","service_name":"Surround Sun Tanning Company","category":"tanning","phone":"905-682-9733","address":"14-111 Fourth Ave, St Catharines, ON L2S 3P5","postalcode":"L2S 3P5","website":"http://surroundsuntanning.com","working_hour":"Monday 10:00 am - 9:00 pm   Tuesday 10:00 am - 9:00 pm   Wednesday 10:00 am - 9:00 pm   Thursday 10:00 am - 9:00 pm   Friday 10:00 am - 8:00 pm   Saturday 10:00 am - 6:00 pm   Sunday 10:00 am - 4:00 pm","latitude":"43.155813","longitude":"-79.262509"},{"source":"yellow page","service_name":"Polished Salon & Spa","category":"tanning","phone":"905-354-8266","address":"7279 Lundy's Lane, Niagara Falls, ON L2G 1W4","postalcode":"L2G 1W4","website":" ","working_hour":"","latitude":"43.089206","longitude":"-79.117395"},{"source":"yellow page","service_name":"Palm Beach Mega Tan","category":"tanning","phone":"905-404-8267","address":"1411 Highway 2, Courtice, ON L1E 2J6","postalcode":"L1E 2J6","website":"http://palmbeachmegatan.com","working_hour":"Monday 9:00 am - 9:00 pm   Tuesday 9:00 am - 9:00 pm   Wednesday 9:00 am - 9:00 pm   Thursday 9:00 am - 9:00 pm   Friday 9:00 am - 9:00 pm   Saturday 9:00 am - 6:00 pm   Sunday 10:00 am - 4:00 pm","latitude":"43.906711","longitude":"-78.811402"},{"source":"yellow page","service_name":"Island Paradise Tanning Salon","category":"tanning","phone":"905-404-1897","address":"555 Simcoe St S, Oshawa, ON L1H 8K8","postalcode":"L1H 8K8","website":" ","working_hour":"","latitude":"43.883235","longitude":"-78.857042"},{"source":"yellow page","service_name":"go with the Glow mobile sunless tanning","category":"tanning","phone":"9054291603","address":"ON","postalcode":"","website":" ","working_hour":"","latitude":"43.651893","longitude":"-79.381713"},{"source":"yellow page","service_name":"Organic Tan","category":"tanning","phone":"9054392724","address":"Clarington, ON","postalcode":"","website":" ","working_hour":"","latitude":"43.651893","longitude":"-79.381713"},{"source":"yellow page","service_name":"Glo 2 Go Mobile Spray Tanning","category":"tanning","phone":"9052433003","address":"Oshawa, ON L1K 2J9","postalcode":"L1K 2J9","website":"http://www.glotogotan.ca","working_hour":"Monday 12:00 am - 11:59 pm   Tuesday 12:00 am - 11:59 pm   Wednesday 12:00 am - 11:59 pm   Thursday 12:00 am - 11:59 pm   Friday 12:00 am - 11:59 pm   Saturday 12:00 am - 11:59 pm   Sunday 12:00 am - 11:59 pm","latitude":"","longitude":""},{"source":"yellow page","service_name":"Mobile Spray Tanning","category":"tanning","phone":"9054047869","address":"ON","postalcode":"","website":" ","working_hour":"","latitude":"43.651893","longitude":"-79.381713"},{"source":"yellow page","service_name":"Sugar Coated Skin Mobile Spray Tanning","category":"tanning","phone":"905-429-0712","address":"ON","postalcode":"","website":" ","working_hour":"","latitude":"","longitude":""},{"source":"yellow page","service_name":"Aztec Tanning Studios","category":"tanning","phone":"416-282-6251","address":"91 Rylander Blvd, Scarborough, ON M1B 5M5","postalcode":"M1B 5M5","website":" ","working_hour":"Monday 10:00 am - 9:00 pm   Tuesday 10:00 am - 9:00 pm   Wednesday 10:00 am - 9:00 pm   Thursday 10:00 am - 9:00 pm   Friday 10:00 am - 9:00 pm   Saturday 10:00 am - 6:00 pm   Sunday 11:00 am - 5:00 pm","latitude":"43.797919","longitude":"-79.152666"},{"source":"yellow page","service_name":"Synergy Tanning Studio & Sunless Spa","category":"tanning","phone":"905-642-8550","address":"28 Sandiford Dr, Stouffville, ON L4A 7X5","postalcode":"L4A 7X5","website":"http://www.synergytanning.com","working_hour":"","latitude":"43.965264","longitude":"-79.270563"},{"source":"yellow page","service_name":"Island Heat Tanning Centres","category":"tanning","phone":"905-356-6560","address":"6850 Thorold Stone Rd, Niagara Falls, ON L2J 1B4","postalcode":"L2J 1B4","website":"http://www.islandheattanning.com","working_hour":"Monday 9:00 am - 9:00 pm   Tuesday 9:00 am - 9:00 pm   Wednesday 9:00 am - 9:00 pm   Thursday 9:00 am - 9:00 pm   Friday 9:00 am - 9:00 pm   Saturday 9:00 am - 9:00 pm   Sunday 11:00 am - 5:00 pm","latitude":"43.11505","longitude":"-79.110917"},{"source":"yellow page","service_name":"Beaches Tanning Salon-Vacation Station","category":"tanning","phone":"905-354-8266","address":"7279 Lundy's Lane, Niagara Falls, ON L2G 1W4","postalcode":"L2G 1W4","website":" ","working_hour":"","latitude":"43.089206","longitude":"-79.117395"},{"source":"yellow page","service_name":"Airbrush Tanning by Donna","category":"tanning","phone":"905-329-1783","address":"ON","postalcode":"","website":" ","working_hour":"","latitude":"","longitude":""},{"source":"yellow page","service_name":"Hollywood Sunspot","category":"tanning","phone":"905-664-8266","address":"800 Queenston Rd, Hamilton, ON","postalcode":"","website":"http://www.hollywoodsunspot.com","working_hour":"Monday 10:00 am - 9:00 pm   Tuesday 10:00 am - 9:00 pm   Wednesday 10:00 am - 9:00 pm   Thursday 10:00 am - 9:00 pm   Friday 10:00 am - 9:00 pm   Saturday 10:00 am - 6:00 pm   Sunday 10:00 am - 5:00 pm","latitude":"43.2279227","longitude":"-79.7637245"},{"source":"yellow page","service_name":"Sol'exotica","category":"tanning","phone":"905-662-0992","address":"952 Queenston Rd, Stoney Creek, ON L8G 1B7","postalcode":"L8G 1B7","website":"http://www.solexotica.com","working_hour":"Monday 9:00 am - 9:00 pm   Tuesday 9:00 am - 9:00 pm   Wednesday 9:00 am - 9:00 pm   Thursday 9:00 am - 9:00 pm   Friday 9:00 am - 9:00 pm   Saturday 9:00 am - 6:00 pm   Sunday 10:00 am - 4:00 pm","latitude":"43.225125","longitude":"-79.751604"},{"source":"yellow page","service_name":"Defianze Hair And Tanning Salon","category":"tanning","phone":"905-545-5005","address":"852 Lawrence Rd, Hamilton, ON L8K 2A2","postalcode":"L8K 2A2","website":" ","working_hour":"Monday 10:00 am - 9:00 pm   Tuesday 10:00 am - 9:00 pm   Wednesday 10:00 am - 9:00 pm   Thursday 10:00 am - 9:00 pm   Friday 10:00 am - 8:00 pm   Saturday 10:00 am - 4:00 pm","latitude":"43.229192","longitude":"-79.80379"},{"source":"yellow page","service_name":"Eden Nails & Tanning","category":"tanning","phone":"289-768-6370","address":"276 Parkdale Ave N, Hamilton, ON L8H 5X7","postalcode":"L8H 5X7","website":" ","working_hour":"Monday 10:00 am - 8:00 pm   Tuesday 10:00 am - 8:00 pm   Wednesday 10:00 am - 8:00 pm   Thursday 10:00 am - 8:00 pm   Friday 10:00 am - 8:00 pm   Saturday 10:00 am - 6:00 pm","latitude":"43.244186","longitude":"-79.788617"},{"source":"yellow page","service_name":"Sol'exotica","category":"tanning","phone":"905-560-1995","address":"284 Mud St W, Stoney Creek, ON L8J 3Z6","postalcode":"L8J 3Z6","website":"http://www.solexotica.com","working_hour":"Monday 9:00 am - 9:00 pm   Tuesday 9:00 am - 9:00 pm   Wednesday 9:00 am - 9:00 pm   Thursday 9:00 am - 9:00 pm   Friday 9:00 am - 9:00 pm   Saturday 9:00 am - 6:00 pm   Sunday 10:00 am - 4:00 pm","latitude":"43.196055","longitude":"-79.79449"},{"source":"yellow page","service_name":"Sol'exotica","category":"tanning","phone":"905-529-9991","address":"1440 Main St E, Hamilton, ON L8K 6M3","postalcode":"L8K 6M3","website":" ","working_hour":"","latitude":"43.24007","longitude":"-79.808438"},{"source":"yellow page","service_name":"Sole Europa Tanning Studio","category":"tanning","phone":"905-664-1317","address":"6-521 Hwy 8, Stoney Creek, ON L8G 1G4","postalcode":"L8G 1G4","website":" ","working_hour":"","latitude":"43.215896","longitude":"-79.71397"},{"source":"yellow page","service_name":"Beach Bumz Tanning","category":"tanning","phone":"905-578-7770","address":"625 Greenhill Ave, Hamilton, ON L8K 5W9","postalcode":"L8K 5W9","website":" ","working_hour":"Monday 9:00 am - 5:00 pm   Tuesday 9:00 am - 5:00 pm   Wednesday 9:00 am - 5:00 pm   Thursday 9:00 am - 5:00 pm   Friday 9:00 am - 5:00 pm   Saturday 10:00 am - 4:00 pm","latitude":"43.209629","longitude":"-79.786504"},{"source":"yellow page","service_name":"Fiesta Sun Tanning Salon","category":"tanning","phone":"905-578-4272","address":"292 Grays Rd, Hamilton, ON L8E 1V5","postalcode":"L8E 1V5","website":"http://www.fiestasuntanning.ca","working_hour":"Monday 9:45 am - 8:30 pm   Tuesday 9:45 am - 9:00 pm   Wednesday 8:00 am - 9:00 pm   Thursday 9:45 am - 9:00 pm   Friday 9:45 am - 8:30 pm   Saturday 10:00 am - 5:00 pm   Sunday 11:00 am - 4:00 pm","latitude":"43.2312419","longitude":"-79.7407713"},{"source":"yellow page","service_name":"Sunsplash Tanning Salon","category":"tanning","phone":"905-560-6741","address":"247 Centennial Pky N, Hamilton, ON L8E 2X3","postalcode":"L8E 2X3","website":"http://www.sunquest.goldbook.ca","working_hour":"","latitude":"43.237563","longitude":"-79.760263"},{"source":"yellow page","service_name":"Fabutan Sun Tan Studios","category":"tanning","phone":"9055731444","address":"40 Centennial Pky N, Hamilton, ON L8E 1H6","postalcode":"L8E 1H6","website":" ","working_hour":"","latitude":"43.229325","longitude":"-79.763658"},{"source":"yellow page","service_name":"Glow Tanning & Boutique","category":"tanning","phone":"905-692-2244","address":"14-3200 Highway 56, Binbrook, ON L0R 1C0","postalcode":"L0R 1C0","website":" ","working_hour":"Monday 10:00 am - 8:00 pm   Tuesday 10:00 am - 8:00 pm   Wednesday 10:00 am - 8:00 pm   Thursday 10:00 am - 8:00 pm   Friday 10:00 am - 8:00 pm   Saturday 9:00 am - 4:00 pm   Sunday 10:00 am - 3:00 pm","latitude":"43.1153125","longitude":"-79.8068623"},{"source":"yellow page","service_name":"Platinum Suntanning Salon","category":"tanning","phone":"905-538-8150","address":"4-625 Greenhill Ave, Hamilton, ON L8K 5W9","postalcode":"L8K 5W9","website":"http://platinumsuntanning.ca","working_hour":"","latitude":"43.209629","longitude":"-79.786504"},{"source":"yellow page","service_name":"Even Tan","category":"tanning","phone":"416-754-2332","address":"7 Progress Ave, Scarborough, ON M1P 5A3","postalcode":"M1P 5A3","website":" ","working_hour":"Monday 10:00 am - 9:00 pm   Tuesday 10:00 am - 9:00 pm   Wednesday 10:00 am - 9:00 pm   Thursday 10:00 am - 9:00 pm   Friday 10:00 am - 9:00 pm   Saturday 10:30 am - 7:00 pm   Sunday 12:00 pm - 6:00 pm","latitude":"43.769547","longitude":"-79.281636"},{"source":"yellow page","service_name":"Urbansun","category":"tanning","phone":"416-491-4538","address":"2555 Victoria Park Ave, Scarborough, ON M1T 1A3","postalcode":"M1T 1A3","website":"http://www.clubtan.com","working_hour":"Monday 9:00 am - 9:00 pm   Tuesday 9:00 am - 9:00 pm   Wednesday 9:00 am - 9:00 pm   Thursday 9:00 am - 9:00 pm   Friday 9:00 am - 9:00 pm   Saturday 9:30 am - 6:00 pm   Sunday 10:00 am - 5:00 pm","latitude":"43.772825","longitude":"-79.321829"},{"source":"yellow page","service_name":"Ultimate Tan 7","category":"tanning","phone":"905-201-7776","address":"206-5990 16th Ave, Markham, ON L3P 7R2","postalcode":"L3P 7R2","website":"http://www.ultimatetan7.com","working_hour":"Monday 9:30 am - 9:30 pm   Tuesday 9:30 am - 9:30 pm   Wednesday 9:30 am - 9:30 pm   Thursday 9:30 am - 9:30 pm   Friday 9:30 am - 9:30 pm   Saturday 11:00 am - 7:00 pm   Sunday 11:00 am - 6:00 pm","latitude":"43.891477","longitude":"-79.265553"},{"source":"yellow page","service_name":"Sol'exotica","category":"tanning","phone":"905-886-7256","address":"9200 Bathurst St, Thornhill, ON L4J 8W1","postalcode":"L4J 8W1","website":" ","working_hour":"Monday 9:30 am - 9:30 pm   Tuesday 9:30 am - 9:30 pm   Wednesday 9:30 am - 9:30 pm   Thursday 9:30 am - 9:30 pm   Friday 9:30 am - 9:00 pm   Saturday 10:00 am - 6:00 pm   Sunday 11:00 am - 5:00 pm","latitude":"43.846891","longitude":"-79.458568"},{"source":"yellow page","service_name":"Metamorphosis","category":"tanning","phone":"4162221740","address":"210-1110 Sheppard Ave E, North York, ON M2K 2W2","postalcode":"M2K 2W2","website":"http://www.metamorphosisclinic.com","working_hour":"Monday 9:00 am - 6:00 pm   Tuesday 9:00 am - 6:00 pm   Wednesday 9:00 am - 6:00 pm   Thursday 9:00 am - 6:00 pm   Friday 9:00 am - 6:00 pm","latitude":"43.771094","longitude":"-79.3683053"},{"source":"yellow page","service_name":"Cabana Tanning Salon","category":"tanning","phone":"416-441-2669","address":"2231 Victoria Park Ave, Scarborough, ON M1R 1V8","postalcode":"M1R 1V8","website":" ","working_hour":"Monday 10:00 am - 9:00 pm   Tuesday 10:00 am - 9:00 pm   Wednesday 10:00 am - 9:00 pm   Thursday 10:00 am - 9:00 pm   Friday 10:00 am - 9:00 pm   Saturday 10:00 am - 6:00 pm   Sunday 10:00 am - 5:00 pm","latitude":"43.761779","longitude":"-79.316989"},{"source":"yellow page","service_name":"Tanning World","category":"tanning","phone":"416-439-4533","address":"647A McCowan Rd, Scarborough, ON M1J 1K2","postalcode":"M1J 1K2","website":" ","working_hour":"Monday 10:00 am - 7:00 pm   Tuesday 10:00 am - 7:00 pm   Wednesday 10:00 am - 7:00 pm   Thursday 10:00 am - 7:00 pm   Friday 10:00 am - 6:00 pm   Saturday 10:00 am - 3:00 pm","latitude":"43.753782","longitude":"-79.244806"},{"source":"yellow page","service_name":"Renaissance Tanning Studio","category":"tanning","phone":"289-304-8673","address":"9730 Dufferin St, Maple, ON L6A 4L6","postalcode":"L6A 4L6","website":" ","working_hour":"","latitude":"43.8534538","longitude":"-79.4856275"},{"source":"yellow page","service_name":"Oasis Tanning Spa","category":"tanning","phone":"416-447-1786","address":"1335 Lawrence Ave E, North York, ON M3A 1C6","postalcode":"M3A 1C6","website":" ","working_hour":"Monday 12:00 pm - 9:00 pm   Tuesday 10:00 am - 9:00 pm   Wednesday 10:00 am - 9:00 pm   Thursday 10:00 am - 9:00 pm   Friday 10:00 am - 9:00 pm   Saturday 10:00 am - 6:00 pm   Sunday 12:00 pm - 5:00 pm","latitude":"43.741046","longitude":"-79.320564"},{"source":"yellow page","service_name":"Synergy Tanning Studio","category":"tanning","phone":"416-916-7663","address":"4632 Yonge St, North York, ON M2N 5M1","postalcode":"M2N 5M1","website":"http://www.synergytanning.com","working_hour":"Monday 10:00 am - 9:00 pm   Tuesday 10:00 am - 9:00 pm   Wednesday 10:00 am - 9:00 pm   Thursday 10:00 am - 9:00 pm   Friday 10:00 am - 9:00 pm   Saturday 10:00 am - 6:00 pm   Sunday 12:00 pm - 5:00 pm","latitude":"43.7576922","longitude":"-79.4100723"},{"source":"yellow page","service_name":"Radiance Tanning","category":"tanning","phone":"416-440-1411","address":"3303 Yonge St, Toronto, ON M4N 2L8","postalcode":"M4N 2L8","website":" ","working_hour":"Monday 10:00 am - 9:00 pm   Tuesday 10:00 am - 9:00 pm   Wednesday 10:00 am - 9:00 pm   Thursday 10:00 am - 9:00 pm   Friday 10:00 am - 9:00 pm   Saturday 10:00 am - 9:00 pm","latitude":"43.730175","longitude":"-79.403534"},{"source":"yellow page","service_name":"California Waves","category":"tanning","phone":"905-707-0406","address":"9218 Yonge St, Richmond Hill, ON L4C 7A2","postalcode":"L4C 7A2","website":" ","working_hour":"Monday 9:30 am - 9:30 pm   Tuesday 9:30 am - 9:30 pm   Wednesday 9:30 am - 9:30 pm   Thursday 9:30 am - 9:30 pm   Friday 9:30 am - 9:30 pm   Saturday 10:00 am - 8:00 pm   Sunday 11:00 am - 5:00 pm","latitude":"43.852211","longitude":"-79.432903"},{"source":"yellow page","service_name":"Synergy Tanning Stud","category":"tanning","phone":"905-417-5207","address":"1801 Rutherford Rd, Concord, ON L4K 5R7","postalcode":"L4K 5R7","website":"http://www.synergytanning.com","working_hour":"","latitude":"43.840603","longitude":"-79.492897"},{"source":"yellow page","service_name":"Summer Sun","category":"tanning","phone":"905-737-8222","address":"10815 Bathurst St, Richmond Hill, ON L4C 9Y2","postalcode":"L4C 9Y2","website":" ","working_hour":"","latitude":"43.8848483","longitude":"-79.4675373"},{"source":"yellow page","service_name":"Tan 7","category":"tanning","phone":"905-884-7277","address":"10737 Yonge St, Richmond Hill, ON L4C 9M9","postalcode":"L4C 9M9","website":" ","working_hour":"Monday 10:30 am - 9:00 pm   Tuesday 10:30 am - 9:00 pm   Wednesday 10:30 am - 9:00 pm   Thursday 10:30 am - 9:00 pm   Friday 10:30 am - 9:00 pm   Saturday 10:30 am - 6:00 pm   Sunday 11:00 am - 5:00 pm","latitude":"43.890122","longitude":"-79.44155"},{"source":"yellow page","service_name":"Glow Tanning Spa","category":"tanning","phone":"416-750-8666","address":"2155 Lawrence Ave E, Scarborough, ON M1R 5G9","postalcode":"M1R 5G9","website":"http://www.goldenglow.ca","working_hour":"Monday 10:00 am - 8:00 pm   Tuesday 10:00 am - 8:00 pm   Wednesday 10:00 am - 8:00 pm   Thursday 10:00 am - 9:00 pm   Friday 10:00 am - 9:00 pm   Saturday 10:00 am - 6:00 pm   Sunday 10:00 am - 3:00 pm","latitude":"43.747307","longitude":"-79.285532"},{"source":"yellow page","service_name":"Luminous Hair Salon and Tanning","category":"tanning","phone":"905-737-9376","address":"10142 Yonge St, Richmond Hill, ON L4C 1T6","postalcode":"L4C 1T6","website":"http://www.luminoushairsalon.com","working_hour":"","latitude":"43.874763","longitude":"-79.437998"},{"source":"yellow page","service_name":"Essential Nails & Tanning","category":"tanning","phone":"4162294607","address":"2901 Bayview Ave, North York, ON M2K 1E6","postalcode":"M2K 1E6","website":"http://essentialnailstanning.com","working_hour":"Monday 10:00 am - 9:00 pm   Tuesday 10:00 am - 9:00 pm   Wednesday 10:00 am - 9:00 pm   Thursday 10:00 am - 9:00 pm   Friday 10:00 am - 9:00 pm   Saturday 9:30 am - 6:00 pm   Sunday 12:00 pm - 5:00 pm","latitude":"43.768555","longitude":"-79.386649"},{"source":"yellow page","service_name":"Sunspa Scene","category":"tanning","phone":"416-787-5330","address":"1925 Avenue Rd, North York, ON M5M 4A2","postalcode":"M5M 4A2","website":" ","working_hour":"","latitude":"43.733691","longitude":"-79.419622"},{"source":"yellow page","service_name":"Spa On The Avenue","category":"tanning","phone":"416-256-7727","address":"1925 Avenue Rd, North York, ON M5M 4A2","postalcode":"M5M 4A2","website":" ","working_hour":"","latitude":"43.733691","longitude":"-79.419622"},{"source":"yellow page","service_name":"Sol'exotica","category":"tanning","phone":"9058326832","address":"9671 Jane St, Maple, ON L6A 3X5","postalcode":"L6A 3X5","website":" ","working_hour":"Monday 9:00 am - 10:00 pm   Tuesday 9:00 am - 10:00 pm   Wednesday 9:00 am - 10:00 pm   Thursday 9:00 am - 10:00 pm   Friday 9:00 am - 9:00 pm   Saturday 9:00 am - 8:00 pm   Sunday 10:00 am - 6:00 pm","latitude":"43.843864","longitude":"-79.53545"},{"source":"yellow page","service_name":"Desert Tan Tanning Salon","category":"tanning","phone":"905-303-1178","address":"2354 Major Mackenzie Dr, Woodbridge, ON L6A 1W2","postalcode":"L6A 1W2","website":" ","working_hour":"Monday 9:00 am - 8:30 pm   Tuesday 9:00 am - 8:30 pm   Wednesday 9:00 am - 8:30 pm   Thursday 9:00 am - 8:30 pm   Friday 9:00 am - 8:30 pm   Saturday 9:00 am - 6:00 pm   Sunday 11:00 am - 5:00 pm","latitude":"43.854109","longitude":"-79.515964"},{"source":"yellow page","service_name":"Labella Sole Tanning","category":"tanning","phone":"905-738-1200","address":"27-3175 Rutherford Rd, Concord, ON L4K 5Y6","postalcode":"L4K 5Y6","website":" ","working_hour":"Monday 10:00 am - 10:00 pm   Tuesday 10:00 am - 10:00 pm   Wednesday 10:00 am - 10:00 pm   Thursday 10:00 am - 10:00 pm   Friday 10:00 am - 10:00 pm   Saturday 11:00 am - 7:00 pm   Sunday 11:00 am - 5:00 pm","latitude":"43.82965","longitude":"-79.537209"},{"source":"yellow page","service_name":"Sol'exotica Tanning Spa","category":"tanning","phone":"905-669-3826","address":"3255 Rutherford Rd, Concord, ON L4K 5Y5","postalcode":"L4K 5Y5","website":" ","working_hour":"","latitude":"43.82888","longitude":"-79.541033"},{"source":"yellow page","service_name":"Mr Sunsational Tans","category":"tanning","phone":"905-303-9707","address":"9200 Weston Rd, Woodbridge, ON L4H 2P8","postalcode":"L4H 2P8","website":"http://sunsationaltans.net","working_hour":"Monday 11:00 am - 8:00 pm   Tuesday 11:00 am - 8:00 pm   Wednesday 11:00 am - 8:00 pm   Thursday 10:00 am - 8:00 pm   Friday 10:00 am - 8:00 pm   Saturday 11:00 am - 4:00 pm   Sunday 10:00 am - 5:00 pm","latitude":"43.827585","longitude":"-79.556644"},{"source":"yellow page","service_name":"Hipnotic Sun Tanning","category":"tanning","phone":"905-850-8119","address":"9121 Weston Rd, Vaughan, ON L4L 1A6","postalcode":"L4L 1A6","website":" ","working_hour":"Monday 10:00 am - 9:00 pm   Tuesday 10:00 am - 9:00 pm   Wednesday 10:00 am - 9:00 pm   Thursday 10:00 am - 9:00 pm   Friday 10:00 am - 9:00 pm   Saturday 11:00 am - 7:00 pm   Sunday 11:00 am - 5:00 pm","latitude":"43.82501","longitude":"-79.555887"},{"source":"yellow page","service_name":"La Bella Sole Tanning Lounge","category":"tanning","phone":"647-427-8833","address":"27-3175 Rutherford Rd, Concord, ON L4K 5Y6","postalcode":"L4K 5Y6","website":"http://labellasoletanninglounge.com","working_hour":"","latitude":"43.82965","longitude":"-79.537209"},{"source":"yellow page","service_name":"The Tanning Loft","category":"tanning","phone":"905-265-7826","address":"5875 Highway 7, Woodbridge, ON L4L 1T9","postalcode":"L4L 1T9","website":"http://tanningloft.ca","working_hour":"Monday 10:00 am - 9:00 pm   Tuesday 10:00 am - 9:00 pm   Wednesday 10:00 am - 9:00 pm   Thursday 10:00 am - 9:00 pm   Friday 10:00 am - 9:00 pm   Saturday 10:00 am - 7:00 pm   Sunday 11:00 am - 6:00 pm","latitude":"43.7741731","longitude":"-79.616899"},{"source":"yellow page","service_name":"Tanning Loft","category":"tanning","phone":"289-845-1189","address":"14-5875 Hwy 7, Woodbridge, ON L4L 1T9","postalcode":"L4L 1T9","website":" ","working_hour":"","latitude":"43.7741731","longitude":"-79.616899"},{"source":"yellow page","service_name":"Tanning Lounge","category":"tanning","phone":"9055520254","address":"5100 Rutherford Rd, Woodbridge, ON L4H 2J2","postalcode":"L4H 2J2","website":" ","working_hour":"","latitude":"43.816613","longitude":"-79.601945"},{"source":"yellow page","service_name":"Sandals Tanning Salon","category":"tanning","phone":"905-495-0826","address":"380 BovairdE, Brampton, ON L6Z 2S7","postalcode":"L6Z 2S7","website":" ","working_hour":"Monday 10:00 am - 9:00 pm   Tuesday 10:00 am - 9:00 pm   Wednesday 10:00 am - 9:00 pm   Thursday 10:00 am - 9:00 pm   Friday 10:00 am - 9:00 pm   Saturday 10:00 am - 5:00 pm   Sunday 10:00 am - 5:00 pm","latitude":"43.71412","longitude":"-79.778593"},{"source":"yellow page","service_name":"Beauty Supply The Salon Spa","category":"tanning","phone":"905-595-5599","address":"365 Main St N, Brampton, ON L6X 1N6","postalcode":"L6X 1N6","website":" ","working_hour":"","latitude":"43.69427","longitude":"-79.771206"},{"source":"yellow page","service_name":"Sol'exotica","category":"tanning","phone":"9058749874","address":"16A-14 Lisa St, Brampton, ON L6T 4W2","postalcode":"L6T 4W2","website":" ","working_hour":"","latitude":"43.712313","longitude":"-79.72706"},{"source":"yellow page","service_name":"Sun Beach Tanning Main St Inc","category":"tanning","phone":"905-450-1002","address":"332 Main St N, Brampton, ON L6V 1P8","postalcode":"L6V 1P8","website":" ","working_hour":"Monday 12:00 pm - 9:00 pm   Tuesday 12:00 pm - 9:00 pm   Wednesday 12:00 pm - 9:00 pm   Thursday 12:00 pm - 9:00 pm   Friday 12:00 pm - 9:00 pm   Saturday 12:00 pm - 5:00 pm   Sunday 12:00 am - 4:00 pm","latitude":"43.693256","longitude":"-79.769841"},{"source":"yellow page","service_name":"Cabana Del Sol","category":"tanning","phone":"905-796-3331","address":"7700 Hurontario St, Brampton, ON L6Y 4M3","postalcode":"L6Y 4M3","website":"http://www.cabanadelsol.ca/","working_hour":"Monday 9:30 am - 9:00 pm   Tuesday 9:30 am - 9:00 pm   Wednesday 9:30 am - 9:00 pm   Thursday 9:30 am - 9:00 pm   Friday 9:30 am - 9:00 pm   Saturday 10:00 am - 6:00 pm   Sunday 11:00 am - 5:00 pm","latitude":"43.658907","longitude":"-79.723846"},{"source":"yellow page","service_name":"Fabutan Sun Tan Studios","category":"tanning","phone":"9058971114","address":"980 Burnhamthorpe Rd E, Mississauga, ON L4Y 2X6","postalcode":"L4Y 2X6","website":" ","working_hour":"","latitude":"43.6148216","longitude":"-79.6109493"},{"source":"yellow page","service_name":"Fabutan Sun Tan Studio","category":"tanning","phone":"905-232-4874","address":"10C-925 Rathburn Rd E, Mississauga, ON L4W 4C3","postalcode":"L4W 4C3","website":" ","working_hour":"","latitude":"43.615661","longitude":"-79.616743"},{"source":"yellow page","service_name":"Fabutan Sun Tan Studios","category":"tanning","phone":"4162348418","address":"10A Burnhamthorpe Road, Etobicoke, ON M9A 5C9","postalcode":"M9A 5C9","website":"http://www.fabutan.com/","working_hour":"","latitude":"43.649007","longitude":"-79.5293496"},{"source":"yellow page","service_name":"Eurotan","category":"tanning","phone":"905-629-2009","address":"3615 Dixie Rd, Mississauga, ON L4Y 4H4","postalcode":"L4Y 4H4","website":"http://www.eurotanstudios.com","working_hour":"Monday 10:00 am - 9:00 pm   Tuesday 10:00 am - 9:00 pm   Wednesday 10:00 am - 9:00 pm   Thursday 10:00 am - 9:00 pm   Friday 10:00 am - 9:00 pm   Saturday 10:00 am - 6:00 pm   Sunday 12:00 pm - 5:00 pm","latitude":"43.620636","longitude":"-79.599961"},{"source":"yellow page","service_name":"The Shop Beauty Bar & Boutique","category":"tanning","phone":"416-494-1886","address":"2393 St Clair Ave W, Toronto, ON M6N 1K9","postalcode":"M6N 1K9","website":" ","working_hour":"Thursday 11:00 am - 8:00 pm   Friday 11:00 am - 8:00 pm   Saturday 11:00 am - 8:00 pm   Sunday 11:00 am - 8:00 pm   Monday-Wednesday Are By Appointment ONLY!!!","latitude":"43.669472","longitude":"-79.481353"},{"source":"yellow page","service_name":"Tanning Is The Lifestyle","category":"tanning","phone":"416-255-7772","address":"1197 The Queensway, Etobicoke, ON M8Z 1R7","postalcode":"M8Z 1R7","website":" ","working_hour":"Monday 10:00 am - 10:00 pm   Tuesday 10:00 am - 10:00 pm   Wednesday 10:00 am - 10:00 pm   Thursday 10:00 am - 10:00 pm   Friday 10:00 am - 10:00 pm   Saturday 10:00 am - 7:00 pm   Sunday 10:00 am - 6:00 pm","latitude":"43.621854","longitude":"-79.522673"},{"source":"yellow page","service_name":"LA Kiss Tanning Salon","category":"tanning","phone":"9058960246","address":"1077 North Service Rd, Mississauga, ON L4Y 1A6","postalcode":"L4Y 1A6","website":" ","working_hour":"Monday 11:00 am - 8:00 pm   Tuesday 11:00 am - 8:00 pm   Wednesday 11:00 am - 8:00 pm   Thursday 11:00 am - 8:00 pm   Friday 11:00 am - 8:00 pm   Saturday 11:00 am - 6:00 pm","latitude":"43.5913691","longitude":"-79.5750187"},{"source":"yellow page","service_name":"Arizona Tan","category":"tanning","phone":"905-568-0706","address":"40 Bristol Rd E, Mississauga, ON L4Z 3K8","postalcode":"L4Z 3K8","website":"http://arizonatanningstudios.ca","working_hour":"Monday 9:00 am - 8:45 pm   Tuesday 9:00 am - 8:45 pm   Wednesday 9:00 am - 8:45 pm   Thursday 9:00 am - 8:45 pm   Friday 9:00 am - 8:45 pm   Saturday 10:00 am - 5:45 pm   Sunday 10:00 am - 4:45 pm","latitude":"43.616089","longitude":"-79.660812"},{"source":"yellow page","service_name":"Sol'exotica","category":"tanning","phone":"9055680706","address":"7-40 Bristol Rd E, Mississauga, ON L4Z 3K8","postalcode":"L4Z 3K8","website":" ","working_hour":"","latitude":"43.616089","longitude":"-79.660812"},{"source":"yellow page","service_name":"Sunscape Tanning Salon","category":"tanning","phone":"9052680495","address":"4646 Heritage Hills Blvd, Mississauga, ON L5R 1Y3","postalcode":"L5R 1Y3","website":" ","working_hour":"","latitude":"43.59953","longitude":"-79.660202"},{"source":"yellow page","service_name":"Extreme Tan","category":"tanning","phone":"905-949-4826","address":"801 Dundas St E, Mississauga, ON L4Y 4G9","postalcode":"L4Y 4G9","website":"http://www.extremetan.ca","working_hour":"Monday 10:00 am - 9:00 pm   Tuesday 10:00 am - 9:00 pm   Wednesday 10:00 am - 9:00 pm   Thursday 10:00 am - 9:00 pm   Friday 10:00 am - 9:00 pm   Saturday 10:00 am - 7:00 pm   Sunday 12:00 pm - 5:00 pm","latitude":"43.597099","longitude":"-79.59731"},{"source":"yellow page","service_name":"Fabutan Sun Tan Studios","category":"tanning","phone":"4162559993","address":"781C The Queensway, Etobicoke, ON M8Z 1N6","postalcode":"M8Z 1N6","website":"http://www.fabutan.com/","working_hour":"","latitude":"43.625631","longitude":"-79.505836"},{"source":"yellow page","service_name":"RX Soleil Professional Sun Tanning Studios","category":"tanning","phone":"905-897-0643","address":"1370 Dundas St E, Mississauga, ON L4Y 4G4","postalcode":"L4Y 4G4","website":"http://rxsoleil.com","working_hour":"Monday 10:00 am - 9:00 pm   Tuesday 10:00 am - 9:00 pm   Wednesday 10:00 am - 9:00 pm   Thursday 10:00 am - 9:00 pm   Friday 10:00 am - 9:00 pm   Saturday 10:00 am - 6:00 pm   Sunday 12:00 pm - 5:00 pm","latitude":"43.608609","longitude":"-79.584617"},{"source":"yellow page","service_name":"All Tan","category":"tanning","phone":"905-275-1100","address":"400 Dundas St E, Mississauga, ON L5A 1X5","postalcode":"L5A 1X5","website":"http://alltanstudio.ca/","working_hour":"Monday 8:00 am - 5:00 pm   Tuesday 8:00 am - 5:00 pm   Wednesday 8:00 am - 5:00 pm   Thursday 8:00 am - 5:00 pm   Friday 8:00 am - 5:00 pm","latitude":"43.58862","longitude":"-79.606806"},{"source":"yellow page","service_name":"Tanned Bodies","category":"tanning","phone":"905-278-1711","address":"732 Lakeshore Rd E, Mississauga, ON L5G 1J6","postalcode":"L5G 1J6","website":"http://www.tannedbodies.ca","working_hour":"Monday 10:00 am - 9:00 pm   Tuesday 10:00 am - 9:00 pm   Wednesday 10:00 am - 9:00 pm   Thursday 10:00 am - 9:00 pm   Friday 10:00 am - 9:00 pm   Saturday 11:00 am - 6:00 pm   Sunday 12:00 pm - 5:00 pm","latitude":"43.5706731","longitude":"-79.5653629"},{"source":"yellow page","service_name":"Tanned Bodies","category":"tanning","phone":"905-949-8600","address":"3050 Confederation Pky, Mississauga, ON L5B 3Z6","postalcode":"L5B 3Z6","website":"http://www.tannedbodies.ca","working_hour":"Monday 10:00 am - 9:00 pm   Tuesday 10:00 am - 9:00 pm   Wednesday 10:00 am - 9:00 pm   Thursday 10:00 am - 9:00 pm   Friday 10:00 am - 9:00 pm   Saturday 11:00 am - 6:00 pm   Sunday 12:00 pm - 5:00 pm","latitude":"43.57822","longitude":"-79.621324"},{"source":"yellow page","service_name":"Tanned Bodies","category":"tanning","phone":"905-276-2011","address":"592 Rathburn Rd W, Mississauga, ON L5B 3A4","postalcode":"L5B 3A4","website":"http://tannedbodies.ca/","working_hour":"Monday 10:00 am - 9:00 pm   Tuesday 10:00 am - 9:00 pm   Wednesday 10:00 am - 9:00 pm   Thursday 10:00 am - 9:00 pm   Friday 10:00 am - 9:00 pm   Saturday 11:00 am - 6:00 pm   Sunday 12:00 pm - 5:00 pm","latitude":"43.584207","longitude":"-79.653876"},{"source":"yellow page","service_name":"Tanned Bodie","category":"tanning","phone":"905-276-0006","address":"592 Rathburn Rd W, Mississauga, ON L5B 3A4","postalcode":"L5B 3A4","website":"http://www.tannedbodies.ca","working_hour":"Monday 10:00 am - 9:00 pm   Tuesday 10:00 am - 9:00 pm   Wednesday 10:00 am - 9:00 pm   Thursday 10:00 am - 9:00 pm   Friday 10:00 am - 9:00 pm   Saturday 11:00 am - 6:00 pm   Sunday 12:00 pm - 5:00 pm","latitude":"43.584207","longitude":"-79.653876"},{"source":"yellow page","service_name":"Sandy Beach Tanning Studio Ltd","category":"tanning","phone":"9052719596","address":"189 Lakeshore Rd E, Mississauga, ON L5G 1G2","postalcode":"L5G 1G2","website":" ","working_hour":"","latitude":"43.557572","longitude":"-79.579289"},{"source":"yellow page","service_name":"Bodyrayz","category":"tanning","phone":"905-501-0336","address":"670 Eglinton Ave W, Mississauga, ON L5R 3V2","postalcode":"L5R 3V2","website":"http://www.bodyrayz.com","working_hour":"","latitude":"43.59329","longitude":"-79.667926"},{"source":"yellow page","service_name":"Summer Illusions Tanning Studio","category":"tanning","phone":"905-891-2717","address":"18-1107 Lorne Park Rd, Mississauga, ON L5H 3A1","postalcode":"L5H 3A1","website":"http://www.summerillusionstanning.com/","working_hour":"Monday 10:00 am - 9:00 pm   Tuesday 10:00 am - 9:00 pm   Wednesday 10:00 am - 9:00 pm   Thursday 10:00 am - 9:00 pm   Friday 10:00 am - 9:00 pm   Saturday 10:00 am - 6:00 pm   Sunday 10:00 am - 6:00 pm","latitude":"43.531459","longitude":"-79.612724"},{"source":"yellow page","service_name":"Goldern Tan Tanning","category":"tanning","phone":"647-351-1283","address":"2755 Lake Shore Blvd W, Etobicoke, ON M8V 1H2","postalcode":"M8V 1H2","website":"http://www.golden10.vpweb.ca","working_hour":"Monday 12:00 pm - 10:00 pm   Tuesday 10:00 am - 10:00 pm   Wednesday 10:00 am - 10:00 pm   Thursday 10:00 am - 10:00 pm   Friday 10:00 am - 10:00 pm   Saturday 11:00 am - 7:00 pm","latitude":"43.6021847","longitude":"-79.4988539"},{"source":"yellow page","service_name":"Belli David","category":"tanning","phone":"9058973095","address":"1301 Sweetbirch Crt, Mississauga, ON L5C 3R4","postalcode":"L5C 3R4","website":"http://www.belliag.com","working_hour":"","latitude":"43.570274","longitude":"-79.670881"},{"source":"yellow page","service_name":"Sunset Tan","category":"tanning","phone":"905-890-2400","address":"5700 Mavis Rd, Mississauga, ON L5V 2N6","postalcode":"L5V 2N6","website":"http://sunsettan.ca","working_hour":"Monday 9:00 am - 10:00 pm   Tuesday 9:00 am - 10:00 pm   Wednesday 9:00 am - 10:00 pm   Thursday 9:00 am - 10:00 pm   Friday 9:00 am - 10:00 pm   Saturday 9:00 am - 7:00 pm   Sunday 10:00 am - 6:00 pm","latitude":"43.607532","longitude":"-79.689644"},{"source":"yellow page","service_name":"Beachin Tan Inc","category":"tanning","phone":"905-822-3224","address":"1900 Fowler Dr, Mississauga, ON L5K 0A1","postalcode":"L5K 0A1","website":" ","working_hour":"Monday 10:00 am - 10:00 pm   Tuesday 10:00 am - 10:00 pm   Wednesday 10:00 am - 10:00 pm   Thursday 10:00 am - 10:00 pm   Friday 10:00 am - 10:00 pm   Saturday 10:00 am - 7:00 pm   Sunday 11:00 am - 5:00 pm","latitude":"43.529674","longitude":"-79.651595"},{"source":"yellow page","service_name":"Gold Tan & Sunset Spa","category":"tanning","phone":"905-828-4653","address":"3476 Glen Erin Dr, Mississauga, ON L5L 3R4","postalcode":"L5L 3R4","website":"http://gold-tan.com","working_hour":"Monday 10:00 am - 9:00 pm   Tuesday 10:00 am - 9:00 pm   Wednesday 10:00 am - 9:00 pm   Thursday 10:00 am - 9:00 pm   Friday 10:00 am - 9:00 pm   Saturday 9:30 am - 6:00 pm   Sunday 12:00 pm - 5:00 pm","latitude":"43.537691","longitude":"-79.687231"},{"source":"yellow page","service_name":"Summer Illusions Tanning Studio","category":"tanning","phone":"905-606-2290","address":"2901 Eglinton Ave W, Mississauga, ON L5M 6J3","postalcode":"L5M 6J3","website":"http://www.summerillusionstanning.com/","working_hour":"","latitude":"43.551277","longitude":"-79.715257"},{"source":"yellow page","service_name":"Silver Solarium Tanning Equipment Salon StartUp Training & Supplies","category":"tanning","phone":"905-896-8533","address":"4020 Sladeview Cres, Mississauga, ON L5L 6B1","postalcode":"L5L 6B1","website":"http://silversolarium.com","working_hour":"Monday 9:00 am - 4:00 pm   Tuesday 9:00 am - 4:00 pm   Wednesday 9:00 am - 4:00 pm   Thursday 9:00 am - 4:00 pm   Friday 9:00 am - 4:00 pm","latitude":"43.5266695","longitude":"-79.714185"},{"source":"yellow page","service_name":"Tanned Bodies","category":"tanning","phone":"647-748-8267","address":"2401 Lake Shore Blvd W, Etobicoke, ON M8V 1C5","postalcode":"M8V 1C5","website":" ","working_hour":"","latitude":"43.614578","longitude":"-79.488912"},{"source":"yellow page","service_name":"Tanning Centre","category":"tanning","phone":"9058422367","address":"474 Iroquois Shore Rd, Oakville, ON L6H 2Y7","postalcode":"L6H 2Y7","website":" ","working_hour":"","latitude":"43.467636","longitude":"-79.681582"},{"source":"yellow page","service_name":"Midnight Sun Oakville","category":"tanning","phone":"905-842-5400","address":"84 Reynolds St, Oakville, ON L6J 3K2","postalcode":"L6J 3K2","website":"http://www.midnightsun.ca","working_hour":"","latitude":"43.447793","longitude":"-79.664931"},{"source":"yellow page","service_name":"The Tanning Shop","category":"tanning","phone":"905-815-1880","address":"233 Cross Ave, Oakville, ON L6J 2W9","postalcode":"L6J 2W9","website":" ","working_hour":"","latitude":"43.456947","longitude":"-79.682351"},{"source":"yellow page","service_name":"Fabutan Sun Tan Studios","category":"tanning","phone":"905-257-3770","address":"4-2387 Trafalgar Rd, Oakville, ON L6H 6K7","postalcode":"L6H 6K7","website":" ","working_hour":"","latitude":"43.484472","longitude":"-79.714832"},{"source":"yellow page","service_name":"Tan In The Wild","category":"tanning","phone":"905-338-2700","address":"29-511 Maple Grove Dr, Oakville, ON L6J 6X8","postalcode":"L6J 6X8","website":" ","working_hour":"Monday 10:00 am - 9:00 pm   Tuesday 10:00 am - 9:00 pm   Wednesday 10:00 am - 9:00 pm   Thursday 10:00 am - 9:00 pm   Friday 10:00 am - 7:00 pm   Saturday 10:00 am - 6:00 pm   Sunday 12:00 pm - 5:00 pm","latitude":"43.478974","longitude":"-79.657374"},{"source":"yellow page","service_name":"Raydiance Tanning Studio","category":"tanning","phone":"905-542-5992","address":"5602 10th Line W, Mississauga, ON L5M 7L9","postalcode":"L5M 7L9","website":"http://www.raydiancesun.com/","working_hour":"Monday 8:00 am - 5:00 pm   Tuesday 8:00 am - 5:00 pm   Wednesday 8:00 am - 5:00 pm   Thursday 8:00 am - 5:00 pm   Friday 8:00 am - 5:00 pm","latitude":"43.559451","longitude":"-79.742579"},{"source":"yellow page","service_name":"Beachbaby Tanning Salon","category":"tanning","phone":"905-286-1826","address":"6975 Meadowvale Town Centre Cir, Mississauga, ON L5N 2W7","postalcode":"L5N 2W7","website":" ","working_hour":"Monday 10:00 am - 8:30 pm   Tuesday 10:00 am - 8:30 pm   Wednesday 10:00 am - 8:30 pm   Thursday 10:00 am - 8:30 pm   Friday 10:00 am - 8:30 pm   Saturday 10:00 am - 6:00 pm   Sunday 12:00 am - 5:00 pm","latitude":"43.580815","longitude":"-79.757568"},{"source":"yellow page","service_name":"Sunbeach Tanning Ltd","category":"tanning","phone":"905-450-5577","address":"4 McLaughlin Rd S, Brampton, ON L6Y 3B2","postalcode":"L6Y 3B2","website":"http://sunbeachtans.com/","working_hour":"Monday 10:00 am - 9:00 pm   Tuesday 10:00 am - 9:00 pm   Wednesday 10:00 am - 9:00 pm   Thursday 10:00 am - 9:00 pm   Friday 10:00 am - 9:00 pm   Saturday 10:00 am - 6:00 pm   Sunday 11:00 am - 5:00 pm","latitude":"43.675214","longitude":"-79.769468"},{"source":"yellow page","service_name":"Bella Tan","category":"tanning","phone":"905-873-4343","address":"369 Mountainview Rd S, Georgetown, ON L7G 5X3","postalcode":"L7G 5X3","website":"http://www.bellatan.ca","working_hour":"Monday 9:00 am - 9:00 pm   Tuesday 9:00 am - 9:00 pm   Wednesday 9:00 am - 9:00 pm   Thursday 9:00 am - 9:00 pm   Friday 9:00 am - 9:00 pm   Saturday 10:00 am - 5:00 pm   Sunday 11:00 am - 4:00 pm   Walk-ins Welcome","latitude":"43.6321362","longitude":"-79.8788571"},{"source":"yellow page","service_name":"Arizona Tan","category":"tanning","phone":"9058407114","address":"10088 McLaughlin Rd N, Brampton, ON L7A 2X6","postalcode":"L7A 2X6","website":"http://arizonatan.com","working_hour":"","latitude":"43.697215","longitude":"-79.799196"},{"source":"yellow page","service_name":"Numi Beauty & Laser","category":"tanning","phone":"9054515445","address":"11-10025 Hurontario St, Brampton, ON L6Z 0E8","postalcode":"L6Z 0E8","website":"http://www.arizonatan.com","working_hour":"","latitude":"43.706438","longitude":"-79.787559"},{"source":"yellow page","service_name":"Classic Spray Tanning","category":"tanning","phone":"9058448850","address":"220 North Service Rd W, Oakville, ON L6M 2Y3","postalcode":"L6M 2Y3","website":"http://www.classictan.ca","working_hour":"Monday 10:00 am - 9:00 pm   Tuesday 10:00 am - 9:00 pm   Wednesday 10:00 am - 9:00 pm   Thursday 10:00 am - 9:00 pm   Friday 10:00 am - 9:00 pm   Saturday 10:00 am - 6:00 pm   Sunday 10:00 am - 5:00 pm","latitude":"43.44959","longitude":"-79.703863"},{"source":"yellow page","service_name":"Tan Temptations Inc","category":"tanning","phone":"905-257-7575","address":"478 Dundas W, Oakville, ON","postalcode":"","website":" ","working_hour":"Monday 10:00 am - 9:00 pm   Tuesday 10:00 am - 9:00 pm   Wednesday 10:00 am - 9:00 pm   Thursday 10:00 am - 9:00 pm   Friday 10:00 am - 9:00 pm   Saturday 10:00 am - 6:00 pm   Sunday 12:00 pm - 5:00 pm","latitude":"","longitude":""},{"source":"yellow page","service_name":"Fabutan Sun Tan Studios","category":"tanning","phone":"905-825-8826","address":"1500 Upper Middle Rd W, Oakville, ON L6M 3G3","postalcode":"L6M 3G3","website":"http://www.fabutan.com/","working_hour":"","latitude":"43.438428","longitude":"-79.742177"},{"source":"yellow page","service_name":"Fabutan Sun Tan Studios","category":"tanning","phone":"9058469996","address":"ON","postalcode":"","website":" ","working_hour":"","latitude":"43.651893","longitude":"-79.381713"},{"source":"yellow page","service_name":"South Seas Tanning Resort","category":"tanning","phone":"9054956440","address":"ON","postalcode":"","website":" ","working_hour":"","latitude":"43.651893","longitude":"-79.381713"},{"source":"yellow page","service_name":"South Sunbeach Tanning","category":"tanning","phone":"905-877-1110","address":"5 Mountainview Rd N, Georgetown, ON L7G 4T3","postalcode":"L7G 4T3","website":"http://www.sunbeachtanning.com","working_hour":"Monday 9:00 am - 10:00 pm   Tuesday 9:00 am - 10:00 pm   Wednesday 9:00 am - 10:00 pm   Thursday 9:00 am - 10:00 pm   Friday 9:00 am - 9:00 pm   Saturday 9:00 am - 6:00 pm   Sunday 9:00 am - 6:00 pm","latitude":"43.65062","longitude":"-79.903859"},{"source":"yellow page","service_name":"Beauty And Body House","category":"tanning","phone":"2898900922","address":"126 Mill St, Georgetown, ON L7G 2C5","postalcode":"L7G 2C5","website":" ","working_hour":"Monday 10:00 am - 6:00 pm   Tuesday 10:00 am - 6:00 pm   Wednesday 10:00 am - 6:00 pm   Thursday 10:00 am - 6:00 pm   Friday 10:00 am - 6:00 pm   Saturday 10:00 am - 5:00 pm","latitude":"43.6489956","longitude":"-79.9267371"},{"source":"yellow page","service_name":"Sunbeach Tanning","category":"tanning","phone":"519-853-1333","address":"130 Mill St W, Halton Hills, ON L7J 1G5","postalcode":"L7J 1G5","website":"http://sunbeachtanning.com","working_hour":"","latitude":"43.625644","longitude":"-80.044019"},{"source":"yellow page","service_name":"Been There...Bronzed That","category":"tanning","phone":"647-627-0144","address":"ON","postalcode":"","website":" ","working_hour":"Appointment Only","latitude":"","longitude":""},{"source":"yellow page","service_name":"Sol'exotica","category":"tanning","phone":"905-521-8267","address":"875 Main W, Hamilton, ON L8S 4P9","postalcode":"L8S 4P9","website":"http://www.serviceask.ca","working_hour":"Monday 9:00 am - 10:00 pm   Tuesday 9:00 am - 10:00 pm   Wednesday 9:00 am - 10:00 pm   Thursday 9:00 am - 10:00 pm   Friday 9:00 am - 10:00 pm   Saturday 9:00 am - 9:00 pm   Sunday 12:00 pm - 6:00 pm","latitude":"43.259301","longitude":"-79.901214"},{"source":"yellow page","service_name":"Sol'exotica","category":"tanning","phone":"905-387-2487","address":"558 Upper Gage Ave, Hamilton, ON L8V 4J6","postalcode":"L8V 4J6","website":"http://www.solexotica.com","working_hour":"Monday 9:00 am - 9:00 pm   Tuesday 9:00 am - 9:00 pm   Wednesday 9:00 am - 9:00 pm   Thursday 9:00 am - 9:00 pm   Friday 9:00 am - 9:00 pm   Saturday 9:00 am - 6:00 pm   Sunday 10:00 am - 4:00 pm","latitude":"43.228423","longitude":"-79.838911"},{"source":"yellow page","service_name":"Fabutan Sun Tan Studios","category":"tanning","phone":"905-318-9800","address":"550 Fennell Ave E, Hamilton, ON L8V 4S9","postalcode":"L8V 4S9","website":" ","working_hour":"","latitude":"43.232227","longitude":"-79.856327"},{"source":"yellow page","service_name":"Sol'exotica","category":"tanning","phone":"9055387538","address":"970 Upper James St, Hamilton, ON L9C 3A5","postalcode":"L9C 3A5","website":" ","working_hour":"Monday 9:00 am - 9:00 pm   Tuesday 9:00 am - 9:00 pm   Wednesday 9:00 am - 9:00 pm   Thursday 9:00 am - 9:00 pm   Friday 9:00 am - 9:00 pm   Saturday 9:00 am - 6:00 pm   Sunday 10:00 am - 4:00 pm","latitude":"43.223548","longitude":"-79.883855"},{"source":"yellow page","service_name":"Tuscany Sun Tanning","category":"tanning","phone":"9053187700","address":"880 Upper Wentworth St, Hamilton, ON L9A 5H2","postalcode":"L9A 5H2","website":" ","working_hour":"","latitude":"43.2203167","longitude":"-79.8633028"},{"source":"yellow page","service_name":"Hollywood Sunspot Two","category":"tanning","phone":"905-628-7866","address":"119 Osler Dr, Dundas, ON L9H 6X4","postalcode":"L9H 6X4","website":" ","working_hour":"Monday 9:00 am - 9:00 pm   Tuesday 9:00 am - 9:00 pm   Wednesday 9:00 am - 9:00 pm   Thursday 9:00 am - 9:00 pm   Friday 9:00 am - 9:00 pm   Saturday 9:00 am - 5:00 pm   Sunday 10:00 am - 5:00 pm","latitude":"43.258844","longitude":"-79.941315"},{"source":"yellow page","service_name":"Tropical Sunsations","category":"tanning","phone":"905-388-3486","address":"1550 Upper James St, Hamilton, ON L9B 2L6","postalcode":"L9B 2L6","website":"http://www.tropicalsunsations.ca","working_hour":"Monday 10:00 am - 9:30 pm   Tuesday 10:00 am - 9:30 pm   Wednesday 10:00 am - 9:30 pm   Thursday 10:00 am - 9:30 pm   Friday 10:00 am - 9:30 pm   Saturday 10:00 am - 6:00 pm   Sunday 12:00 pm - 5:30 pm","latitude":"43.203968","longitude":"-79.892577"},{"source":"yellow page","service_name":"Sol'exotica","category":"tanning","phone":"905-318-2555","address":"919 Upper Paradise Rd, Hamilton, ON L9B 2M9","postalcode":"L9B 2M9","website":" ","working_hour":"Monday 9:00 am - 9:00 pm   Tuesday 9:00 am - 9:00 pm   Wednesday 9:00 am - 9:00 pm   Thursday 9:00 am - 9:00 pm   Friday 9:00 am - 9:00 pm   Saturday 9:00 am - 6:00 pm   Sunday 10:00 am - 4:00 pm","latitude":"43.217894","longitude":"-79.918711"},{"source":"yellow page","service_name":"Sun-Quest Tanning","category":"tanning","phone":"905-389-3111","address":"1508 Upper James St, Hamilton, ON L9B 1K3","postalcode":"L9B 1K3","website":"http://www.sunquest.goldbook.ca","working_hour":"Monday 9:00 am - 10:00 pm   Tuesday 9:00 am - 10:00 pm   Wednesday 9:00 am - 10:00 pm   Thursday 9:00 am - 10:00 pm   Friday 9:00 am - 10:00 pm   Saturday 10:00 am - 7:00 pm","latitude":"43.205969","longitude":"-79.891665"},{"source":"yellow page","service_name":"The Healing Sol Tanning And Day Spa","category":"tanning","phone":"905-692-7499","address":"2200 Rymal Rd E, Binbrook, ON L0R 1P0","postalcode":"L0R 1P0","website":" ","working_hour":"","latitude":"43.171412","longitude":"-79.832225"},{"source":"yellow page","service_name":"Sunbreak Tanning Ltd","category":"tanning","phone":"905-648-8266","address":"356 Wilson St E, Ancaster, ON L9G 2C2","postalcode":"L9G 2C2","website":"http://www.sunbreak.ca","working_hour":"Monday 10:00 am - 9:00 pm   Tuesday 10:00 am - 9:00 pm   Wednesday 10:00 am - 9:00 pm   Thursday 10:00 am - 9:00 pm   Friday 10:00 am - 9:00 pm   Saturday 10:00 am - 6:00 pm   Sunday 10:00 am - 5:00 pm","latitude":"43.227074","longitude":"-79.976194"},{"source":"yellow page","service_name":"Sol'exotica","category":"tanning","phone":"905-648-7707","address":"7-1142 Wilson St W, Ancaster, ON L9G 3K9","postalcode":"L9G 3K9","website":" ","working_hour":"Monday 9:00 am - 9:00 pm   Tuesday 9:00 am - 9:00 pm   Wednesday 9:00 am - 9:00 pm   Thursday 9:00 am - 9:00 pm   Friday 9:00 am - 9:00 pm   Saturday 9:00 am - 6:00 pm   Sunday 10:00 am - 4:00 pm","latitude":"43.197532","longitude":"-80.018242"},{"source":"yellow page","service_name":"Sol'exotica","category":"tanning","phone":"905-304-8264","address":"1500 Sandhill Dr, Ancaster, ON L9G 4V5","postalcode":"L9G 4V5","website":" ","working_hour":"","latitude":"43.1911615","longitude":"-80.0332842"},{"source":"yellow page","service_name":"Sol'exotica","category":"tanning","phone":"4168668266","address":"200-718 Yonge St, Toronto, ON M4Y 2B3","postalcode":"M4Y 2B3","website":"http://www.solexotica.com","working_hour":"Monday 9:00 am - 9:00 pm   Tuesday 9:00 am - 9:00 pm   Wednesday 9:00 am - 9:00 pm   Thursday 9:00 am - 9:00 pm   Friday 9:00 am - 9:00 pm   Saturday 9:00 am - 6:00 pm   Sunday 12:00 pm - 6:00 pm","latitude":"43.668414","longitude":"-79.386049"},{"source":"yellow page","service_name":"Beauty Bar","category":"tanning","phone":"416-961-2826","address":"675 Yonge St, Toronto, ON M4Y 2B2","postalcode":"M4Y 2B2","website":"http://www.bellairtan.com","working_hour":"Monday 10:00 am - 8:00 pm   Tuesday 10:00 am - 8:00 pm   Wednesday 10:00 am - 8:00 pm   Thursday 10:00 am - 8:00 pm   Friday 10:00 am - 8:00 pm   Saturday 10:00 am - 6:00 pm","latitude":"43.668946","longitude":"-79.386022"},{"source":"yellow page","service_name":"L A Tan","category":"tanning","phone":"4164817722","address":"200-2291 Yonge St, Toronto, ON M4P 2C6","postalcode":"M4P 2C6","website":" ","working_hour":"Monday 10:00 am - 10:00 pm   Tuesday 10:00 am - 10:00 pm   Wednesday 10:00 am - 10:00 pm   Thursday 10:00 am - 10:00 pm   Friday 10:00 am - 10:00 pm   Saturday 10:00 am - 6:00 pm   Sunday 11:00 am - 6:00 pm","latitude":"43.707511","longitude":"-79.398529"},{"source":"yellow page","service_name":"Fabutan Sun Tan Studios","category":"tanning","phone":"4164237778","address":"844 Danforth Avenue, Toronto, ON M4J 1L7","postalcode":"M4J 1L7","website":"http://www.fabutan.com","working_hour":"Monday 10:00 am - 9:00 pm   Tuesday 10:00 am - 9:00 pm   Wednesday 10:00 am - 9:00 pm   Thursday 10:00 am - 9:00 pm   Friday 10:00 am - 9:00 pm   Saturday 11:00 am - 5:00 pm   Sunday 11:00 am - 5:00 pm","latitude":"43.679797","longitude":"-79.340405"},{"source":"yellow page","service_name":"Beach Glo Tanning & Hair Creations","category":"tanning","phone":"647-347-6311","address":"1938 Queen St E, Toronto, ON M4L 1H6","postalcode":"M4L 1H6","website":"http://www.beachglo.com","working_hour":"Monday 10:00 am - 9:00 pm   Tuesday 10:00 am - 9:00 pm   Wednesday 10:00 am - 9:00 pm   Thursday 10:00 am - 9:00 pm   Friday 10:00 am - 9:00 pm   Saturday 10:00 am - 6:00 pm   Sunday 11:00 am - 5:00 pm","latitude":"43.669363","longitude":"-79.303116"},{"source":"yellow page","service_name":"Club Tan Tanning Centres","category":"tanning","phone":"416-929-8267","address":"718 Yonge St, Toronto, ON M4Y 2B3","postalcode":"M4Y 2B3","website":"http://www.clubtan.com","working_hour":"","latitude":"43.668414","longitude":"-79.386049"},{"source":"yellow page","service_name":"Sol'exotica","category":"tanning","phone":"4168668266","address":"74 Front St E, Toronto, ON M5E 1X1","postalcode":"M5E 1X1","website":"http://www.solexotica.com","working_hour":"Monday 9:00 am - 9:00 pm   Tuesday 9:00 am - 9:00 pm   Wednesday 9:00 am - 9:00 pm   Thursday 9:00 am - 9:00 pm   Friday 9:00 am - 9:00 pm   Saturday 9:00 am - 6:00 pm   Sunday 12:00 pm - 6:00 pm","latitude":"43.648781","longitude":"-79.373141"},{"source":"yellow page","service_name":"Sol'exotica","category":"tanning","phone":"416-866-8266","address":"169 Church St, Toronto, ON M5B 1Y4","postalcode":"M5B 1Y4","website":"http://www.solexotica.com","working_hour":"Monday 9:00 am - 9:00 pm   Tuesday 9:00 am - 9:00 pm   Wednesday 9:00 am - 9:00 pm   Thursday 9:00 am - 9:00 pm   Friday 9:00 am - 9:00 pm   Saturday 9:00 am - 6:00 pm   Sunday 12:00 pm - 6:00 pm","latitude":"43.654479","longitude":"-79.376296"},{"source":"yellow page","service_name":"Classic Tan Three","category":"tanning","phone":"416-694-5159","address":"1819 Queen St E, Toronto, ON M4L 3Z6","postalcode":"M4L 3Z6","website":"http://www.classictan.ca","working_hour":"Monday 10:00 am - 9:00 pm   Tuesday 10:00 am - 9:00 pm   Wednesday 10:00 am - 9:00 pm   Thursday 10:00 am - 9:00 pm   Friday 10:00 am - 9:00 pm   Saturday 10:00 am - 6:00 pm   Sunday 10:00 am - 5:00 pm","latitude":"43.668331","longitude":"-79.307657"},{"source":"yellow page","service_name":"Vivid Tanning","category":"tanning","phone":"416-423-2044","address":"1019 Coxwell Ave, East York, ON M4C 3G4","postalcode":"M4C 3G4","website":" ","working_hour":"Monday 11:00 am - 9:00 pm   Tuesday 11:00 am - 9:00 pm   Wednesday 11:00 am - 9:00 pm   Thursday 11:00 am - 9:00 pm   Friday 11:00 am - 9:00 pm   Saturday 11:00 am - 7:00 pm   Sunday 12:00 pm - 6:00 pm","latitude":"43.696942","longitude":"-79.329189"},{"source":"yellow page","service_name":"Tanning Studio 426","category":"tanning","phone":"416-778-4083","address":"B 426 Danforth Av, Toronto, ON M4K 1P3","postalcode":"M4K 1P3","website":" ","working_hour":"Monday 11:00 am - 9:00 pm   Tuesday 11:00 am - 9:00 pm   Wednesday 11:00 am - 9:00 pm   Thursday 11:00 am - 9:00 pm   Friday 11:00 am - 9:00 pm   Saturday 11:00 am - 8:00 pm   Sunday 12:00 pm - 6:00 pm","latitude":"43.677785","longitude":"-79.351394"},{"source":"yellow page","service_name":"The Brow House","category":"tanning","phone":"4168049716","address":"ON M4M 1R9","postalcode":"M4M 1R9","website":" ","working_hour":"Tuesday 11:00 am - 8:00 pm   Wednesday 11:00 am - 8:00 pm   Thursday 11:00 am - 8:00 pm   Friday 11:00 am - 8:00 pm   Saturday 9:00 am - 5:00 pm","latitude":"43.663859","longitude":"-79.343442"},{"source":"yellow page","service_name":"Sunbanque","category":"tanning","phone":"416-488-5838","address":"2533A Yonge St, Toronto, ON M4P 2H9","postalcode":"M4P 2H9","website":"http://www.sunbanque.ca","working_hour":"Monday 9:00 am - 9:00 pm   Tuesday 9:00 am - 9:00 pm   Wednesday 9:00 am - 9:00 pm   Thursday 9:00 am - 9:00 pm   Friday 9:00 am - 9:00 pm   Saturday 9:00 am - 6:00 pm   Sunday 9:00 am - 6:00 pm","latitude":"43.712947","longitude":"-79.399696"},{"source":"yellow page","service_name":"Bellair Tan","category":"tanning","phone":"416-485-4859","address":"2-2301 Yonge St, Toronto, ON M4P 2C6","postalcode":"M4P 2C6","website":" ","working_hour":"Monday 10:00 am - 9:00 pm   Tuesday 10:00 am - 9:00 pm   Wednesday 10:00 am - 9:00 pm   Thursday 10:00 am - 9:00 pm   Friday 10:00 am - 9:00 pm   Saturday 10:00 am - 6:00 pm","latitude":"43.707704","longitude":"-79.398574"},{"source":"yellow page","service_name":"Sol Exotica Tanning","category":"tanning","phone":"6473520088","address":"74 Front St E, Toronto, ON M5E 1X1","postalcode":"M5E 1X1","website":" ","working_hour":"","latitude":"43.648781","longitude":"-79.373141"},{"source":"yellow page","service_name":"Bora Bora Tanning","category":"tanning","phone":"416-323-8826","address":"73 Charles St E, Toronto, ON M4Y 1V2","postalcode":"M4Y 1V2","website":"http://boraboratanning.com","working_hour":"Monday 11:00 am - 8:00 pm   Tuesday 11:00 am - 8:00 pm   Wednesday 11:00 am - 8:00 pm   Thursday 11:00 am - 8:00 pm   Friday 11:00 am - 8:00 pm   Saturday 11:00 am - 6:00 pm   Sunday 12:00 pm - 4:00 pm","latitude":"43.669493","longitude":"-79.382107"},{"source":"yellow page","service_name":"The Yonge & St Clair Tanning","category":"tanning","phone":"416-923-2411","address":"13 St Clair Av W, ON M4V 1K6","postalcode":"M4V 1K6","website":" ","working_hour":"","latitude":"43.687897","longitude":"-79.394735"},{"source":"yellow page","service_name":"Yonge & St Clair Tanning Spa Inc The","category":"tanning","phone":"416-923-2411","address":"13A St.Clair Ave West, Toronto, ON M4V 1K6","postalcode":"M4V 1K6","website":" ","working_hour":"Monday 10:00 am - 9:00 pm   Tuesday 10:00 am - 9:00 pm   Wednesday 10:00 am - 9:00 pm   Thursday 10:00 am - 9:00 pm   Friday 10:00 am - 9:00 pm   Saturday 10:00 am - 8:00 pm   Sunday 11:00 am - 6:00 pm","latitude":"43.687902","longitude":"-79.394711"},{"source":"yellow page","service_name":"Bronzeado Tanning","category":"tanning","phone":"416-987-1987","address":"2030 Yonge St, Toronto, ON M4S 1Z9","postalcode":"M4S 1Z9","website":"http://bronzeadotanspa.blogspot.com/","working_hour":"Monday 9:00 am - 5:00 pm   Tuesday 9:00 am - 5:00 pm   Wednesday 9:00 am - 5:00 pm   Thursday 9:00 am - 5:00 pm   Friday 9:00 am - 5:00 pm","latitude":"43.701204","longitude":"-79.397247"},{"source":"yellow page","service_name":"Glotique","category":"tanning","phone":"647-352-4569","address":"2919 Dufferin St, North York, ON M6B 3S7","postalcode":"M6B 3S7","website":" ","working_hour":"","latitude":"43.708786","longitude":"-79.453589"},{"source":"yellow page","service_name":"Sunset Beach Tanning Resort Inc","category":"tanning","phone":"647-558-3081","address":"3-1480 St Clair Ave W, Toronto, ON M6E 1C7","postalcode":"M6E 1C7","website":"http://www.sunsetbeach-tanning.com","working_hour":"Monday 10:00 am - 9:00 pm   Tuesday 10:00 am - 9:00 pm   Wednesday 10:00 am - 9:00 pm   Thursday 10:00 am - 9:00 pm   Friday 10:00 am - 9:00 pm   Saturday 10:00 am - 8:00 pm   Sunday 11:00 am - 6:00 pm","latitude":"43.675618","longitude":"-79.453792"},{"source":"yellow page","service_name":"Sol'Exotica Tanning Spa","category":"tanning","phone":"4163661331","address":"74 Front St E, Toronto, ON M5E 1X1","postalcode":"M5E 1X1","website":" ","working_hour":"Monday 9:00 am - 10:00 pm   Tuesday 9:00 am - 10:00 pm   Wednesday 9:00 am - 10:00 pm   Thursday 9:00 am - 10:00 pm   Friday 9:00 am - 10:00 pm   Saturday 9:00 am - 9:00 pm   Sunday 12:00 pm - 6:00 pm","latitude":"43.648781","longitude":"-79.373141"},{"source":"yellow page","service_name":"Tan On The Run","category":"tanning","phone":"6476889003","address":"Z6Z 6Z6","postalcode":"Z6Z 6Z6","website":" ","working_hour":"","latitude":"43.651893","longitude":"-79.381713"},{"source":"yellow page","service_name":"Soleil Tanning And Spa","category":"tanning","phone":"416-363-6649","address":"B 239 Yonge, Toronto, ON M5B 1N8","postalcode":"M5B 1N8","website":"http://www.soleiltanningspa.ca","working_hour":"Monday 10:00 am - 9:00 pm   Tuesday 10:00 am - 9:00 pm   Wednesday 10:00 am - 9:00 pm   Thursday 10:00 am - 9:00 pm   Friday 10:00 am - 9:00 pm   Saturday 10:00 am - 7:00 pm   Sunday 12:00 pm - 6:00 pm","latitude":"43.654878","longitude":"-79.380143"},{"source":"yellow page","service_name":"The Brow House","category":"tanning","phone":"6473517078","address":"80 Scollard St, Toronto, ON M5R 1G2","postalcode":"M5R 1G2","website":"http://www.thebrowhouse.com","working_hour":"Tuesday 11:30 am - 7:30 pm   Wednesday 11:30 am - 7:30 pm   Thursday 10:00 am - 7:00 pm   Friday 10:00 am - 7:00 pm   Saturday 9:00 am - 4:00 pm","latitude":"43.671973","longitude":"-79.391306"},{"source":"yellow page","service_name":"Beau Soleil Tanning","category":"tanning","phone":"9058640622","address":"Milton, ON","postalcode":"","website":" ","working_hour":"","latitude":"43.651893","longitude":"-79.381713"},{"source":"yellow page","service_name":"Tropical Paradise Tanning","category":"tanning","phone":"5197581187","address":"156 Market St, Brantford, ON N3T 3A4","postalcode":"N3T 3A4","website":"http://tropicalparadisetanning.ca","working_hour":"","latitude":"43.651893","longitude":"-79.381713"},{"source":"yellow page","service_name":"Sun Vibes Tanning","category":"tanning","phone":"6474089176","address":"ON","postalcode":"","website":" ","working_hour":"","latitude":"43.651893","longitude":"-79.381713"},{"source":"yellow page","service_name":"Agi's Tanning","category":"tanning","phone":"416-538-7929","address":"454 Bloor St W, Toronto, ON M5S 1X8","postalcode":"M5S 1X8","website":"http://www.agistanning.com","working_hour":"Monday 11:00 am - 8:00 pm   Tuesday 11:00 am - 8:00 pm   Wednesday 11:00 am - 8:00 pm   Thursday 11:00 am - 8:00 pm   Friday 11:00 am - 8:00 pm   Saturday 12:00 pm - 6:00 pm","latitude":"43.665591","longitude":"-79.409014"},{"source":"yellow page","service_name":"Modern Hair Design","category":"tanning","phone":"416-603-8596","address":"126 Denison Ave, Toronto, ON M5T 2N3","postalcode":"M5T 2N3","website":" ","working_hour":"","latitude":"43.652168","longitude":"-79.402323"},{"source":"yellow page","service_name":"Silver Sands Tanning Spa","category":"tanning","phone":"4163040222","address":"123 Queen St W, Toronto, ON M5H 3M9","postalcode":"M5H 3M9","website":"http://www.sensesspa.com","working_hour":"Monday 10:00 am - 8:00 pm   Tuesday 10:00 am - 8:00 pm   Wednesday 10:00 am - 8:00 pm   Thursday 10:00 am - 8:00 pm   Friday 10:00 am - 8:00 pm   Saturday 10:00 am - 6:00 pm   Sunday 10:00 am - 6:00 pm","latitude":"43.651576","longitude":"-79.383227"},{"source":"yellow page","service_name":"Toronto Spray Tanning","category":"tanning","phone":"647-500-3026","address":"8 Telegram Mews, ON Z3Z 3Z3","postalcode":"Z3Z 3Z3","website":" ","working_hour":"","latitude":"43.640551","longitude":"-79.394636"},{"source":"yellow page","service_name":"Ritual","category":"tanning","phone":"416-306-0040","address":"571 Wellington St W, Toronto, ON M5V 1G3","postalcode":"M5V 1G3","website":" ","working_hour":"Monday 10:00 am - 9:00 pm   Tuesday 10:00 am - 9:00 pm   Wednesday 10:00 am - 9:00 pm   Thursday 10:00 am - 9:00 pm   Friday 10:00 am - 9:00 pm   Saturday 9:00 am - 6:00 pm   Sunday 10:00 am - 5:00 pm","latitude":"43.64249","longitude":"-79.402948"},{"source":"yellow page","service_name":"Solace Tanning Studio","category":"tanning","phone":"416-345-8484","address":"464 Queens Quay W, Toronto, ON M5V 2Y3","postalcode":"M5V 2Y3","website":"http://www.solacetanning.com","working_hour":"Monday 10:00 am - 9:00 pm   Tuesday 10:00 am - 9:00 pm   Wednesday 10:00 am - 9:00 pm   Thursday 10:00 am - 9:00 pm   Friday 10:00 am - 9:00 pm   Saturday 10:00 am - 7:00 pm   Sunday 10:00 am - 9:00 pm","latitude":"43.6376034","longitude":"-79.3924763"},{"source":"yellow page","service_name":"Tans Unlimited","category":"tanning","phone":"416-536-3888","address":"1562 Bloor St W, Toronto, ON M6P 1A4","postalcode":"M6P 1A4","website":" ","working_hour":"Monday 10:00 am - 10:00 pm   Tuesday 10:00 am - 10:00 pm   Wednesday 10:00 am - 10:00 pm   Thursday 10:00 am - 10:00 pm   Friday 10:00 am - 10:00 pm   Saturday 10:00 am - 7:00 pm   Sunday 10:00 am - 7:00 pm","latitude":"43.65611","longitude":"-79.453534"},{"source":"yellow page","service_name":"Unique Touch","category":"tanning","phone":"6475582567","address":"426 Ossington Ave, Toronto, ON M6J 3A7","postalcode":"M6J 3A7","website":"http://www.uniquetouch.ca","working_hour":"","latitude":"43.653964","longitude":"-79.422538"},{"source":"yellow page","service_name":"Instant Attraction Spray Tanning","category":"tanning","phone":"604-341-7185","address":"Toronto, M5V 3W5","postalcode":"M5V 3W5","website":" ","working_hour":"","latitude":"43.635558","longitude":"-79.401893"},{"source":"yellow page","service_name":"Labella Sole Tanning Loune Inc","category":"tanning","phone":"4165888266","address":"100 Western Battery Rd, Toronto, ON M6K 3S2","postalcode":"M6K 3S2","website":" ","working_hour":"","latitude":"43.639553","longitude":"-79.416142"},{"source":"yellow page","service_name":"Fembotika","category":"tanning","phone":"6477482234","address":"147 Liberty St, Toronto, ON M6K 3G3","postalcode":"M6K 3G3","website":" ","working_hour":"Monday 11:00 am - 7:00 pm   Tuesday 11:00 am - 7:00 pm   Wednesday 11:00 am - 7:00 pm   Thursday 11:00 am - 7:00 pm   Friday 11:00 am - 7:00 pm   Saturday 11:00 am - 7:00 pm","latitude":"43.637523","longitude":"-79.424485"},{"source":"yellow page","service_name":"Luxe Tanning Studio","category":"tanning","phone":"416-901-9333","address":"171 E Liberty St, Toronto, ON M6K 3P6","postalcode":"M6K 3P6","website":"http://www.luxetanningstudio.com","working_hour":"Monday 10:00 am - 9:00 pm   Tuesday 10:00 am - 9:00 pm   Wednesday 10:00 am - 9:00 pm   Thursday 10:00 am - 9:00 pm   Friday 10:00 am - 9:00 pm   Saturday 10:00 am - 7:00 pm   Sunday 10:00 am - 5:00 pm","latitude":"43.638728","longitude":"-79.417647"},{"source":"yellow page","service_name":"Dark Dezire","category":"tanning","phone":"905-774-6918","address":"311 Queen St, Dunnville, ON N1A 1J1","postalcode":"N1A 1J1","website":" ","working_hour":"","latitude":"42.9023173","longitude":"-79.6149381"},{"source":"yellow page","service_name":"Tan Unlimited","category":"tanning","phone":"519-763-6168","address":"3-206 Speedvale Ave W, Guelph, ON N1H 1C4","postalcode":"N1H 1C4","website":"http://tanunlimited.ca","working_hour":"Monday 9:00 am - 9:00 pm   Tuesday 9:00 am - 9:00 pm   Wednesday 9:00 am - 9:00 pm   Thursday 9:00 am - 9:00 pm   Friday 9:00 am - 9:00 pm   Saturday 10:00 am - 6:00 pm   Sunday 12:00 am - 6:00 pm","latitude":"43.549591","longitude":"-80.28026"},{"source":"yellow page","service_name":"Bronze Ambition Inc","category":"tanning","phone":"519-822-8888","address":"1-951 Gordon St, Guelph, ON N1G 4S1","postalcode":"N1G 4S1","website":" ","working_hour":"Monday 9:00 am - 10:00 pm   Tuesday 9:00 am - 10:00 pm   Wednesday 9:00 am - 10:00 pm   Thursday 9:00 am - 10:00 pm   Friday 9:00 am - 10:00 pm   Saturday 9:00 am - 6:00 pm   Sunday 10:00 am - 5:00 pm","latitude":"43.5220847","longitude":"-80.2126811"},{"source":"yellow page","service_name":"Midnight Sun","category":"tanning","phone":"519-836-7900","address":"7-292 Stone Rd W, Guelph, ON N1G 3C4","postalcode":"N1G 3C4","website":"http://www.midnightsunguelph.com","working_hour":"Monday 8:30 am - 9:30 pm   Tuesday 8:30 am - 9:30 pm   Wednesday 8:30 am - 9:30 pm   Thursday 8:30 am - 9:30 pm   Friday 8:30 am - 9:30 pm   Saturday 9:00 am - 7:00 pm   Sunday 10:00 am - 5:00 pm","latitude":"43.519393","longitude":"-80.234397"},{"source":"yellow page","service_name":"Fabutan Sun Tan Studios","category":"tanning","phone":"519-827-1911","address":"3-374 Speedvale Avenue East, Guelph, ON N1E 1N5","postalcode":"N1E 1N5","website":"http://fabutan.com","working_hour":"Monday 9:00 am - 9:00 pm   Tuesday 9:00 am - 9:00 pm   Wednesday 9:00 am - 9:00 pm   Thursday 9:00 am - 9:00 pm   Friday 9:00 am - 8:00 pm   Saturday 10:00 am - 4:00 pm   Sunday 11:00 am - 3:00 pm","latitude":"43.5669937","longitude":"-80.2564953"},{"source":"yellow page","service_name":"Power Tans","category":"tanning","phone":"519-741-1504","address":"4-842 Victoria St N, Kitchener, ON N2B 3C1","postalcode":"N2B 3C1","website":" ","working_hour":"","latitude":"43.463459","longitude":"-80.466867"},{"source":"yellow page","service_name":"Fabutan Sun Tan Studios","category":"tanning","phone":"519-265-8786","address":"25-35 Harvard Road, Guelph, ON N1G 3A2","postalcode":"N1G 3A2","website":"http://www.fabutan.com/","working_hour":"","latitude":"43.524091","longitude":"-80.222163"},{"source":"yellow page","service_name":"Planet Beach Tanning Salons","category":"tanning","phone":"5197253632","address":"2-354 King St N, Waterloo, ON N2J 2Z2","postalcode":"N2J 2Z2","website":"http://planet-beach-tanning-salo-waterloo.kitchenerwaterloodirect.info","working_hour":"Monday 10:00 am - 7:00 pm   Tuesday 10:00 am - 7:00 pm   Wednesday 10:00 am - 7:00 pm   Thursday 10:00 am - 7:00 pm   Friday 10:00 am - 7:00 pm   Saturday 10:00 am - 6:00 pm","latitude":"43.481349","longitude":"-80.526013"},{"source":"yellow page","service_name":"More Than Hair","category":"tanning","phone":"519-364-6296","address":"158 10th St, Hanover, ON N4N 1N5","postalcode":"N4N 1N5","website":" ","working_hour":"","latitude":"44.151525","longitude":"-81.033137"},{"source":"yellow page","service_name":"Elite Bronzing Studio","category":"tanning","phone":"519-886-6868","address":"55 Northfield Dr E, Waterloo, ON N2K 3T6","postalcode":"N2K 3T6","website":"http://www.elitebronzingstudio.com","working_hour":"Monday 9:00 am - 9:00 pm   Tuesday 9:00 am - 9:00 pm   Wednesday 9:00 am - 9:00 pm   Thursday 9:00 am - 9:00 pm   Friday 9:00 am - 9:00 pm   Saturday 10:00 am - 5:00 pm   Sunday 12:00 pm - 4:00 pm   Seasonal Hours From July 1st-Nov 31st.","latitude":"43.503526","longitude":"-80.528068"},{"source":"yellow page","service_name":"Sun Magic Tanning Spa","category":"tanning","phone":"519-584-1977","address":"425 University Ave E, Waterloo, ON N2K 4C9","postalcode":"N2K 4C9","website":"http://tanningsalonskitchener.ca","working_hour":"Monday 10:00 am - 8:00 pm   Tuesday 10:00 am - 8:00 pm   Wednesday 10:00 am - 8:00 pm   Thursday 8:00 am - 8:00 pm   Friday 10:00 am - 8:00 pm   Saturday 10:00 am - 5:00 pm","latitude":"43.48987","longitude":"-80.492931"},{"source":"yellow page","service_name":"Mane Street Tanning","category":"tanning","phone":"519-371-2198","address":"181 8th St E, Owen Sound, ON N4K 1K9","postalcode":"N4K 1K9","website":" ","working_hour":"","latitude":"44.563826","longitude":"-80.942718"},{"source":"yellow page","service_name":"Tan Unlimited Corp","category":"tanning","phone":"519-364-1400","address":"732 10th St, Hanover, ON N4N 1S2","postalcode":"N4N 1S2","website":" ","working_hour":"Monday 9:00 am - 9:00 pm   Tuesday 9:00 am - 9:00 pm   Wednesday 9:00 am - 9:00 pm   Thursday 9:00 am - 9:00 pm   Friday 9:00 am - 9:00 pm   Saturday 10:00 am - 5:00 pm   Sunday 12:00 pm - 5:00 pm","latitude":"44.154613","longitude":"-81.011669"},{"source":"yellow page","service_name":"Glow Tanning Salon Esthetics","category":"tanning","phone":"5197631862","address":"235 Starwood Dr, Guelph, ON N1E 7M5","postalcode":"N1E 7M5","website":" ","working_hour":"","latitude":"43.5666697","longitude":"-80.2208334"},{"source":"yellow page","service_name":"Sunpoint","category":"tanning","phone":"519-372-0525","address":"847 2nd Ave E, Owen Sound, ON N4K 2H2","postalcode":"N4K 2H2","website":" ","working_hour":"","latitude":"44.5647582","longitude":"-80.9426109"},{"source":"yellow page","service_name":"Beachflix Video","category":"tanning","phone":"519-422-3322","address":"6 Southampton Pky, Sauble Beach, ON N0H 2G0","postalcode":"N0H 2G0","website":"http://thecococlub.ca","working_hour":"","latitude":"44.6291805","longitude":"-81.2646915"},{"source":"yellow page","service_name":"Sun Spa","category":"tanning","phone":"519-416-7867","address":"797 9th Ave E, Owen Sound, ON N4K 3E6","postalcode":"N4K 3E6","website":" ","working_hour":"Monday 8:00 am - 9:00 pm   Tuesday 8:00 am - 9:00 pm   Wednesday 8:00 am - 9:00 pm   Thursday 8:00 am - 9:00 pm   Friday 8:00 am - 9:00 pm   Saturday 10:00 am - 6:00 pm   Sunday 11:00 am - 5:00 pm","latitude":"44.5655144","longitude":"-80.9274342"},{"source":"yellow page","service_name":"Paradise Tans Plus","category":"tanning","phone":"519-371-8100","address":"779 2nd Ave E, Owen Sound, ON N4K 2G9","postalcode":"N4K 2G9","website":"http://www.facebook.com/ParadiseTansPlus","working_hour":"Monday 8:00 am - 8:00 pm   Tuesday 8:00 am - 8:00 pm   Wednesday 8:00 am - 8:00 pm   Thursday 8:00 am - 8:00 pm   Friday 8:00 am - 8:00 pm   Saturday 10:00 am - 5:00 pm   Sunday 10:00 am - 3:00 pm","latitude":"44.563451","longitude":"-80.942358"},{"source":"yellow page","service_name":"Simcoe Health & Fitness Centre","category":"tanning","phone":"519-426-0900","address":"55 Kent St N, Simcoe, ON N3Y 3S3","postalcode":"N3Y 3S3","website":"http://www.simfit.ca","working_hour":"","latitude":"42.8382644","longitude":"-80.305579"},{"source":"yellow page","service_name":"Sunsations","category":"tanning","phone":"519-268-7522","address":"4216 Catherine, Dorchester, ON N0L 1G0","postalcode":"N0L 1G0","website":" ","working_hour":"","latitude":"42.9905286","longitude":"-81.061907"},{"source":"yellow page","service_name":"Tan To Perfection","category":"tanning","phone":"519-426-6010","address":"95 Queensway W, Simcoe, ON N3Y 2M8","postalcode":"N3Y 2M8","website":"http://www.tantoperfection.ca","working_hour":"Monday 10:00 am - 8:00 pm   Tuesday 10:00 am - 8:00 pm   Wednesday 10:00 am - 8:00 pm   Thursday 10:00 am - 8:00 pm   Friday 10:00 am - 6:00 pm   Saturday 10:00 am - 4:00 pm   Sunday 10:00 am - 4:00 pm","latitude":"42.845455","longitude":"-80.311049"},{"source":"yellow page","service_name":"Country Tanning","category":"tanning","phone":"519-863-4022","address":"21 Stover St S, Norwich, ON N0J 1P0","postalcode":"N0J 1P0","website":" ","working_hour":"","latitude":"42.985452","longitude":"-80.596856"},{"source":"yellow page","service_name":"Tanner's Studio Inc","category":"tanning","phone":"519-926-9966","address":"120 Thames N, Ingersoll, ON N5C 4B1","postalcode":"N5C 4B1","website":"http://www.tanners.ca/","working_hour":"","latitude":"43.042518","longitude":"-80.887608"},{"source":"yellow page","service_name":"Paradise Island Tanning Spa","category":"tanning","phone":"519-752-5122","address":"43 Oak St, Brantford, ON N3T 2A9","postalcode":"N3T 2A9","website":" ","working_hour":"","latitude":"43.134097","longitude":"-80.273739"},{"source":"yellow page","service_name":"SunRaze Tanning Studio","category":"tanning","phone":"9057688267","address":"16 Main N, Hagersville, ON N0A 1H0","postalcode":"N0A 1H0","website":" ","working_hour":"","latitude":"43.00963","longitude":"-80.055794"},{"source":"yellow page","service_name":"Ocean Dreams Indoor Tanning","category":"tanning","phone":"519-750-1234","address":"5-206 King George Rd, Brantford, ON N3R 5L3","postalcode":"N3R 5L3","website":"http://www.oceandreamstanning.com/","working_hour":"Monday 9:30 am - 9:00 pm   Tuesday 9:30 am - 9:00 pm   Wednesday 9:30 am - 9:00 pm   Thursday 9:30 am - 9:00 pm   Friday 9:30 am - 8:30 pm   Saturday 10:00 am - 5:00 pm   Sunday 11:00 am - 4:00 pm","latitude":"43.174584","longitude":"-80.278431"},{"source":"yellow page","service_name":"Tanner's Studio","category":"tanning","phone":"519-688-5555","address":"523 Broadway St, Tillsonburg, ON N4G 3S8","postalcode":"N4G 3S8","website":"http://www.tanners.ca","working_hour":"Monday 9:00 am - 8:00 pm   Tuesday 9:00 am - 8:00 pm   Wednesday 9:00 am - 8:00 pm   Thursday 9:00 am - 8:00 pm   Friday 9:00 am - 6:00 pm   Saturday 9:00 am - 4:00 pm   Sunday 9:00 am - 1:00 pm","latitude":"42.875371","longitude":"-80.743277"},{"source":"yellow page","service_name":"Java Tanning Studio","category":"tanning","phone":"519-304-8267","address":"2-71 Charing Cross St, Brantford, ON N3R 2H4","postalcode":"N3R 2H4","website":"http://www.javatanningstudio.ca","working_hour":"Monday 9:00 am - 8:00 pm   Tuesday 9:00 am - 8:00 pm   Wednesday 9:00 am - 8:00 pm   Thursday 9:00 am - 8:00 pm   Friday 9:00 am - 8:00 pm   Saturday 11:00 am - 5:00 pm   Sunday 12:00 am - 5:00 pm","latitude":"43.160514","longitude":"-80.268077"},{"source":"yellow page","service_name":"Tan Unlimited","category":"tanning","phone":"519-533-6119","address":"11 Huron St, Woodstock, ON N4S 6Y9","postalcode":"N4S 6Y9","website":" ","working_hour":"Monday 9:00 am - 9:00 pm   Tuesday 9:00 am - 9:00 pm   Wednesday 9:00 am - 9:00 pm   Thursday 9:00 am - 9:00 pm   Friday 9:00 am - 9:00 pm   Saturday 10:00 am - 6:00 pm   Sunday 12:00 am - 6:00 pm","latitude":"43.132012","longitude":"-80.747262"},{"source":"yellow page","service_name":"Brett's Hair Design","category":"tanning","phone":"5197588708","address":"584 Colborne St, Brantford, ON N3S 3P6","postalcode":"N3S 3P6","website":" ","working_hour":"Monday 8:00 am - 8:00 pm   Tuesday 8:00 am - 8:00 pm   Wednesday 8:00 am - 8:00 pm   Thursday 8:00 am - 8:00 pm   Friday 7:00 am - 8:00 pm   Saturday 8:00 am - 4:00 pm","latitude":"43.139825","longitude":"-80.244196"},{"source":"yellow page","service_name":"Twilight Tanning Salon","category":"tanning","phone":"519-304-5015","address":"12-320 Colborne St W, Brantford, ON N3T 1M2","postalcode":"N3T 1M2","website":"http://www.twilighttanning.com","working_hour":"Monday 9:00 am - 9:00 pm   Tuesday 9:00 am - 9:00 pm   Wednesday 9:00 am - 9:00 pm   Thursday 9:00 am - 9:00 pm   Friday 9:00 am - 9:00 pm   Saturday 9:00 am - 6:00 pm   Sunday 10:00 am - 5:00 pm","latitude":"43.1313953","longitude":"-80.2867333"},{"source":"yellow page","service_name":"Tan Factory","category":"tanning","phone":"519-631-6446","address":"1010 Talbot St, St Thomas, ON","postalcode":"","website":"http://www.tanfactory.ca/","working_hour":"","latitude":"42.778795","longitude":"-81.17742"},{"source":"yellow page","service_name":"Beaches 'N Dreams Tanning Salon","category":"tanning","phone":"5195394826","address":"220 Springbank Ave N, Woodstock, ON N4S 7R3","postalcode":"N4S 7R3","website":"http://www.beachesndreams.ca/","working_hour":"Monday 9:00 am - 9:00 pm   Tuesday 9:00 am - 9:00 pm   Wednesday 9:00 am - 9:00 pm   Thursday 9:00 am - 9:00 pm   Friday 9:00 am - 9:00 pm   Saturday 9:00 am - 5:00 pm   Sunday 11:00 am - 5:00 pm","latitude":"43.142556","longitude":"-80.733909"},{"source":"yellow page","service_name":"Forever Summer Tanning","category":"tanning","phone":"519-582-1100","address":"63 King St, Delhi, ON N4B 1X7","postalcode":"N4B 1X7","website":" ","working_hour":"","latitude":"42.855109","longitude":"-80.496215"},{"source":"yellow page","service_name":"Solar Reflections Tanning Spas","category":"tanning","phone":"519-442-4995","address":"1084 Rest Acres, Paris, ON N3L 3E3","postalcode":"N3L 3E3","website":" ","working_hour":"","latitude":"43.164896","longitude":"-80.36821"},{"source":"yellow page","service_name":"Stand & Tan","category":"tanning","phone":"226-401-0750","address":"7-225 Fairview Dr, Brantford, ON N3R 7E3","postalcode":"N3R 7E3","website":" ","working_hour":"Monday 8:00 am - 9:00 pm   Tuesday 8:00 am - 9:00 pm   Wednesday 8:00 am - 9:00 pm   Thursday 8:00 am - 9:00 pm   Friday 8:00 am - 7:30 pm   Saturday 10:00 am - 4:30 pm   Sunday 11:00 am - 4:00 pm   Summer Hours: MON-THURS 8-9 Fri 8-8 Sat 9-3:30 Sun 10-3","latitude":"43.17021","longitude":"-80.261903"},{"source":"yellow page","service_name":"Midnight","category":"tanning","phone":"226-663-2562","address":"160 River Run Terr, London, ON N5W 5Z2","postalcode":"N5W 5Z2","website":" ","working_hour":"","latitude":"42.9753065","longitude":"-81.1669106"},{"source":"yellow page","service_name":"Madica Tan Lines","category":"tanning","phone":"519-600-2826","address":"11 Main St, Seaforth, ON N0K 1W0","postalcode":"N0K 1W0","website":" ","working_hour":"","latitude":"43.553042","longitude":"-81.393679"},{"source":"yellow page","service_name":"Tropix","category":"tanning","phone":"5193967861","address":"928 Queen St, Kincardine, ON N2Z 2Y2","postalcode":"N2Z 2Y2","website":" ","working_hour":"","latitude":"44.180125","longitude":"-81.6329109"},{"source":"yellow page","service_name":"Sun Village Tanning","category":"tanning","phone":"519-832-3343","address":"616 Goderich St, Saugeen Shores, ON","postalcode":"","website":" ","working_hour":"Monday 11:00 am - 6:00 pm   Tuesday 11:00 am - 6:00 pm   Wednesday 11:00 am - 6:00 pm   Thursday 11:00 am - 8:00 pm   Friday 11:00 am - 6:00 pm   Saturday 10:00 am - 3:00 pm","latitude":"44.4362192","longitude":"-81.38887"},{"source":"yellow page","service_name":"Atlas Tanning & Dyeing Ltd","category":"tanning","phone":"519-523-4595","address":"82790 London Rd, Blyth, ON N0M 1H0","postalcode":"N0M 1H0","website":"http://www.theoldmill.ca","working_hour":"","latitude":"43.726853","longitude":"-81.448678"},{"source":"yellow page","service_name":"Bodi Bronz Tanning","category":"tanning","phone":"519-524-4100","address":"38 Victoria St N, Goderich, ON N7A 2R6","postalcode":"N7A 2R6","website":" ","working_hour":"Call For Details: Sunday, Monday, Tuesday, Wednesday, Thursday, Friday, Saturday.","latitude":"43.7443957","longitude":"-81.7077663"},{"source":"yellow page","service_name":"Astrids Hair Styling & Tanning","category":"tanning","phone":"519-349-2750","address":"261 Brock St, Lakeside, ON N0M 2G0","postalcode":"N0M 2G0","website":" ","working_hour":"","latitude":"43.191601","longitude":"-81.053331"},{"source":"yellow page","service_name":"Fabutan Sun Tan Studios","category":"tanning","phone":"519-624-5166","address":"37-130 Cedar St, Cambridge, ON N1S 1W4","postalcode":"N1S 1W4","website":"http://fabutan.com","working_hour":"Monday 9:00 am - 8:00 pm   Tuesday 9:00 am - 8:00 pm   Wednesday 9:00 am - 8:00 pm   Thursday 9:00 am - 8:00 pm   Friday 9:00 am - 8:00 pm   Saturday 11:00 am - 3:00 pm   Sunday 11:00 am - 3:00 pm","latitude":"43.351605","longitude":"-80.32877"},{"source":"yellow page","service_name":"Envy Tanning Studio","category":"tanning","phone":"519-745-5550","address":"192 Activa Ave, Kitchener, ON N2E 4K5","postalcode":"N2E 4K5","website":" ","working_hour":"Monday 9:00 am - 8:00 pm   Tuesday 9:00 am - 8:00 pm   Wednesday 9:00 am - 8:00 pm   Thursday 9:00 am - 8:00 pm   Friday 9:00 am - 8:00 pm   Saturday 10:00 am - 3:00 pm","latitude":"43.406224","longitude":"-80.512909"},{"source":"yellow page","service_name":"Perfect Son Tanning Studio","category":"tanning","phone":"519-273-6999","address":"1060 Ontario St, Stratford, ON N5A 6Z3","postalcode":"N5A 6Z3","website":" ","working_hour":"","latitude":"43.3707786","longitude":"-80.9450473"},{"source":"yellow page","service_name":"Cuts Plus","category":"tanning","phone":"5192352887","address":"363 Main S, Exeter, ON N0M 1S0","postalcode":"N0M 1S0","website":" ","working_hour":"Monday 10:00 am - 7:00 pm   Tuesday 10:00 am - 7:00 pm   Wednesday 10:00 am - 7:00 pm   Thursday 10:00 am - 7:00 pm   Friday 10:00 am - 7:00 pm   Saturday 10:00 am - 6:00 pm","latitude":"43.346686","longitude":"-81.480474"},{"source":"yellow page","service_name":"A J's Sun Studio","category":"tanning","phone":"519-271-6244","address":"10 Downie St, Stratford, ON N5A 7K4","postalcode":"N5A 7K4","website":" ","working_hour":"","latitude":"43.371141","longitude":"-80.982202"},{"source":"yellow page","service_name":"Sun Rayz Tanning","category":"tanning","phone":"519-284-4826","address":"113 Queen Street East, Saint Marys, ON N4X 1B9","postalcode":"N4X 1B9","website":" ","working_hour":"Monday 9:30 am - 6:00 pm   Tuesday 9:30 am - 6:00 pm   Wednesday 9:30 am - 6:00 pm   Thursday 9:30 am - 6:30 pm   Friday 9:30 am - 6:30 pm   Saturday 9:00 am - 5:00 pm   Sunday 11:00 am - 3:00 pm","latitude":"43.2593906","longitude":"-81.142356"},{"source":"yellow page","service_name":"Tanners Sun Salon","category":"tanning","phone":"519-272-2826","address":"30 Queensland Rd, Stratford, ON N4Z 1H4","postalcode":"N4Z 1H4","website":" ","working_hour":"","latitude":"43.3612209","longitude":"-81.0077505"},{"source":"yellow page","service_name":"Eclipse Hair Styling","category":"tanning","phone":"519-235-1880","address":"50 Thames Rd W SS 3, Exeter, ON N0M 1S3","postalcode":"N0M 1S3","website":" ","working_hour":"","latitude":"43.3615497","longitude":"-81.4855375"},{"source":"yellow page","service_name":"Euro Sun Tanning Salon Inc","category":"tanning","phone":"519-850-7312","address":"60 N Centre Rd, London, ON N5X 3W1","postalcode":"N5X 3W1","website":" ","working_hour":"","latitude":"42.9592045","longitude":"-81.2726163"},{"source":"yellow page","service_name":"Threads Of Life","category":"tanning","phone":"519-685-4276","address":"16 Clifton Cres, London, ON N6C 3V8","postalcode":"N6C 3V8","website":"http://www.threadsoflife.ca","working_hour":"","latitude":"42.942077","longitude":"-81.241609"},{"source":"yellow page","service_name":"Golden Kiss Mobile Spray Tanning","category":"tanning","phone":"226-973-2263","address":"ON","postalcode":"","website":" ","working_hour":"","latitude":"","longitude":""},{"source":"yellow page","service_name":"Tan Factory","category":"tanning","phone":"519-451-1128","address":"9 Southdale Rd E, London, ON N6C 6B4","postalcode":"N6C 6B4","website":" ","working_hour":"","latitude":"42.9408422","longitude":"-81.2563247"},{"source":"yellow page","service_name":"Tan Factory","category":"tanning","phone":"519-451-6294","address":"520 Sarnia Rd, London, ON N6G 5A3","postalcode":"N6G 5A3","website":" ","working_hour":"","latitude":"42.995105","longitude":"-81.300015"},{"source":"yellow page","service_name":"Southern Exposure Tanning","category":"tanning","phone":"5196421303","address":"Main Floor 205 Oxford E, London, ON N6A 5G5","postalcode":"N6A 5G5","website":" ","working_hour":"","latitude":"42.995028","longitude":"-81.254362"},{"source":"yellow page","service_name":"Tantrum Sun Spa","category":"tanning","phone":"519-432-9991","address":"733 Richmond St, London, ON N6A 3H2","postalcode":"N6A 3H2","website":"http://www.tantrumsunspa.ca/","working_hour":"","latitude":"42.994769","longitude":"-81.252814"},{"source":"yellow page","service_name":"Hollywood Tan","category":"tanning","phone":"519-649-0385","address":"1021 Wonderland Rd S, London, ON N6K 3V1","postalcode":"N6K 3V1","website":"http://hollywoodtanlondon.com","working_hour":"","latitude":"42.941297","longitude":"-81.282182"},{"source":"yellow page","service_name":"Tan On The Run","category":"tanning","phone":"519-852-6113","address":"20 Deer Park Cir, London, ON N6H 3B4","postalcode":"N6H 3B4","website":" ","working_hour":"","latitude":"42.97613","longitude":"-81.302994"},{"source":"yellow page","service_name":"Tan Factory","category":"tanning","phone":"519-451-3216","address":"1925 Dundas St, London, ON N5V 1P7","postalcode":"N5V 1P7","website":" ","working_hour":"","latitude":"43.00543","longitude":"-81.173409"},{"source":"yellow page","service_name":"Kokomo's","category":"tanning","phone":"519-472-7830","address":"666 Wonderland Rd N, London, ON N6H 4K9","postalcode":"N6H 4K9","website":" ","working_hour":"","latitude":"42.9843602","longitude":"-81.2929793"},{"source":"yellow page","service_name":"Vibrant Sun Tanning","category":"tanning","phone":"5196456052","address":"205 Oxford St E, London, ON N6A 5G6","postalcode":"N6A 5G6","website":"http://vibrantsun.ca","working_hour":"","latitude":"42.9951432","longitude":"-81.2543468"},{"source":"yellow page","service_name":"Cool Ray Tanning","category":"tanning","phone":"519-457-3024","address":"1631 Oxford St E, London, ON N5V 2Z4","postalcode":"N5V 2Z4","website":"http://www.coolraystanning.com","working_hour":"Monday 9:00 am - 9:00 pm   Tuesday 9:00 am - 9:00 pm   Wednesday 9:00 am - 9:00 pm   Thursday 9:00 am - 9:00 pm   Friday 9:00 am - 7:00 pm   Saturday 9:00 am - 6:00 pm   Sunday 11:00 am - 5:00 pm","latitude":"43.0122673","longitude":"-81.1955234"},{"source":"yellow page","service_name":"Fabutan Sun Tan Studios","category":"tanning","phone":"519-657-1919","address":"6-509 Commissioners Road W, London, ON N6J 1Y5","postalcode":"N6J 1Y5","website":" ","working_hour":"Monday 9:30 pm - 9:00 pm   Tuesday 9:30 pm - 9:00 pm   Wednesday 9:30 pm - 9:00 pm   Thursday 9:30 pm - 9:00 pm   Friday 9:30 pm - 9:00 pm   Saturday 10:00 am - 5:00 pm   Sunday 12:00 pm - 5:00 pm","latitude":"42.9545741","longitude":"-81.2885482"},{"source":"yellow page","service_name":"Kokomo's Suntanning & Swimwear Outlet","category":"tanning","phone":"5198625515","address":"446 Lyndoch St, Corunna, ON N0N 1G0","postalcode":"N0N 1G0","website":" ","working_hour":"","latitude":"42.885706","longitude":"-82.45339"},{"source":"yellow page","service_name":"Session's Mobile Tanning","category":"tanning","phone":"519-466-4233","address":"ON","postalcode":"","website":" ","working_hour":"","latitude":"","longitude":""},{"source":"yellow page","service_name":"Beaches Tanning","category":"tanning","phone":"519-337-3979","address":"7-889 Exmouth St, Sarnia, ON N7T 5R3","postalcode":"N7T 5R3","website":" ","working_hour":"","latitude":"42.98502","longitude":"-82.377172"},{"source":"yellow page","service_name":"Kokomo's Suntanning & Swimwear Outlets","category":"tanning","phone":"519-383-0053","address":"555 Murphy Rd, Sarnia, ON N7S 5B6","postalcode":"N7S 5B6","website":"http://www.kokomos.ca","working_hour":"","latitude":"42.975984","longitude":"-82.366712"},{"source":"yellow page","service_name":"Jamaican Sun Tanning And Salon","category":"tanning","phone":"519-344-2285","address":"1273 London Rd, Sarnia, ON N7S 1P3","postalcode":"N7S 1P3","website":"http://jamaicansun.ca","working_hour":"","latitude":"42.979723","longitude":"-82.360058"},{"source":"yellow page","service_name":"Kokomo's Suntanning Swimwear Outlets","category":"tanning","phone":"519-541-0054","address":"1401 Michigan Ave, Sarnia, ON N7S 4M6","postalcode":"N7S 4M6","website":" ","working_hour":"","latitude":"43.002059","longitude":"-82.3484323"},{"source":"yellow page","service_name":"Sunsetters Tanning Studio","category":"tanning","phone":"226-773-4081","address":"249 Erie St S, Leamington, ON N8H 3C3","postalcode":"N8H 3C3","website":"http://www.sunsetterstanning.com","working_hour":"","latitude":"42.0396133","longitude":"-82.6006862"},{"source":"yellow page","service_name":"Gary's Taxidermy & Tanning","category":"tanning","phone":"519-627-3020","address":"1716 Dufferin Ave, Wallaceburg, ON N8A 2X4","postalcode":"N8A 2X4","website":" ","working_hour":"","latitude":"42.593154","longitude":"-82.404999"},{"source":"yellow page","service_name":"Shades Tanning Spa","category":"tanning","phone":"519-997-4906","address":"131 Talbot St W, Leamington, ON N8H 1N2","postalcode":"N8H 1N2","website":"http://www.andalusiatanning.com","working_hour":"Monday 9:30 am - 9:00 pm   Tuesday 9:30 am - 9:00 pm   Wednesday 9:30 am - 9:00 pm   Thursday 9:30 am - 9:00 pm   Friday 9:30 am - 7:00 pm   Saturday 10:00 am - 5:00 pm","latitude":"42.050852","longitude":"-82.609161"},{"source":"yellow page","service_name":"Tan Lines and The Salon","category":"tanning","phone":"519-733-1112","address":"149 Lansdowne Ave, Kingsville, ON N9Y 1S4","postalcode":"N9Y 1S4","website":"http://www.tanlinessalon.com/","working_hour":"Monday 9:00 am - 6:00 pm   Tuesday 9:00 am - 6:00 pm   Wednesday 9:00 am - 6:00 pm   Thursday 9:00 am - 4:00 pm   Friday 9:00 am - 6:00 pm   Saturday 9:00 am - 4:00 pm   Appointments Available: Sunday.","latitude":"42.0326589","longitude":"-82.7368795"},{"source":"yellow page","service_name":"Tantalize Tanning Salon","category":"tanning","phone":"519-969-5151","address":"5844 Malden Rd, Windsor, ON N9H 1S4","postalcode":"N9H 1S4","website":" ","working_hour":"","latitude":"42.248595","longitude":"-83.060711"},{"source":"yellow page","service_name":"Bahama Mamma's Tanning Cabana","category":"tanning","phone":"5199692848","address":"3850 Dougall Ave, Windsor, ON N9G 1X2","postalcode":"N9G 1X2","website":"http://www.bahama-mammas.com","working_hour":"Monday 8:00 am - 9:00 pm   Tuesday 8:00 am - 9:00 pm   Wednesday 8:00 am - 9:00 pm   Thursday 8:00 am - 9:00 pm   Friday 8:00 am - 9:00 pm   Saturday 9:00 am - 5:00 pm   Sunday 11:00 am - 5:00 pm","latitude":"42.256374","longitude":"-83.003187"},{"source":"yellow page","service_name":"Brightside Tanning Inc","category":"tanning","phone":"519-251-1733","address":"50-1950 Lauzon Rd, Windsor, ON N8T 2Z3","postalcode":"N8T 2Z3","website":"http://www.brightsidetanning.com","working_hour":"","latitude":"42.31523","longitude":"-82.932434"},{"source":"yellow page","service_name":"Sunsations Tanning Salon","category":"tanning","phone":"519-776-9666","address":"46 Talbot St N, Essex, ON N8M 1A2","postalcode":"N8M 1A2","website":" ","working_hour":"","latitude":"42.1747832","longitude":"-82.8221011"},{"source":"yellow page","service_name":"La Vie Body Detox & Tanning","category":"tanning","phone":"519-915-2793","address":"8354 Menard, Windsor, ON N8S 4V4","postalcode":"N8S 4V4","website":" ","working_hour":"","latitude":"","longitude":""},{"source":"yellow page","service_name":"Shades Tanning Spa Inc","category":"tanning","phone":"519-997-4906","address":"131 Talbot St W, Leamington, ON N8H 1N2","postalcode":"N8H 1N2","website":" ","working_hour":"","latitude":"42.050852","longitude":"-82.609161"},{"source":"yellow page","service_name":"No Tan Lines Tanning Salons","category":"tanning","phone":"519-736-0020","address":"188 Sandwich St S, Amherstburg, ON N9V 2A1","postalcode":"N9V 2A1","website":" ","working_hour":"Monday 9:00 am - 8:00 pm   Tuesday 9:00 am - 8:00 pm   Wednesday 9:00 am - 8:00 pm   Thursday 9:00 am - 8:00 pm   Friday 9:00 am - 8:00 pm   Saturday 9:00 am - 4:00 pm","latitude":"42.1045861","longitude":"-83.1098141"},{"source":"yellow page","service_name":"On The Dark Side Tanning","category":"tanning","phone":"519-739-3323","address":"13300 Tecumseh Rd E, Windsor, ON N8N 4R8","postalcode":"N8N 4R8","website":" ","working_hour":"Monday 7:00 am - 10:00 pm   Tuesday 7:00 am - 10:00 pm   Wednesday 7:00 am - 10:00 pm   Thursday 7:00 am - 10:00 pm   Friday 7:00 am - 10:00 pm   Saturday 7:00 am - 10:00 pm   Sunday 9:00 am - 6:00 pm","latitude":"42.312261","longitude":"-82.870592"},{"source":"yellow page","service_name":"Brightside Tanning Inc","category":"tanning","phone":"519-966-9110","address":"1399 Grand Marais W, Windsor, ON N9E 1E2","postalcode":"N9E 1E2","website":" ","working_hour":"","latitude":"42.2679381","longitude":"-83.0267211"},{"source":"yellow page","service_name":"Mobile Sunshine Spray Tan","category":"tanning","phone":"519-992-6040","address":"ON","postalcode":"","website":" ","working_hour":"","latitude":"","longitude":""},{"source":"yellow page","service_name":"Beach Bum Spray Tanning","category":"tanning","phone":"519-562-2532","address":"ON","postalcode":"","website":" ","working_hour":"Monday 10:00 am - 9:00 pm   Tuesday 10:00 am - 9:00 pm   Wednesday 10:00 am - 9:00 pm   Thursday 10:00 am - 9:00 pm   Friday 5:00 pm - 9:00 pm   Tanning For Women","latitude":"","longitude":""},{"source":"yellow page","service_name":"Hot Spot Tanning Salon","category":"tanning","phone":"519-250-0197","address":"5975 Malden Rd, Windsor, ON N9H 1S7","postalcode":"N9H 1S7","website":" ","working_hour":"Monday 9:00 am - 9:00 pm   Tuesday 9:00 am - 9:00 pm   Wednesday 9:00 am - 9:00 pm   Thursday 9:00 am - 9:00 pm   Friday 9:00 am - 9:00 pm   Saturday 9:00 am - 3:00 pm   Sunday 11:00 am - 3:00 pm","latitude":"42.2442","longitude":"-83.060978"},{"source":"yellow page","service_name":"Tantalize Tanning Salon","category":"tanning","phone":"519-966-0631","address":"2635 Howard Ave, Windsor, ON N8X 4Z3","postalcode":"N8X 4Z3","website":" ","working_hour":"Monday 8:00 am - 8:00 pm   Tuesday 8:00 am - 8:00 pm   Wednesday 8:00 am - 8:00 pm   Thursday 8:00 am - 8:00 pm   Friday 8:00 am - 8:00 pm   Saturday 8:00 am - 8:00 pm","latitude":"42.285962","longitude":"-83.0127606"},{"source":"yellow page","service_name":"Tropical Breeze Tanning Salon & Accessories","category":"tanning","phone":"519-969-3775","address":"5844 Malden Rd, Lasalle, ON N9H 1S3","postalcode":"N9H 1S3","website":" ","working_hour":"Monday 9:00 am - 8:00 pm   Tuesday 9:00 am - 8:00 pm   Wednesday 9:00 am - 8:00 pm   Thursday 9:00 am - 8:00 pm   Friday 9:00 am - 8:00 pm   Saturday 10:00 am - 5:00 pm","latitude":"42.248595","longitude":"-83.060711"},{"source":"yellow page","service_name":"On The Dark Side Tanning Salon","category":"tanning","phone":"519-988-0255","address":"4756 Tecumseh Rd E, Windsor, ON N8T 1B7","postalcode":"N8T 1B7","website":"http://www.onthedarksidetanningsalon.com","working_hour":"Monday 9:30 am - 6:00 pm   Tuesday 9:30 am - 8:00 pm   Wednesday 9:30 am - 8:00 pm   Thursday 9:30 am - 8:00 pm   Friday 9:30 am - 8:00 pm   Saturday 9:00 am - 5:00 pm   Sunday 11:00 am - 5:00 pm","latitude":"42.307479","longitude":"-82.96754"},{"source":"yellow page","service_name":"Sunsetters Tanning Studio","category":"tanning","phone":"226-773-3438","address":"2-3155 Howard Ave, Windsor, ON N8X 4Y8","postalcode":"N8X 4Y8","website":"http://www.sunsetterstanning.com","working_hour":"","latitude":"42.2740359","longitude":"-83.0052311"},{"source":"yellow page","service_name":"Caribbean Tanning Salon","category":"tanning","phone":"519-979-8032","address":"2-13039 Tecumseh Rd E, Windsor, ON N8N 3T4","postalcode":"N8N 3T4","website":" ","working_hour":"Monday 9:00 am - 7:00 pm   Tuesday 9:00 am - 7:00 pm   Wednesday 9:00 am - 7:00 pm   Thursday 9:00 am - 7:00 pm   Friday 9:00 am - 7:00 pm   Saturday 9:00 am - 4:00 pm","latitude":"42.312165","longitude":"-82.873949"},{"source":"yellow page","service_name":"Bahama Mammas European Tanning","category":"tanning","phone":"5199667091","address":"4328 Walker Rd, Windsor, ON N8W 3T5","postalcode":"N8W 3T5","website":" ","working_hour":"","latitude":"","longitude":""},{"source":"yellow page","service_name":"Oceanside Tanning","category":"tanning","phone":"519-220-0156","address":"900 Jamieson Pky, Cambridge, ON N3C 4N6","postalcode":"N3C 4N6","website":" ","working_hour":"Monday 10:00 am - 8:00 pm   Tuesday 10:00 am - 8:00 pm   Wednesday 10:00 am - 8:00 pm   Thursday 10:00 am - 8:00 pm   Friday 10:00 am - 8:00 pm   Saturday 9:00 am - 5:00 pm   Sunday 11:00 am - 4:00 pm   Walk-ins Welcome","latitude":"43.423546","longitude":"-80.287107"},{"source":"yellow page","service_name":"Fabutan Sun Tan Studios","category":"tanning","phone":"519-894-4745","address":"1005 Ottawa St N, Kitchener, ON N2A 1H2","postalcode":"N2A 1H2","website":" ","working_hour":"","latitude":"43.4503464","longitude":"-80.4457001"},{"source":"yellow page","service_name":"Power Tans","category":"tanning","phone":"519-741-1504","address":"119-501 Krug St, Kitchener, ON N2B 1L3","postalcode":"N2B 1L3","website":" ","working_hour":"Monday 9:00 am - 9:00 pm   Tuesday 9:00 am - 9:00 pm   Wednesday 9:00 am - 9:00 pm   Thursday 9:00 am - 9:00 pm   Friday 9:00 am - 9:00 pm   Saturday 10:00 am - 6:00 pm   Sunday 12:00 pm - 6:00 pm","latitude":"43.456649","longitude":"-80.461853"},{"source":"yellow page","service_name":"Midnight Sun Tanning","category":"tanning","phone":"519-623-8267","address":"525 Hespeler Rd, Cambridge, ON N1R 6J2","postalcode":"N1R 6J2","website":" ","working_hour":"","latitude":"43.4006","longitude":"-80.325585"},{"source":"yellow page","service_name":"Relax NTan","category":"tanning","phone":"519-622-0893","address":"800 Franklin Blvd, Cambridge, ON N1R 7Z1","postalcode":"N1R 7Z1","website":" ","working_hour":"","latitude":"43.379402","longitude":"-80.298714"},{"source":"yellow page","service_name":"Fabutan Sun Tan Studio","category":"tanning","phone":"519-624-9766","address":"480 Hespeler Rd, Cambridge, ON N1R 7R9","postalcode":"N1R 7R9","website":"http://fabutan.com","working_hour":"Monday 9:00 am - 9:00 pm   Tuesday 9:00 am - 9:00 pm   Wednesday 9:00 am - 9:00 pm   Thursday 9:00 am - 9:00 pm   Friday 9:00 am - 8:00 pm   Saturday 10:00 am - 4:00 pm   Sunday 10:00 am - 4:00 pm","latitude":"43.398066","longitude":"-80.324969"},{"source":"yellow page","service_name":"Fabutan","category":"tanning","phone":"519-748-6376","address":"103-5 Manitou Dr, Kitchener, ON N2C 2J6","postalcode":"N2C 2J6","website":" ","working_hour":"Monday 11:00 am - 7:30 pm   Tuesday 11:00 am - 7:30 pm   Wednesday 11:00 am - 7:30 pm   Thursday 11:00 am - 7:30 pm   Friday 11:00 am - 7:30 pm   Saturday 11:00 am - 3:30 pm","latitude":"43.418524","longitude":"-80.453237"},{"source":"yellow page","service_name":"Soleil City Tanning Studio","category":"tanning","phone":"519-893-4529","address":"270 Bleams Rd, Kitchener, ON N2C 2K6","postalcode":"N2C 2K6","website":"http://www.tanunlimited.ca","working_hour":"","latitude":"43.410266","longitude":"-80.460469"},{"source":"yellow page","service_name":"Grandriver Tanning Salon","category":"tanning","phone":"519-894-5852","address":"19-1601 River Rd E, Kitchener, ON N2A 3Y4","postalcode":"N2A 3Y4","website":"http://grandrivertanningsalon.com","working_hour":"","latitude":"43.429178","longitude":"-80.42172"},{"source":"yellow page","service_name":"Tan on the Run","category":"tanning","phone":"226-750-8072","address":"187 Hollyridge Cres, Kitchener, ON N2N 3N4","postalcode":"N2N 3N4","website":"http://www.tanontherun.com","working_hour":"24 hours a day - 7 days a week   Appointment Only","latitude":"43.429733","longitude":"-80.540515"},{"source":"yellow page","service_name":"Fabutan Sun Tan Studios","category":"tanning","phone":"519-743-9897","address":"103-215 Highland Road West, Kitchener, ON N2M 3C1","postalcode":"N2M 3C1","website":"http://fabutan.com","working_hour":"Monday 10:00 am - 9:00 pm   Tuesday 10:00 am - 9:00 pm   Wednesday 10:00 am - 9:00 pm   Thursday 10:00 am - 9:00 pm   Friday 10:00 am - 8:00 pm   Saturday 10:00 am - 4:00 pm   Sunday 10:00 am - 4:00 pm","latitude":"43.440461","longitude":"-80.50609"},{"source":"yellow page","service_name":"Sun Magic Tanning Spa","category":"tanning","phone":"519-743-2003","address":"ON","postalcode":"","website":"http://www.sunmagic.ca","working_hour":"","latitude":"","longitude":""},{"source":"yellow page","service_name":"Sun Kiss'd Tanning Salon","category":"tanning","phone":"519-576-8678","address":"192 Activa Ave, Kitchener, ON N2E 4K5","postalcode":"N2E 4K5","website":"http://sunkissd.ca","working_hour":"Monday 9:00 am - 9:00 pm   Tuesday 9:00 am - 9:00 pm   Wednesday 9:00 am - 9:00 pm   Thursday 9:00 am - 9:00 pm   Friday 9:00 am - 8:00 pm   Saturday 10:00 am - 6:00 pm   Sunday 12:00 am - 5:00 pm","latitude":"43.406224","longitude":"-80.512909"},{"source":"yellow page","service_name":"Power Tans","category":"tanning","phone":"519-571-3264","address":"470 Highland Rd W, Kitchener, ON N2M 3C7","postalcode":"N2M 3C7","website":" ","working_hour":"Monday 9:00 am - 9:00 pm   Tuesday 9:00 am - 9:00 pm   Wednesday 9:00 am - 9:00 pm   Thursday 9:00 am - 9:00 pm   Friday 9:00 am - 9:00 pm   Saturday 10:00 am - 6:00 pm   Sunday 12:00 pm - 6:00 pm","latitude":"43.436094","longitude":"-80.514045"},{"source":"yellow page","service_name":"Sun Magic Tanning Spa","category":"tanning","phone":"519-579-7433","address":"645 Westmount Rd E, Kitchener, ON N2E 3S3","postalcode":"N2E 3S3","website":" ","working_hour":"Monday 10:00 am - 8:00 pm   Tuesday 10:00 am - 8:00 pm   Wednesday 10:00 am - 8:00 pm   Thursday 10:00 am - 8:00 pm   Friday 10:00 am - 8:00 pm   Saturday 10:00 am - 5:00 pm   Sunday 12:00 am - 4:00 pm","latitude":"43.421022","longitude":"-80.501992"},{"source":"yellow page","service_name":"Glow To Go Mobile Spray Tanning","category":"tanning","phone":"519-574-1973","address":"ON","postalcode":"","website":" ","working_hour":"","latitude":"","longitude":""},{"source":"yellow page","service_name":"Twilight Tanning Salon","category":"tanning","phone":"289-237-4348","address":"","postalcode":"","website":" ","working_hour":"","latitude":"","longitude":""},{"source":"yellow page","service_name":"The Sunshine Girl","category":"tanning","phone":"519-771-8851","address":"ON","postalcode":"","website":" ","working_hour":"","latitude":"","longitude":""},{"source":"yellow page","service_name":"Katch A Ray","category":"tanning","phone":"519-235-2243","address":"","postalcode":"","website":" ","working_hour":"","latitude":"","longitude":""},{"source":"yellow page","service_name":"Total Hair And Body Care","category":"tanning","phone":"5198824011","address":"4214 Petrolia, Petrolia, ON N0N 1R0","postalcode":"N0N 1R0","website":"http://www.totalhaircare.ca","working_hour":"Monday 9:00 am - 5:00 pm   Tuesday 9:00 am - 5:00 pm   Wednesday 9:00 am - 9:00 pm   Thursday 9:00 am - 9:00 pm   Friday 9:00 am - 5:00 pm   Saturday 9:00 am - 3:00 pm","latitude":"42.8819299","longitude":"-82.1452988"},{"source":"yellow page","service_name":"Ross & Co Salon And Tanning","category":"tanning","phone":"519-768-3266","address":"227 Graham St SS 1, West Lorne, ON N0L 2P0","postalcode":"N0L 2P0","website":" ","working_hour":"Tuesday 9:00 am - 7:00 pm   Wednesday 9:00 am - 4:30 pm   Thursday 9:00 am - 7:00 pm   Friday 9:00 am - 3:00 pm   Saturday 8:00 am - 2:00 pm","latitude":"42.6039102","longitude":"-81.607043"},{"source":"yellow page","service_name":"Kokomo's","category":"tanning","phone":"519-245-8267","address":"305 Caradoc St S, Strathroy, ON N7G 2P3","postalcode":"N7G 2P3","website":" ","working_hour":"","latitude":"42.948865","longitude":"-81.615189"},{"source":"yellow page","service_name":"Kokomo's Sun Tanning","category":"tanning","phone":"519-351-2826","address":"449 St Clair St, Chatham, ON N7L 3K6","postalcode":"N7L 3K6","website":" ","working_hour":"","latitude":"42.417125","longitude":"-82.202535"},{"source":"yellow page","service_name":"Tan Your Hide","category":"tanning","phone":"5196822090","address":"22975 County Road 46 RR 5, Tilbury, ON N0P 2L0","postalcode":"N0P 2L0","website":" ","working_hour":"","latitude":"42.2467578","longitude":"-82.4337719"},{"source":"yellow page","service_name":"Better Bodies Tanning","category":"tanning","phone":"519-397-1971","address":"369 Grand Ave W, Chatham, ON N7L 1C4","postalcode":"N7L 1C4","website":" ","working_hour":"Appointments Available: Monday, Tuesday, Wednesday, Thursday.","latitude":"42.401825","longitude":"-82.20274"},{"source":"yellow page","service_name":"Tan-It","category":"tanning","phone":"519-651-7342","address":"80 Keil Dr S, Chatham, ON N7M 3H1","postalcode":"N7M 3H1","website":" ","working_hour":"","latitude":"42.391727","longitude":"-82.207083"},{"source":"yellow page","service_name":"Tropical Tan","category":"tanning","phone":"519-627-1952","address":"208 Margaret Ave, Wallaceburg, ON N8A 2A1","postalcode":"N8A 2A1","website":" ","working_hour":"","latitude":"42.5951478","longitude":"-82.3776386"},{"source":"yellow page","service_name":"Shoreline Tanning Studio","category":"tanning","phone":"5192456414","address":"100 Albert St, Strathroy, ON N7G 1V5","postalcode":"N7G 1V5","website":" ","working_hour":"","latitude":"42.95546","longitude":"-81.624816"},{"source":"yellow page","service_name":"Salon Simplicity","category":"tanning","phone":"519-676-9339","address":"116 Talbot St W, Blenheim, ON N0P 1A0","postalcode":"N0P 1A0","website":" ","working_hour":"Monday 9:00 am - 6:00 pm   Tuesday 9:00 am - 8:00 pm   Wednesday 9:00 am - 6:00 pm   Thursday 9:00 am - 8:00 pm   Friday 9:00 am - 6:00 pm   Saturday 9:00 am - 3:00 pm","latitude":"42.332993","longitude":"-81.999638"},{"source":"yellow page","service_name":"Catch A-Ray Suntanning","category":"tanning","phone":"519-351-9620","address":"882 Charing Cross Rd, Chatham, ON N7M 5H2","postalcode":"N7M 5H2","website":" ","working_hour":"","latitude":"42.38437","longitude":"-82.161832"},{"source":"yellow page","service_name":"Better Bodies Tanning","category":"tanning","phone":"5193974035","address":"423 Richmond St, Chatham, ON N7M 1R1","postalcode":"N7M 1R1","website":" ","working_hour":"","latitude":"42.392498","longitude":"-82.196526"},{"source":"yellow page","service_name":"CoCo Beaching Tanning","category":"tanning","phone":"519-683-4057","address":"444 St George St N, ON N0P 1M0","postalcode":"N0P 1M0","website":" ","working_hour":"","latitude":"42.566498","longitude":"-82.118404"},{"source":"yellow page","service_name":"Soleil Tanning","category":"tanning","phone":"519-674-1332","address":"50 Main E, Ridgetown, ON N0P 2C0","postalcode":"N0P 2C0","website":" ","working_hour":"","latitude":"42.440298","longitude":"-81.885524"},{"source":"yellow page","service_name":"Oasis Hair & Tanning Spa","category":"tanning","phone":"7057881884","address":"18 Chaffey St, Huntsville, ON P1H 1K7","postalcode":"P1H 1K7","website":"http://oasishairspa.ca","working_hour":"","latitude":"45.3305443","longitude":"-79.2135342"},{"source":"yellow page","service_name":"Tru Tan Tanning Salon","category":"tanning","phone":"705-494-8826","address":"128 Chippewa St E, North Bay, ON P1B 1R6","postalcode":"P1B 1R6","website":" ","working_hour":"Monday 10:00 am - 7:00 pm   Tuesday 10:00 am - 7:00 pm   Wednesday 10:00 am - 7:00 pm   Thursday 10:00 am - 7:00 pm   Friday 10:00 am - 7:00 pm   Saturday 11:00 am - 4:00 pm","latitude":"46.31358","longitude":"-79.449796"},{"source":"yellow page","service_name":"Tropical Dreams Tanning Studio","category":"tanning","phone":"705-476-8267","address":"320 Airport Rd, North Bay, ON P1B 8W9","postalcode":"P1B 8W9","website":"http://tropicaldreamstanningstudio.com","working_hour":"Monday 9:00 am - 5:30 pm   Tuesday 9:00 am - 5:30 pm   Wednesday 9:00 am - 5:30 pm   Thursday 9:00 am - 5:30 pm   Friday 9:00 am - 5:30 pm   Saturday 9:00 am - 5:30 pm","latitude":"46.33547","longitude":"-79.46042"},{"source":"yellow page","service_name":"Sun Goddess Hair And Tanning Salon","category":"tanning","phone":"705-746-8700","address":"1 Mall Dr, Parry Sound, ON P2A 3A9","postalcode":"P2A 3A9","website":" ","working_hour":"","latitude":"45.36045","longitude":"-80.042213"},{"source":"yellow page","service_name":"Creative Hair Designs & Tanning","category":"tanning","phone":"705-724-3201","address":"520 Main, Powassan, ON P0H 1Z0","postalcode":"P0H 1Z0","website":" ","working_hour":"Monday 10:00 am - 7:00 pm   Tuesday 10:00 am - 7:00 pm   Wednesday 10:00 am - 7:00 pm   Thursday 10:00 am - 7:00 pm   Friday 10:00 am - 7:00 pm   Saturday 10:00 am - 6:00 pm","latitude":"46.0798535","longitude":"-79.3603414"},{"source":"yellow page","service_name":"Coco Beach Tanz","category":"tanning","phone":"705-478-5629","address":"390 Lakeshore Dr, North Bay, ON P1A 2C7","postalcode":"P1A 2C7","website":" ","working_hour":"","latitude":"46.2795723","longitude":"-79.4462123"},{"source":"yellow page","service_name":"New York Toning & Tanning","category":"tanning","phone":"7054950607","address":"955 Stockdale Rd, North Bay, ON P1B 9G3","postalcode":"P1B 9G3","website":" ","working_hour":"","latitude":"46.334198","longitude":"-79.463286"},{"source":"yellow page","service_name":"I Sun Tan","category":"tanning","phone":"7057871177","address":"73 King William St, Huntsville, ON P1H 1E5","postalcode":"P1H 1E5","website":" ","working_hour":"Monday 9:00 am - 9:00 pm   Tuesday 9:00 am - 9:00 pm   Wednesday 9:00 am - 9:00 pm   Thursday 9:00 am - 9:00 pm   Friday 9:00 am - 8:00 pm   Saturday 10:00 am - 3:00 pm   Sunday 10:00 am - 3:00 pm","latitude":"45.333946","longitude":"-79.205891"},{"source":"yellow page","service_name":"Mel's Glow Tanning","category":"tanning","phone":"705-580-3043","address":"179 Main St, Sturgeon Falls, ON P2B 1P1","postalcode":"P2B 1P1","website":" ","working_hour":"","latitude":"46.3684997","longitude":"-79.9282788"},{"source":"yellow page","service_name":"Bronze-Tech","category":"tanning","phone":"819-762-1126","address":"316, av Larivière, Rouyn-Noranda, QC J9X 4H6","postalcode":"J9X 4H6","website":" ","working_hour":"","latitude":"48.2339831","longitude":"-79.0145716"},{"source":"yellow page","service_name":"Bronzage Coco Bongo","category":"tanning","phone":"819-764-4114","address":"113, rue Perreault E, Rouyn-Noranda, QC J9X 3C3","postalcode":"J9X 3C3","website":" ","working_hour":"Monday 10:00 am - 7:00 pm   Tuesday 10:00 am - 7:00 pm   Wednesday 10:00 am - 7:00 pm   Thursday 10:00 am - 7:00 pm   Friday 10:00 am - 7:00 pm   Saturday 10:00 am - 2:00 pm","latitude":"48.2382219","longitude":"-79.0164031"},{"source":"yellow page","service_name":"Passion Bronzage Plus","category":"tanning","phone":"819-764-6766","address":"81, rue Perreault E, Rouyn-Noranda, QC J9X 3C1","postalcode":"J9X 3C1","website":" ","working_hour":"Monday 9:00 am - 8:00 pm   Tuesday 9:00 am - 8:00 pm   Wednesday 9:00 am - 8:00 pm   Thursday 9:00 am - 8:00 pm   Friday 9:00 am - 8:00 pm   Saturday 10:00 am - 5:00 pm","latitude":"48.2382263","longitude":"-79.0175075"},{"source":"yellow page","service_name":"Centre De Beauté Elégance","category":"tanning","phone":"8197976555","address":"179 av Murdoch, Rouyn-Noranda, QC J9X 1E3","postalcode":"J9X 1E3","website":" ","working_hour":"Monday 9:00 am - 8:00 pm   Tuesday 9:00 am - 8:00 pm   Wednesday 9:00 am - 8:00 pm   Thursday 9:00 am - 8:00 pm   Friday 9:00 am - 8:00 pm   Saturday 9:00 am - 4:00 pm   With Or Without Appointments","latitude":"48.2467871","longitude":"-79.0172148"},{"source":"yellow page","service_name":"Bronzage Club Soleil","category":"tanning","phone":"819-764-6200","address":"167, rue Gamble O, Rouyn-Noranda, QC J9X 2R8","postalcode":"J9X 2R8","website":" ","working_hour":"Appointments Available: Sunday, Monday, Tuesday, Wednesday, Thursday, Friday, Saturday.","latitude":"48.2398938","longitude":"-79.0251993"},{"source":"yellow page","service_name":"Salon Starlette","category":"tanning","phone":"819-797-4222","address":"51, rue Perreault E, Rouyn-Noranda, QC J9X 3C1","postalcode":"J9X 3C1","website":" ","working_hour":"","latitude":"48.2382329","longitude":"-79.0184074"},{"source":"yellow page","service_name":"Tantastique Studio","category":"tanning","phone":"705-567-8269","address":"32 Prospect Ave, Kirkland Lake, ON P2N 2V4","postalcode":"P2N 2V4","website":" ","working_hour":"","latitude":"48.149632","longitude":"-80.033498"},{"source":"yellow page","service_name":"Sunmax Tanning Salon","category":"tanning","phone":"705-522-5548","address":"4 Corners Square, Sudbury, ON P3E 6J9","postalcode":"P3E 6J9","website":"http://www.sunmaxtanning.com/","working_hour":"","latitude":"46.45072","longitude":"-81.003706"},{"source":"yellow page","service_name":"Tropical Breeze Tanning","category":"tanning","phone":"705-566-1739","address":"4-1855 Lasalle Blvd, Sudbury, ON P3A 2A3","postalcode":"P3A 2A3","website":"http://www.tropicalbreezestudio.com/","working_hour":"","latitude":"46.522066","longitude":"-80.930235"},{"source":"yellow page","service_name":"Heatwave Tanning Salon","category":"tanning","phone":"705-566-4006","address":"463 Falconbridge Rd, Sudbury, ON P3A 5N4","postalcode":"P3A 5N4","website":"http://www.heatwavetanningonline.com/Home.html","working_hour":"Monday 10:00 am - 9:00 pm   Tuesday 10:00 am - 9:00 pm   Wednesday 10:00 am - 9:00 pm   Thursday 10:00 am - 9:00 pm   Friday 10:00 am - 9:00 pm   Saturday 10:00 am - 6:00 pm   Sunday 10:00 am - 6:00 pm","latitude":"46.510204","longitude":"-80.932663"},{"source":"yellow page","service_name":"Heatwave Tanning Salon","category":"tanning","phone":"705-522-9998","address":"1893 Regent St, Sudbury, ON P3E 3Z7","postalcode":"P3E 3Z7","website":" ","working_hour":"Monday 10:00 am - 9:00 pm   Tuesday 10:00 am - 9:00 pm   Wednesday 10:00 am - 9:00 pm   Thursday 10:00 am - 9:00 pm   Friday 10:00 am - 9:00 pm   Saturday 10:00 am - 6:00 pm   Sunday 10:00 am - 6:00 pm","latitude":"46.452015","longitude":"-81.003798"},{"source":"yellow page","service_name":"Heatwave Tanning Salon","category":"tanning","phone":"705-419-1860","address":"3-2914 69 Hwy N, Val Caron, ON P3N 1E3","postalcode":"P3N 1E3","website":"http://www.heatwavetanning.ca","working_hour":"","latitude":"46.610181","longitude":"-81.002193"},{"source":"yellow page","service_name":"Sunmax Tanning Salon","category":"tanning","phone":"705-524-9094","address":"944 Barrydowne Rd, Sudbury, ON P3A 3V3","postalcode":"P3A 3V3","website":"http://www.sunmaxtanning.com/","working_hour":"Monday 10:00 am - 9:00 pm   Tuesday 10:00 am - 9:00 pm   Wednesday 10:00 am - 9:00 pm   Thursday 10:00 am - 9:00 pm   Friday 10:00 am - 9:00 pm   Saturday 10:00 am - 6:00 pm   Sunday 11:00 am - 4:00 pm","latitude":"46.517343","longitude":"-80.944151"},{"source":"yellow page","service_name":"Just Glow- Sudbury Airbrush Tans","category":"tanning","phone":"705-561-6324","address":"Greater Sudbury, Sudbury, ON P3B 3S5","postalcode":"P3B 3S5","website":"http://justglowsudbury.com","working_hour":"Monday 9:00 am - 5:00 pm   Tuesday 9:00 am - 5:00 pm   Wednesday 9:00 am - 5:00 pm   Thursday 9:00 am - 5:00 pm   Friday 9:00 am - 5:00 pm   Appointments Available","latitude":"46.491539","longitude":"-80.911334"},{"source":"yellow page","service_name":"Heatwave Tanning Salon","category":"tanning","phone":"705-525-8266","address":"893 Notre Dame Ave, Sudbury, ON P3A 2T6","postalcode":"P3A 2T6","website":" ","working_hour":"Monday 10:00 am - 9:00 pm   Tuesday 10:00 am - 9:00 pm   Wednesday 10:00 am - 9:00 pm   Thursday 10:00 am - 9:00 pm   Friday 10:00 am - 9:00 pm   Saturday 10:00 am - 6:00 pm   Sunday 10:00 am - 6:00 pm","latitude":"46.517025","longitude":"-80.984376"},{"source":"yellow page","service_name":"Bermuda Tan","category":"tanning","phone":"705-264-4500","address":"36 Balsam St S, Timmins, ON P4N 2C6","postalcode":"P4N 2C6","website":" ","working_hour":"Monday 8:00 am - 9:00 pm   Tuesday 8:00 am - 9:00 pm   Wednesday 8:00 am - 9:00 pm   Thursday 8:00 am - 9:00 pm   Friday 8:00 am - 9:00 pm   Saturday 10:00 am - 6:00 pm   Sunday 11:00 am - 4:00 pm","latitude":"48.4754438","longitude":"-81.3307894"},{"source":"yellow page","service_name":"Tan on the Run","category":"tanning","phone":"705-288-7878","address":"Porcupine Mall, Timmins, ON P0N 1K0","postalcode":"P0N 1K0","website":" ","working_hour":"","latitude":"48.493512","longitude":"-81.196998"},{"source":"yellow page","service_name":"Unique Esthetics & Tanning","category":"tanning","phone":"705-267-3001","address":"84 Elm St S, Timmins, ON P4N 1W6","postalcode":"P4N 1W6","website":" ","working_hour":"Monday 9:30 am - 6:00 pm   Tuesday 9:30 am - 8:00 pm   Wednesday 9:30 am - 8:00 pm   Thursday 9:30 am - 8:00 pm   Friday 9:30 am - 8:00 pm   Saturday 9:00 am - 5:00 pm   Sunday 11:00 am - 5:00 pm","latitude":"48.474435","longitude":"-81.334437"},{"source":"yellow page","service_name":"Elements Tanning And Day Spa","category":"tanning","phone":"807-876-1110","address":"154 Forestry Rd, ON P0T 2A0","postalcode":"P0T 2A0","website":" ","working_hour":"","latitude":"49.7764651","longitude":"-86.535839"},{"source":"yellow page","service_name":"Sunkist Airbrush Tanning","category":"tanning","phone":"8075484861","address":"","postalcode":"","website":" ","working_hour":"","latitude":"","longitude":""},{"source":"yellow page","service_name":"Barely Essential","category":"tanning","phone":"807-737-7037","address":"76 Front, Sioux Lookout, ON P8T 1B7","postalcode":"P8T 1B7","website":" ","working_hour":"","latitude":"50.097969","longitude":"-91.920462"},{"source":"yellow page","service_name":"Tangles Tanning & Esthetics","category":"tanning","phone":"705-744-5560","address":"170 Bangs, Mattawa, ON P0H 1V0","postalcode":"P0H 1V0","website":" ","working_hour":"Monday 10:00 am - 7:00 pm   Tuesday 10:00 am - 7:00 pm   Wednesday 10:00 am - 7:00 pm   Thursday 10:00 am - 7:00 pm   Friday 10:00 am - 7:00 pm   Saturday 10:00 am - 6:00 pm","latitude":"46.309678","longitude":"-78.77282"},{"source":"yellow page","service_name":"Amazing Tanning Salon & Boutique","category":"tanning","phone":"705-335-3372","address":"10 Byng Ave, Kapuskasing, ON P5N 1W3","postalcode":"P5N 1W3","website":" ","working_hour":"","latitude":"49.416831","longitude":"-82.42397"},{"source":"yellow page","service_name":"Ozone","category":"tanning","phone":"807-473-5550","address":"540 Arthur St W, Thunder Bay, ON P7E 5R7","postalcode":"P7E 5R7","website":"http://www.ozonetanning.ca","working_hour":"Monday 9:00 am - 9:00 pm   Tuesday 9:00 am - 9:00 pm   Wednesday 9:00 am - 9:00 pm   Thursday 9:00 am - 9:00 pm   Friday 9:00 am - 9:00 pm   Saturday 10:00 am - 6:00 pm   Sunday 11:00 am - 5:00 pm","latitude":"48.380846","longitude":"-89.29199"},{"source":"yellow page","service_name":"Glo Sunless Tanning Bar & Boutique","category":"tanning","phone":"8072860550","address":"213 Red River Rd, Thunder Bay, ON P7B 1A5","postalcode":"P7B 1A5","website":" ","working_hour":"","latitude":"48.435009","longitude":"-89.220147"},{"source":"yellow page","service_name":"Tan on the Run, Thunder Bay","category":"tanning","phone":"807-709-1250","address":"THUNDER BAY","postalcode":"","website":" ","working_hour":"","latitude":"","longitude":""},{"source":"yellow page","service_name":"Tan on the Run","category":"tanning","phone":"807-709-1250","address":"Thunder Bay, ON","postalcode":"","website":"http://thunderbay.tanontherun.com","working_hour":"Monday 9:00 am - 5:00 pm   Tuesday 9:00 am - 5:00 pm   Wednesday 9:00 am - 5:00 pm   Thursday 9:00 am - 5:00 pm   Friday 9:00 am - 5:00 pm   Appointment Only","latitude":"","longitude":""},{"source":"yellow page","service_name":"Fabutan Sun Tan Studios","category":"tanning","phone":"807-473-4003","address":"588 Arthur Street W, Thunder Bay, ON P7E 5R7","postalcode":"P7E 5R7","website":" ","working_hour":"","latitude":"48.380839","longitude":"-89.294163"},{"source":"yellow page","service_name":"Ozone","category":"tanning","phone":"807-345-5500","address":"701 Memorial Ave, Thunder Bay, ON P7B 3Z7","postalcode":"P7B 3Z7","website":" ","working_hour":"Monday 9:00 am - 9:00 pm   Tuesday 9:00 am - 9:00 pm   Wednesday 9:00 am - 9:00 pm   Thursday 9:00 am - 9:00 pm   Friday 9:00 am - 9:00 pm   Saturday 10:00 am - 7:00 pm   Sunday 11:00 am - 5:00 pm","latitude":"48.415019","longitude":"-89.242566"},{"source":"yellow page","service_name":"Fabutan Sun Tan Studios","category":"tanning","phone":"807-768-2828","address":"843 Red River Rd, Thunder Bay, ON P7B 1K3","postalcode":"P7B 1K3","website":" ","working_hour":"","latitude":"48.445639","longitude":"-89.24808"}]}