{"table":[{"source":"yellow page","service_name":"Traductions Podium Inc","category":"translation","phone":"819-205-1141","address":"196, rue de Ganymede, Gatineau, QC J9J 3Z3","postalcode":"J9J 3Z3","website":"http://traductionspodium.com","working_hour":"","latitude":"45.440434","longitude":"-75.792161"},{"source":"yellow page","service_name":"Protranslation","category":"translation","phone":"613-612-4321","address":"221, rue de la Vaudaire, Gatineau, QC J9A 0C6","postalcode":"J9A 0C6","website":" ","working_hour":"","latitude":"45.44698","longitude":"-75.7929769"},{"source":"yellow page","service_name":"FC Comm","category":"translation","phone":"613-228-8018","address":"1897 Baseline Rd, Ottawa, ON K2C 0C7","postalcode":"K2C 0C7","website":" ","working_hour":"","latitude":"45.353248","longitude":"-75.75895"},{"source":"yellow page","service_name":"Christian Vogin","category":"translation","phone":"819-682-5163","address":"470, ch Vanier, Gatineau, QC J9J 3J1","postalcode":"J9J 3J1","website":"http://christiannymphos.org","working_hour":"","latitude":"45.416671","longitude":"-75.80902"},{"source":"yellow page","service_name":"Le Réseau Multicom","category":"translation","phone":"819-827-2499","address":"44, ch d'Auteuil, Chelsea, QC J9B 1N9","postalcode":"J9B 1N9","website":" ","working_hour":"","latitude":"45.4958586","longitude":"-75.7798348"},{"source":"yellow page","service_name":"Vedia Translations","category":"translation","phone":"819-412-1476","address":"207-745, ch d'Aylmer, Gatineau, QC J9H 0B8","postalcode":"J9H 0B8","website":" ","working_hour":"","latitude":"45.402257","longitude":"-75.800697"},{"source":"yellow page","service_name":"Exact Legal Translations Inc","category":"translation","phone":"819-778-7640","address":"67, rue du Luxembourg, Gatineau, QC J9J 0S6","postalcode":"J9J 0S6","website":"http://www.exactservices.com","working_hour":"","latitude":"45.4388964","longitude":"-75.8076653"},{"source":"yellow page","service_name":"Les Traductions Botexte","category":"translation","phone":"819-684-8416","address":"554, rue Foran, Gatineau, QC J9H 5M2","postalcode":"J9H 5M2","website":" ","working_hour":"","latitude":"45.404428","longitude":"-75.842235"},{"source":"yellow page","service_name":"Christian L'Écuyer traducteur & réviseur-Translator & Reviser","category":"translation","phone":"6132125298","address":"8-31 rue Thomas, Gatineau, QC J9H 3G5","postalcode":"J9H 3G5","website":" ","working_hour":"","latitude":"45.396008","longitude":"-75.850777"},{"source":"yellow page","service_name":"Les Traductions Caron-Masse Inc","category":"translation","phone":"819-205-1000","address":"10 Impasse De Brest, Gatineau, QC J8Z 3B3","postalcode":"J8Z 3B3","website":" ","working_hour":"","latitude":"45.467217","longitude":"-75.752562"},{"source":"yellow page","service_name":"Hispanet Inc","category":"translation","phone":"819-770-7676","address":"55, rue du Bruant, Gatineau, QC J9A 2X9","postalcode":"J9A 2X9","website":" ","working_hour":"","latitude":"45.427145","longitude":"-75.769021"},{"source":"yellow page","service_name":"Le Mot Juste","category":"translation","phone":"819-772-2226","address":"184, rue Fontaine, Gatineau, QC J8Y 2C9","postalcode":"J8Y 2C9","website":" ","working_hour":"","latitude":"45.44062","longitude":"-75.745559"},{"source":"yellow page","service_name":"Renaud Expertise Inc","category":"translation","phone":"613-446-1482","address":"724 Giroux St, Rockland, ON K4K 1C2","postalcode":"K4K 1C2","website":" ","working_hour":"","latitude":"45.5475128","longitude":"-75.292055"},{"source":"yellow page","service_name":"Translation Services Canada Inc","category":"translation","phone":"613-527-3333","address":"3325 Loch Garry Rd, Apple Hill, ON K0C 1B0","postalcode":"K0C 1B0","website":" ","working_hour":"","latitude":"45.2527626","longitude":"-74.7394978"},{"source":"yellow page","service_name":"Belisle Gilbert","category":"translation","phone":"613-524-2222","address":"2839 Rowe, York, ON K0C 2B0","postalcode":"K0C 2B0","website":" ","working_hour":"","latitude":"45.388508","longitude":"-74.879222"},{"source":"yellow page","service_name":"Traduction Unik Translation","category":"translation","phone":"613-677-1789","address":"926 Royal Ave, Hawkesbury, ON K6A 3K1","postalcode":"K6A 3K1","website":" ","working_hour":"","latitude":"45.5997179","longitude":"-74.5992544"},{"source":"yellow page","service_name":"Transleaders Inc","category":"translation","phone":"613-482-0285","address":"880 Taylor Creek Dr, Orleans, ON K4A 0Z9","postalcode":"K4A 0Z9","website":" ","working_hour":"Monday 9:00 am - 5:00 pm   Tuesday 9:00 am - 5:00 pm   Wednesday 9:00 am - 5:00 pm   Thursday 9:00 am - 5:00 pm   Friday 9:00 am - 5:00 pm","latitude":"45.492396","longitude":"-75.482579"},{"source":"yellow page","service_name":"Traduction Syntaxe","category":"translation","phone":"4505443615","address":"11 Curé Cholet, St Polycarpe, QC J0P 1X0","postalcode":"J0P 1X0","website":" ","working_hour":"","latitude":"45.3016365","longitude":"-74.3013188"},{"source":"yellow page","service_name":"Larrass Translations","category":"translation","phone":"6137445902","address":"456 McArthur Ave, Ottawa, ON K1K 4B5","postalcode":"K1K 4B5","website":" ","working_hour":"","latitude":"45.432497","longitude":"-75.643618"},{"source":"yellow page","service_name":"Professional Language Services","category":"translation","phone":"6133635054","address":"500 Twelfth St W, Cornwall, ON K6J 3E4","postalcode":"K6J 3E4","website":"http://langsols.com","working_hour":"","latitude":"45.027433","longitude":"-74.750535"},{"source":"yellow page","service_name":"Com'ca Inc","category":"translation","phone":"819-983-7362","address":"12 Mignault, QC J0V 1W0","postalcode":"J0V 1W0","website":" ","working_hour":"","latitude":"45.723685","longitude":"-75.0621879"},{"source":"yellow page","service_name":"Pendleton Translations Ltd","category":"translation","phone":"613-424-6446","address":"306-151 Potts Pvt, Orleans, ON K4A 0V7","postalcode":"K4A 0V7","website":" ","working_hour":"","latitude":"45.4606896","longitude":"-75.4506893"},{"source":"yellow page","service_name":"S & C Bruno Translations (Spanish)","category":"translation","phone":"613-821-9796","address":"7073 Shadow Ridge Dr, Greely, ON K4P 1B8","postalcode":"K4P 1B8","website":" ","working_hour":"","latitude":"45.256041","longitude":"-75.560287"},{"source":"yellow page","service_name":"Gazet Rossbach Conference Interpreters","category":"translation","phone":"6135585000","address":"21 Kings Landing Pvt, Ottawa, ON K1S 5P8","postalcode":"K1S 5P8","website":" ","working_hour":"","latitude":"45.417162","longitude":"-75.679213"},{"source":"yellow page","service_name":"Wintranslation WTB Language Group","category":"translation","phone":"613-686-1278","address":"602-2197 Riverside Drive, Ottawa, ON K1H 7X3","postalcode":"K1H 7X3","website":" ","working_hour":"","latitude":"45.389054","longitude":"-75.67546"},{"source":"yellow page","service_name":"Société Eskenazi Inc","category":"translation","phone":"613-238-5476","address":"274 Daly Ave, Ottawa, ON K1N 6G5","postalcode":"K1N 6G5","website":" ","working_hour":"","latitude":"45.429236","longitude":"-75.680604"},{"source":"yellow page","service_name":"Brazilex Portuguese Translations Ltd","category":"translation","phone":"613-229-7102","address":"2295 Stevenage Dr, Ottawa, ON K1G 3W1","postalcode":"K1G 3W1","website":" ","working_hour":"","latitude":"45.378838","longitude":"-75.611193"},{"source":"yellow page","service_name":"Traduction Imogen Gough Translation Inc","category":"translation","phone":"450-510-1826","address":"623, rue de l'Estérel, Saint-Lazare, QC J7T 3J1","postalcode":"J7T 3J1","website":" ","working_hour":"","latitude":"45.3812767","longitude":"-74.161462"},{"source":"yellow page","service_name":"Nuance Fidelis Inc","category":"translation","phone":"613-222-7336","address":"ON K2P 0H6","postalcode":"K2P 0H6","website":"http://www.nuancefidelis.com","working_hour":"","latitude":"45.418748","longitude":"-75.687839"},{"source":"yellow page","service_name":"Comm Adapt","category":"translation","phone":"613-521-2182","address":"1494 Goth Ave, Gloucester, ON K1T 1E4","postalcode":"K1T 1E4","website":" ","working_hour":"","latitude":"45.346864","longitude":"-75.634762"},{"source":"yellow page","service_name":"Yvan Mcginnis Et Associés","category":"translation","phone":"450-458-2813","address":"2909, crois Horseshoe, Saint-Lazare, QC J7T 2B1","postalcode":"J7T 2B1","website":" ","working_hour":"","latitude":"45.4291686","longitude":"-74.169606"},{"source":"yellow page","service_name":"Languages Of Life Inc","category":"translation","phone":"613-232-9770","address":"14-99 5th Avenue, Ottawa, ON K1S 5K4","postalcode":"K1S 5K4","website":"http://languagesoflife.org","working_hour":"","latitude":"45.4016755","longitude":"-75.6875104"},{"source":"yellow page","service_name":"Masha Krupp Translation Group Ltd","category":"translation","phone":"613-820-4566","address":"1547 Merivale Rd, Nepean, ON K2G 4V3","postalcode":"K2G 4V3","website":" ","working_hour":"","latitude":"45.3547747","longitude":"-75.7356808"},{"source":"yellow page","service_name":"Classique Translation","category":"translation","phone":"613-228-0028","address":"219 Colonnade Rd, Nepean, ON K2E 7K3","postalcode":"K2E 7K3","website":" ","working_hour":"","latitude":"45.341113","longitude":"-75.717995"},{"source":"yellow page","service_name":"Sign Language Interpreting Associates Ottawa Inc","category":"translation","phone":"613-521-6720","address":"190 Colonnade Rd, Nepean, ON K2E 7J5","postalcode":"K2E 7J5","website":"http://www.sliao.ca","working_hour":"Monday 8:00 am - 6:00 pm   Tuesday 8:00 am - 6:00 pm   Wednesday 8:00 am - 6:00 pm   Thursday 8:00 am - 6:00 pm   Friday 8:00 am - 6:00 pm","latitude":"45.341386","longitude":"-75.716968"},{"source":"yellow page","service_name":"Language Services Ltd","category":"translation","phone":"613-565-5277","address":"15 Kippewa Dr, Ottawa, ON K1S 3G3","postalcode":"K1S 3G3","website":"http://languageserviceslimited.com","working_hour":"","latitude":"45.398934","longitude":"-75.700364"},{"source":"yellow page","service_name":"Transcend Language","category":"translation","phone":"613-680-7414","address":"1801-1401 Prince of Wales Dr, Ottawa, ON K2C 3J8","postalcode":"K2C 3J8","website":"http://www.transcendlanguage.com","working_hour":"","latitude":"45.3699337","longitude":"-75.7023911"},{"source":"yellow page","service_name":"Cilfo Translations","category":"translation","phone":"613-722-3515","address":"36 Withrow Ave, Nepean, ON K2G 2H8","postalcode":"K2G 2H8","website":"http://www.cilfotranslations.ca","working_hour":"","latitude":"45.353828","longitude":"-75.73993"},{"source":"yellow page","service_name":"Language Interpretation & Translation Services","category":"translation","phone":"613-505-4584","address":"400-219 Argyle Ave, Ottawa, ON K2P 2H4","postalcode":"K2P 2H4","website":"http://www.immigrantwomenservices.com","working_hour":"","latitude":"45.411218","longitude":"-75.690723"},{"source":"yellow page","service_name":"Les Traductions Cogito","category":"translation","phone":"819-918-8385","address":"13-245, rue Maurice-Beaudoin, Gatineau, QC J8P 0A9","postalcode":"J8P 0A9","website":" ","working_hour":"","latitude":"45.5049902","longitude":"-75.6131154"},{"source":"yellow page","service_name":"Tetracomm Inc","category":"translation","phone":"819-777-1011","address":"98, rue Prud'Homme, Gatineau, QC J8Y 5V7","postalcode":"J8Y 5V7","website":" ","working_hour":"","latitude":"45.439577","longitude":"-75.747821"},{"source":"yellow page","service_name":"Transleaders Inc","category":"translation","phone":"613-482-0285","address":"128 West Village Pvt, Ottawa, ON K1Z 1E3","postalcode":"K1Z 1E3","website":" ","working_hour":"","latitude":"45.396926","longitude":"-75.747774"},{"source":"yellow page","service_name":"Traductions Tessier","category":"translation","phone":"8197766687","address":"228 boul Saint-Joseph, Gatineau, QC J8Y 3X4","postalcode":"J8Y 3X4","website":" ","working_hour":"","latitude":"45.435332","longitude":"-75.7330664"},{"source":"yellow page","service_name":"Postrophe Translations","category":"translation","phone":"819-431-1302","address":"62 boisé des mûriers, Cantley, QC J8V 3L7","postalcode":"J8V 3L7","website":" ","working_hour":"","latitude":"45.5294227","longitude":"-75.7512666"},{"source":"yellow page","service_name":"Fox Translations Ltd","category":"translation","phone":"613-228-2207","address":"1897 Baseline Rd, Ottawa, ON K2C 0C7","postalcode":"K2C 0C7","website":"http://www.foxtranslations.com","working_hour":"","latitude":"45.353248","longitude":"-75.75895"},{"source":"yellow page","service_name":"Communication in extenso","category":"translation","phone":"450-479-6464","address":"41, ch Sabourin, Cantley, QC J8V 3M6","postalcode":"J8V 3M6","website":"http://www.inextenso.ca","working_hour":"Monday 9:00 am - 6:30 pm   Tuesday 9:00 am - 6:30 pm   Wednesday 9:00 am - 6:30 pm   Thursday 9:00 am - 6:30 pm   Friday 9:00 am - 6:30 pm","latitude":"45.5657257","longitude":"-75.7382433"},{"source":"yellow page","service_name":"Traduction Syntra Inc","category":"translation","phone":"819-777-9207","address":"30, rue de la Chimere, Gatineau, QC J9A 3L2","postalcode":"J9A 3L2","website":" ","working_hour":"","latitude":"45.443959","longitude":"-75.754576"},{"source":"yellow page","service_name":"True North Translations","category":"translation","phone":"613-777-3685","address":"PO Box 5, Kingston, ON K7L 4V6","postalcode":"K7L 4V6","website":"http://www.truenorthtranslations.com","working_hour":"","latitude":"44.211203","longitude":"-76.385433"},{"source":"yellow page","service_name":"Notedutraducteur","category":"translation","phone":"6137701543","address":"ON","postalcode":"","website":" ","working_hour":"","latitude":"43.651893","longitude":"-79.381713"},{"source":"yellow page","service_name":"Quinte United Immigrant Services","category":"translation","phone":"613-707-8788","address":"Quinte Community Resource Centre, 41 Octavia St, Belleville, ON K8P 3P1","postalcode":"K8P 3P1","website":" ","working_hour":"","latitude":"44.162941","longitude":"-77.391007"},{"source":"yellow page","service_name":"CEOTIS","category":"translation","phone":"1-844-368-4646","address":"41 Octavia, Belleville, ON K8P 3N3","postalcode":"K8P 3N3","website":"http://www.ceotis.ca","working_hour":"Monday 9:00 am - 5:00 pm   Tuesday 9:00 am - 5:00 pm   Wednesday 9:00 am - 5:00 pm   Thursday 9:00 am - 5:00 pm   Friday 9:00 am - 5:00 pm","latitude":"44.16278","longitude":"-77.389165"},{"source":"yellow page","service_name":"Accurate Translation Inc","category":"translation","phone":"6134711246","address":"91 Elmbrook Rd RR 8, Picton, ON K0K 2T0","postalcode":"K0K 2T0","website":" ","working_hour":"","latitude":"44.0580447","longitude":"-77.1395337"},{"source":"yellow page","service_name":"Quinte Immigration Services","category":"translation","phone":"613-707-9845","address":"41 Octavia St, 3rd floor, Belleville, ON K8P 3P1","postalcode":"K8P 3P1","website":" ","working_hour":"","latitude":"44.1635472","longitude":"-77.3914495"},{"source":"yellow page","service_name":"TF Communication Services","category":"translation","phone":"705-874-0839","address":"2-306 Brock St, Peterborough, ON K9H 2R1","postalcode":"K9H 2R1","website":" ","working_hour":"Monday 9:00 am - 7:00 pm   Tuesday 9:00 am - 7:00 pm   Wednesday 9:00 am - 7:00 pm   Thursday 9:00 am - 7:00 pm   Friday 9:00 am - 7:00 pm   Saturday 10:00 am - 7:00 pm   Sunday By Appointment","latitude":"44.306908","longitude":"-78.326669"},{"source":"yellow page","service_name":"Universal Communications","category":"translation","phone":"613-230-4296","address":"124 O'Connor St, Ottawa, ON K1P 5M9","postalcode":"K1P 5M9","website":"http://unicom.ca/","working_hour":"Monday 8:30 am - 6:00 pm   Tuesday 8:30 am - 6:00 pm   Wednesday 8:30 am - 6:00 pm   Thursday 8:30 am - 6:00 pm   Friday 8:30 am - 6:00 pm   Also Available On Weekends For Emergency Projects   Also Available After Hours For Emergency Projects","latitude":"45.419522","longitude":"-75.697201"},{"source":"yellow page","service_name":"Aubut & Associates Inc","category":"translation","phone":"613-230-5353","address":"301 Metcalfe St, Ottawa, ON K2P 1R9","postalcode":"K2P 1R9","website":"http://www.aubutassociates.com","working_hour":"Monday 9:00 am - 5:00 pm   Tuesday 9:00 am - 5:00 pm   Wednesday 9:00 am - 5:00 pm   Thursday 9:00 am - 5:00 pm   Friday 9:00 am - 5:00 pm","latitude":"45.415087","longitude":"-75.690704"},{"source":"yellow page","service_name":"Association of Translators and Interpreters of Ontario (ATIO)","category":"translation","phone":"1-800-234-5030","address":"1201-1 Nicholas, Ottawa, ON K1N 7B7","postalcode":"K1N 7B7","website":"http://atio.on.ca","working_hour":"","latitude":"45.4266955","longitude":"-75.6904893"},{"source":"yellow page","service_name":"Caron Translation Centre Ltd","category":"translation","phone":"613-230-4611","address":"130 Slater St, Ottawa, ON K1P 6E2","postalcode":"K1P 6E2","website":" ","working_hour":"Monday 8:00 am - 4:30 pm   Tuesday 8:00 am - 4:30 pm   Wednesday 8:00 am - 4:30 pm   Thursday 8:00 am - 4:30 pm   Friday 8:00 am - 4:30 pm","latitude":"45.420744","longitude":"-75.69655"},{"source":"yellow page","service_name":"Language Marketplace Inc","category":"translation","phone":"6136991104","address":"1150-45 O'Connor St, Ottawa, ON K1P 1A4","postalcode":"K1P 1A4","website":"http://www.languagemarketplace.ca","working_hour":"Monday 8:00 am - 5:00 pm   Tuesday 8:00 am - 5:00 pm   Wednesday 8:00 am - 5:00 pm   Thursday 8:00 am - 5:00 pm   Friday 8:00 am - 5:00 pm","latitude":"45.4213135","longitude":"-75.6987614"},{"source":"yellow page","service_name":"CLS Lexi-tech Ltd","category":"translation","phone":"6132345312","address":"500-126 York St, Ottawa, ON K1N 5T5","postalcode":"K1N 5T5","website":" ","working_hour":"","latitude":"45.4293265","longitude":"-75.6899178"},{"source":"yellow page","service_name":"Rainbow Translation Services Inc","category":"translation","phone":"613-238-2757","address":"1200-130 Albert St, Ottawa, ON K1P 5G4","postalcode":"K1P 5G4","website":"http://rainbowtranslationservices.com","working_hour":"","latitude":"45.421141","longitude":"-75.697371"},{"source":"yellow page","service_name":"JVP Language Training & Translation","category":"translation","phone":"613-699-1854","address":"8-130 Albert St, Ottawa, ON K1P 5G4","postalcode":"K1P 5G4","website":" ","working_hour":"","latitude":"45.421141","longitude":"-75.697371"},{"source":"yellow page","service_name":"East Communications","category":"translation","phone":"613-787-6008","address":"130 Albert St, Ottawa, ON K1P 5G4","postalcode":"K1P 5G4","website":" ","working_hour":"","latitude":"45.421141","longitude":"-75.697371"},{"source":"yellow page","service_name":"Societe Gamma Inc","category":"translation","phone":"6132334407","address":"600-240 Bank St, Ottawa, ON K2P 1X4","postalcode":"K2P 1X4","website":"http://www.societe-gamma.com","working_hour":"","latitude":"45.416561","longitude":"-75.697389"},{"source":"yellow page","service_name":"Legron Inc","category":"translation","phone":"819-561-2195","address":"12, rue Lachapelle, Gatineau, QC J8T 5G7","postalcode":"J8T 5G7","website":" ","working_hour":"","latitude":"45.478067","longitude":"-75.702974"},{"source":"yellow page","service_name":"Les Traductions Houle Inc","category":"translation","phone":"819-568-1022","address":"430 boul de l'Hôpital, Gatineau, QC J8V 1T7","postalcode":"J8V 1T7","website":"http://www.thinc.ca","working_hour":"","latitude":"45.490431","longitude":"-75.688766"},{"source":"yellow page","service_name":"Jolimot Inc","category":"translation","phone":"819-243-1226","address":"195, boul Gréber, Gatineau, QC J8T 3R1","postalcode":"J8T 3R1","website":"http://jolimot.ca","working_hour":"","latitude":"45.472698","longitude":"-75.701228"},{"source":"yellow page","service_name":"Association of Translators and Interpreters ofOntario (ATIO)","category":"translation","phone":"613-241-2846","address":"1202-1 Nicholas St, Ottawa, ON K1N 7B7","postalcode":"K1N 7B7","website":" ","working_hour":"","latitude":"45.4266955","longitude":"-75.6904893"},{"source":"yellow page","service_name":"New Epoch Translations Graphics","category":"translation","phone":"613-230-5252","address":"520 Bronson Ave, Ottawa, ON K1R 7Y9","postalcode":"K1R 7Y9","website":" ","working_hour":"","latitude":"45.406565","longitude":"-75.702898"},{"source":"yellow page","service_name":"Auriga Communications","category":"translation","phone":"613-232-1427","address":"227 Nepean St, Ottawa, ON K2P 0B7","postalcode":"K2P 0B7","website":" ","working_hour":"","latitude":"45.416818","longitude":"-75.699176"},{"source":"yellow page","service_name":"C","category":"translation","phone":"6137427251","address":"484 Gladstone Ave, Ottawa, ON K1R 5N8","postalcode":"K1R 5N8","website":"http://www.conversa.ca","working_hour":"","latitude":"45.410669","longitude":"-75.697166"},{"source":"yellow page","service_name":"Sci-Tech Translations","category":"translation","phone":"613-729-5789","address":"391 Holland Ave, Ottawa, ON K1Y 0Y9","postalcode":"K1Y 0Y9","website":" ","working_hour":"","latitude":"45.392928","longitude":"-75.727842"},{"source":"yellow page","service_name":"CISOC","category":"translation","phone":"613-237-0502","address":"44 Eccles St, Ottawa, ON K1R 6S4","postalcode":"K1R 6S4","website":"http://cisoc.net","working_hour":"","latitude":"45.408952","longitude":"-75.709426"},{"source":"yellow page","service_name":"Able Translations Ltd","category":"translation","phone":"6132347507","address":"900-275 Slater St, Ottawa, ON K1P 5H9","postalcode":"K1P 5H9","website":" ","working_hour":"","latitude":"45.418725","longitude":"-75.701223"},{"source":"yellow page","service_name":"Rix Ernest","category":"translation","phone":"613-235-4070","address":"402-556 Laurier Ave W, Ottawa, ON K1R 7X2","postalcode":"K1R 7X2","website":" ","working_hour":"","latitude":"45.415347","longitude":"-75.706777"},{"source":"yellow page","service_name":"Academie De Formation Linguistique Inc","category":"translation","phone":"613-722-6539","address":"200-250 City Centre Ave, Ottawa, ON K1R 6K7","postalcode":"K1R 6K7","website":"http://aflcanada.ca/","working_hour":"Monday 7:30 am - 5:00 pm   Tuesday 7:30 am - 5:00 pm   Wednesday 7:30 am - 5:00 pm   Thursday 7:30 am - 5:00 pm   Friday 7:30 am - 5:00 pm","latitude":"45.408747","longitude":"-75.717731"},{"source":"yellow page","service_name":"Quick Translation Group","category":"translation","phone":"613-231-2442","address":"201-368 Slater St, Ottawa, ON K1R 5C1","postalcode":"K1R 5C1","website":" ","working_hour":"Monday 12:00 am - 4:00 pm   Tuesday 12:00 am - 4:00 pm   Wednesday 12:00 am - 4:00 pm   Thursday 12:00 am - 4:00 pm   Friday 12:00 am - 4:00 pm","latitude":"45.417373","longitude":"-75.70435"},{"source":"yellow page","service_name":"All Languages Ltd","category":"translation","phone":"8194830663","address":"Gatineau, Gatineau, QC","postalcode":"","website":" ","working_hour":"Monday 8:30 am - 5:30 pm   Tuesday 8:30 am - 5:30 pm   Wednesday 8:30 am - 5:30 pm   Thursday 8:30 am - 5:30 pm   Friday 8:30 am - 5:30 pm","latitude":"45.427238","longitude":"-75.710726"},{"source":"yellow page","service_name":"Service régional d'Interprétation visuelle de l'outaouais","category":"translation","phone":"819-771-7273","address":"115, boul Sacré-Coeur, Gatineau, QC J8X 1C5","postalcode":"J8X 1C5","website":" ","working_hour":"","latitude":"45.4372887","longitude":"-75.7141142"},{"source":"yellow page","service_name":"Classique Translation Ltd","category":"translation","phone":"613-696-0179","address":"1300-340 Albert St, Ottawa, ON K1R 7Y6","postalcode":"K1R 7Y6","website":"http://www.classiquetranslation.com","working_hour":"Monday 9:00 am - 5:30 pm   Tuesday 9:00 am - 5:30 pm   Wednesday 9:00 am - 5:30 pm   Thursday 9:00 am - 5:30 pm   Friday 9:00 am - 5:30 pm","latitude":"45.418665","longitude":"-75.7031411"},{"source":"yellow page","service_name":"Success Language School and Translation Services","category":"translation","phone":"613-795-5773","address":"92 Rue Montclam, Gatineau, QC J8X 2L7","postalcode":"J8X 2L7","website":" ","working_hour":"","latitude":"45.42768","longitude":"-75.724781"},{"source":"yellow page","service_name":"Translation Bureau (PWGSC)","category":"translation","phone":"8199973300","address":"Gatineau, QC K1A 0S5","postalcode":"K1A 0S5","website":" ","working_hour":"","latitude":"45.424997","longitude":"-75.721349"},{"source":"yellow page","service_name":"Tessier Translations","category":"translation","phone":"819-776-6687","address":"100-188, rue Montcalm, Gatineau, QC J8Y 3B5","postalcode":"J8Y 3B5","website":" ","working_hour":"","latitude":"45.4298895","longitude":"-75.7279855"},{"source":"yellow page","service_name":"Johanne Denis Translation","category":"translation","phone":"613-936-6150","address":"ON","postalcode":"","website":" ","working_hour":"","latitude":"","longitude":""},{"source":"yellow page","service_name":"Lyne Gagnon Services d'Affaires et de TraductionInc","category":"translation","phone":"514-453-1661","address":"187, 1Er boul, Terrasse-Vaudreuil, QC J7V 5T8","postalcode":"J7V 5T8","website":" ","working_hour":"","latitude":"45.393069","longitude":"-73.987858"},{"source":"yellow page","service_name":"The Write Words","category":"translation","phone":"514-994-0967","address":"2715 rue Cool, Deux-Montagnes, QC J7R 5S7","postalcode":"J7R 5S7","website":"http://www.les-mots-justes.net","working_hour":"","latitude":"45.5395265","longitude":"-73.9182894"},{"source":"yellow page","service_name":"AGA Language Deals","category":"translation","phone":"438-820-0093","address":"237 26e Avenue, Deux-Montagnes, QC J7R 4J5","postalcode":"J7R 4J5","website":" ","working_hour":"Monday 9:00 am - 5:00 pm   Tuesday 9:00 am - 5:00 pm   Wednesday 9:00 am - 5:00 pm   Thursday 9:00 am - 5:00 pm   Friday 9:00 am - 5:00 pm","latitude":"45.533348","longitude":"-73.908244"},{"source":"yellow page","service_name":"Traductions Isabelle Pelchat","category":"translation","phone":"450-491-6456","address":"203-378, rue Beauséjour, Saint-Eustache, QC J7R 4Z7","postalcode":"J7R 4Z7","website":"http://www.tradisapel.com/pages/accueil.html","working_hour":"","latitude":"45.5639379","longitude":"-73.910784"},{"source":"yellow page","service_name":"Technoserv","category":"translation","phone":"514-973-3320","address":"1406 boul Du Lac-Saint-François, Prévost, QC J0R 1T0","postalcode":"J0R 1T0","website":"http://www.technoserv.ca","working_hour":"Monday 8:00 am - 5:00 pm   Tuesday 8:00 am - 5:00 pm   Wednesday 8:00 am - 5:00 pm   Thursday 8:00 am - 5:00 pm   Friday 8:00 am - 5:00 pm   Saturday 8:00 am - 5:00 pm","latitude":"45.8281871","longitude":"-74.0370225"},{"source":"yellow page","service_name":"Société De Recherche Ergé Inc","category":"translation","phone":"450-436-3743","address":"102 Rue Des Faucons, St Jerome, QC J5K 0J3","postalcode":"J5K 0J3","website":" ","working_hour":"","latitude":"45.739476","longitude":"-74.139128"},{"source":"yellow page","service_name":"Traductions Indigo","category":"translation","phone":"450-218-6646","address":"80, rue Trestler, Vaudreuil-Dorion, QC J7V 1W2","postalcode":"J7V 1W2","website":" ","working_hour":"","latitude":"45.3866347","longitude":"-74.0111155"},{"source":"yellow page","service_name":"Traduction Go Translation","category":"translation","phone":"450-745-1778","address":"2440 Rue du Hameau, Sainte-Adele, QC J8B 2G1","postalcode":"J8B 2G1","website":" ","working_hour":"","latitude":"45.9644945","longitude":"-74.1595491"},{"source":"yellow page","service_name":"Les Traductions Lafontaine","category":"translation","phone":"450-971-2911","address":"1354, rue Maurice-Cullen, Blainville, QC J7C 4R1","postalcode":"J7C 4R1","website":"http://www.traductions-lafontaine.com","working_hour":"","latitude":"45.6920167","longitude":"-73.897397"},{"source":"yellow page","service_name":"Traduction Analogos","category":"translation","phone":"450-623-0447","address":"906, rue de la Chapelle, Deux-Montagnes, QC J7R 1J9","postalcode":"J7R 1J9","website":" ","working_hour":"Monday 9:00 am - 9:00 pm   Tuesday 9:00 am - 9:00 pm   Wednesday 9:00 am - 9:00 pm   Thursday 9:00 am - 9:00 pm   Friday 9:00 am - 9:00 pm   Saturday 9:00 am - 9:00 pm   Sunday 9:00 am - 9:00 pm","latitude":"45.5405958","longitude":"-73.8917034"},{"source":"yellow page","service_name":"Services Linguistiques Artotexte","category":"translation","phone":"450-432-6732","address":"115, rue du Rubis, Saint-Colomban, QC J5K 2W1","postalcode":"J5K 2W1","website":" ","working_hour":"Monday 9:00 am - 5:00 pm   Tuesday 9:00 am - 5:00 pm   Wednesday 9:00 am - 5:00 pm   Thursday 9:00 am - 5:00 pm   Friday 9:00 am - 5:00 pm","latitude":"45.727548","longitude":"-74.119719"},{"source":"yellow page","service_name":"Paragraf Traduction","category":"translation","phone":"450-473-3440","address":"707 rue du Souvenir, Saint-Eustache, QC J7R 5C5","postalcode":"J7R 5C5","website":"http://www.paragraftrad.com","working_hour":"","latitude":"45.567795","longitude":"-73.931199"},{"source":"yellow page","service_name":"Altec Translations Inc","category":"translation","phone":"450-424-6270","address":"2050 rue Chicoine, Vaudreuil-Dorion, QC J7V 8P2","postalcode":"J7V 8P2","website":" ","working_hour":"","latitude":"45.363324","longitude":"-74.039963"},{"source":"yellow page","service_name":"George Comeau Translator","category":"translation","phone":"3433610766","address":"","postalcode":"","website":" ","working_hour":"","latitude":"43.651893","longitude":"-79.381713"},{"source":"yellow page","service_name":"Hindi Center","category":"translation","phone":"613-707-1349","address":"ON","postalcode":"","website":" ","working_hour":"","latitude":"","longitude":""},{"source":"yellow page","service_name":"Translations Add","category":"translation","phone":"905-666-5467","address":"22 Mackey Dr, Whitby, ON L1P 1P5","postalcode":"L1P 1P5","website":"http://www.rrtranslations.com","working_hour":"","latitude":"43.883803","longitude":"-78.974404"},{"source":"yellow page","service_name":"Metamorphosis Translation Services","category":"translation","phone":"705-745-9030","address":"ON","postalcode":"","website":" ","working_hour":"","latitude":"","longitude":""},{"source":"yellow page","service_name":"Jean-Paul Struyven Translation & Tutoring","category":"translation","phone":"705-295-6806","address":"ON","postalcode":"","website":" ","working_hour":"","latitude":"","longitude":""},{"source":"yellow page","service_name":"Toronto Translation Bureau Lingcom","category":"translation","phone":"416-878-5009","address":"119 Stone Rd, Aurora, ON L4G 6Y1","postalcode":"L4G 6Y1","website":" ","working_hour":"","latitude":"43.998131","longitude":"-79.446244"},{"source":"yellow page","service_name":"New Pacific Translation & Culture Services Corpo ration","category":"translation","phone":"416-463-8833","address":"3420 Finch Ave E, Scarborough, ON M1W 2R6","postalcode":"M1W 2R6","website":" ","working_hour":"Monday 9:00 am - 5:00 pm   Tuesday 9:00 am - 5:00 pm   Wednesday 9:00 am - 5:00 pm   Thursday 9:00 am - 5:00 pm   Friday 9:00 am - 5:00 pm","latitude":"43.796878","longitude":"-79.315286"},{"source":"yellow page","service_name":"MJ Translation","category":"translation","phone":"705-719-0461","address":"27 Wilde Pl, Barrie, ON L4N 4W6","postalcode":"L4N 4W6","website":"http://www.transl8.ca","working_hour":"","latitude":"44.3916108","longitude":"-79.719805"},{"source":"yellow page","service_name":"International Translation Canada","category":"translation","phone":"416-754-8832","address":"4002 Sheppard Ave E, Scarborough, ON M1S 4R5","postalcode":"M1S 4R5","website":" ","working_hour":"","latitude":"43.783415","longitude":"-79.287791"},{"source":"yellow page","service_name":"bridgetranslations","category":"translation","phone":"905-895-1060","address":"17705 Leslie St, Newmarket, ON L3Y 3E3","postalcode":"L3Y 3E3","website":"http://www.bridgetranslations.com","working_hour":"","latitude":"44.071153","longitude":"-79.433253"},{"source":"yellow page","service_name":"CIT Service Center","category":"translation","phone":"416-292-5203","address":"4168 Finch Ave E, Scarborough, ON M1S 5H6","postalcode":"M1S 5H6","website":"http://cit.nih.gov/","working_hour":"Monday 9:00 am - 12:00 pm   Tuesday 9:00 am - 12:00 pm   Wednesday 9:00 am - 12:00 pm   Thursday 9:00 am - 12:00 pm   Friday 9:00 am - 12:00 pm","latitude":"43.803184","longitude":"-79.288657"},{"source":"yellow page","service_name":"Exacta Interpreting Inc","category":"translation","phone":"9058846249","address":"19 Centre St W, Richmond Hill, ON L4C 3P3","postalcode":"L4C 3P3","website":" ","working_hour":"","latitude":"43.875632","longitude":"-79.439272"},{"source":"yellow page","service_name":"A Chinese Interpreters & Translation Services","category":"translation","phone":"416-609-8828","address":"4002 Sheppard Ave E, Scarborough, ON M1S 4R5","postalcode":"M1S 4R5","website":"http://www.citsi.com","working_hour":"Monday 9:00 am - 5:00 pm   Tuesday 9:00 am - 5:00 pm   Wednesday 9:00 am - 5:00 pm   Thursday 9:00 am - 5:00 pm   Friday 9:00 am - 5:00 pm   Appointments Available: Saturday.","latitude":"43.783415","longitude":"-79.287791"},{"source":"yellow page","service_name":"Kingly Translations","category":"translation","phone":"4165197110","address":"103 Sadlee Cove Cres, Scarborough, ON M1V 1Y3","postalcode":"M1V 1Y3","website":"http://www.kinglytranslations.com","working_hour":"","latitude":"43.821439","longitude":"-79.281085"},{"source":"yellow page","service_name":"Goodwill Vezina Ltd","category":"translation","phone":"905-887-9976","address":"59 Cachet Pky, Markham, ON L6C 1C6","postalcode":"L6C 1C6","website":" ","working_hour":"Monday 9:00 am - 12:00 pm   Tuesday 9:00 am - 12:00 pm   Wednesday 9:00 am - 12:00 pm   Thursday 9:00 am - 12:00 pm   Friday 9:00 am - 12:00 pm","latitude":"43.884987","longitude":"-79.353127"},{"source":"yellow page","service_name":"Good Luck Interpretation","category":"translation","phone":"416-916-1018","address":"4438 Sheppard Ave E, Scarborough, ON M1S 5V9","postalcode":"M1S 5V9","website":" ","working_hour":"","latitude":"43.787761","longitude":"-79.267642"},{"source":"yellow page","service_name":"Sylbarrie Graphics","category":"translation","phone":"7057926981","address":"1593 Kaledr, Barrie, ON L4M 4S6","postalcode":"L4M 4S6","website":"http://www.sylbarrie.com","working_hour":"","latitude":"44.362208","longitude":"-79.624153"},{"source":"yellow page","service_name":"ZW Development Inc","category":"translation","phone":"416-298-1873","address":"4168 Finch Ave E, Scarborough, ON M1S 5H6","postalcode":"M1S 5H6","website":" ","working_hour":"Monday 9:30 am - 4:30 pm   Tuesday 9:30 am - 4:30 pm   Wednesday 9:30 am - 4:30 pm   Thursday 9:30 am - 4:30 pm   Friday 9:30 am - 4:30 pm","latitude":"43.803184","longitude":"-79.288657"},{"source":"yellow page","service_name":"Northstar Translations","category":"translation","phone":"905-722-9819","address":"Willow Beach, Sutton West, ON L0E 1S0","postalcode":"L0E 1S0","website":"http://northstartransitions.com","working_hour":"","latitude":"44.310191","longitude":"-79.420388"},{"source":"yellow page","service_name":"Multi Languages","category":"translation","phone":"416-296-0842","address":"80 Corporate Dr, Scarborough, ON M1H 3G5","postalcode":"M1H 3G5","website":"http://www.multi-languages.com","working_hour":"Monday 9:00 am - 5:00 pm   Tuesday 9:00 am - 5:00 pm   Wednesday 9:00 am - 5:00 pm   Thursday 9:00 am - 5:00 pm   Friday 9:00 am - 5:00 pm","latitude":"43.77996","longitude":"-79.249835"},{"source":"yellow page","service_name":"Sky High Interpreting Services","category":"translation","phone":"416-560-5532","address":"6 Madrid St, Scarborough, ON M1P 4L8","postalcode":"M1P 4L8","website":" ","working_hour":"","latitude":"43.76788","longitude":"-79.256413"},{"source":"yellow page","service_name":"Greatec Chinese Translation","category":"translation","phone":"416-887-2852","address":"V301-H-3660 Midland Ave, Scarborough, ON M1V 4V3","postalcode":"M1V 4V3","website":"http://www.greatectranslation.ca","working_hour":"","latitude":"43.814813","longitude":"-79.292503"},{"source":"yellow page","service_name":"All Languages Ltd","category":"translation","phone":"2893121621","address":"421 Bloor St E, Toronto, ON M4W 3T1","postalcode":"M4W 3T1","website":"https://www.alllanguages.com/en/quotesandorders","working_hour":"Monday 8:30 am - 5:30 pm   Tuesday 8:30 am - 5:30 pm   Wednesday 8:30 am - 5:30 pm   Thursday 8:30 am - 5:30 pm   Friday 8:30 am - 5:30 pm","latitude":"43.672295","longitude":"-79.377163"},{"source":"yellow page","service_name":"Interpreter & Translator Networks Inc","category":"translation","phone":"9057944478","address":"4-2880 Queen St E, Brampton, ON L6S 6H4","postalcode":"L6S 6H4","website":" ","working_hour":"Monday 10:00 am - 5:00 pm   Tuesday 10:00 am - 5:00 pm   Wednesday 10:00 am - 5:00 pm   Thursday 10:00 am - 5:00 pm   Friday 10:00 am - 5:00 pm   Appointments available: Saturday.","latitude":"43.74195","longitude":"-79.697738"},{"source":"yellow page","service_name":"Interpreter & Translator Networks Inc","category":"translation","phone":"905-915-0550","address":"20-7895 Tranmere Dr, Mississauga, ON L5S 1V9","postalcode":"L5S 1V9","website":" ","working_hour":"Monday 10:00 am - 5:00 pm   Tuesday 10:00 am - 5:00 pm   Wednesday 10:00 am - 5:00 pm   Thursday 10:00 am - 5:00 pm   Friday 10:00 am - 5:00 pm   Saturday & Sunday By Appointment Only","latitude":"43.68031","longitude":"-79.671443"},{"source":"yellow page","service_name":"Professional Court Reporters Inc","category":"translation","phone":"647-558-3261","address":"802-4950 Yonge St, North York, ON M2N 6K1","postalcode":"M2N 6K1","website":" ","working_hour":"Monday 8:30 am - 5:00 pm   Tuesday 8:30 am - 5:00 pm   Wednesday 8:30 am - 5:00 pm   Thursday 8:30 am - 5:00 pm   Friday 8:30 am - 5:00 pm   Holiday & Weekend Booking's Available At Special Holiday & Weekend Rates.","latitude":"43.764949","longitude":"-79.411866"},{"source":"yellow page","service_name":"Edentext Translation Serv","category":"translation","phone":"9057649861","address":"86 Rejane Cres, Thornhill, ON L4J 5A4","postalcode":"L4J 5A4","website":" ","working_hour":"","latitude":"43.811106","longitude":"-79.445821"},{"source":"yellow page","service_name":"Breakthrough Translations Inc","category":"translation","phone":"4162744303","address":"4 Bison Dr, North York, ON M2R 2Y2","postalcode":"M2R 2Y2","website":" ","working_hour":"Monday 9:00 am - 5:00 pm   Tuesday 9:00 am - 5:00 pm   Wednesday 9:00 am - 5:00 pm   Thursday 9:00 am - 5:00 pm   Friday 9:00 am - 5:00 pm","latitude":"43.7895","longitude":"-79.444002"},{"source":"yellow page","service_name":"English Russian Ukrainian Hebrew Translator","category":"translation","phone":"647-519-9365","address":"15 North Park Rd, Vaughan, ON L4J 0A1","postalcode":"L4J 0A1","website":"http://www.gtheartecon.com","working_hour":"Monday 9:00 am - 6:00 pm   Tuesday 9:00 am - 6:00 pm   Wednesday 9:00 am - 6:00 pm   Thursday 9:00 am - 6:00 pm   Friday 9:00 am - 6:00 pm","latitude":"43.812875","longitude":"-79.453057"},{"source":"yellow page","service_name":"Turkish Certified Translations H Oyman","category":"translation","phone":"416-226-9610","address":"41 Mintwood Dr, North York, ON M2M 3A6","postalcode":"M2M 3A6","website":"http://www.hulyaoyman.com","working_hour":"","latitude":"43.802647","longitude":"-79.377938"},{"source":"yellow page","service_name":"Scholar Translations Inc","category":"translation","phone":"647-235-2716","address":"ON M2M 4B1","postalcode":"M2M 4B1","website":"http://scholartranslations.com","working_hour":"","latitude":"43.795037","longitude":"-79.428687"},{"source":"yellow page","service_name":"Legal Servics And Translations","category":"translation","phone":"4165518826","address":"6091 Yonge St, North York, ON M2M 3W2","postalcode":"M2M 3W2","website":" ","working_hour":"","latitude":"43.790986","longitude":"-79.418316"},{"source":"yellow page","service_name":"Spanish And Ingles","category":"translation","phone":"416-491-9493","address":"72 Longford Cres, Scarborough, ON M1W 1P4","postalcode":"M1W 1P4","website":" ","working_hour":"Monday 9:00 am - 6:00 pm   Tuesday 9:00 am - 6:00 pm   Wednesday 9:00 am - 6:00 pm   Thursday 9:00 am - 6:00 pm   Friday 9:00 am - 6:00 pm","latitude":"43.792936","longitude":"-79.320235"},{"source":"yellow page","service_name":"Denise Beker Languages","category":"translation","phone":"416-836-2025","address":"808-45 Baif Blvd, Richmond Hill, ON L4C 5N8","postalcode":"L4C 5N8","website":"http://www.denisebekerlanguages.com","working_hour":"Monday 8:00 am - 7:00 pm   Tuesday 8:00 am - 7:00 pm   Wednesday 8:00 am - 7:00 pm   Thursday 8:00 am - 7:00 pm   Friday 8:00 am - 7:00 pm   Appointments Available: Sunday, Saturday.","latitude":"43.857932","longitude":"-79.436674"},{"source":"yellow page","service_name":"All Linguex Translations","category":"translation","phone":"416-248-0097","address":"7 Lorraine Dr, North York, ON M2N 7H2","postalcode":"M2N 7H2","website":"http://www.medicustranslations.com/","working_hour":"Monday 9:00 am - 5:00 pm   Tuesday 9:00 am - 5:00 pm   Wednesday 9:00 am - 5:00 pm   Thursday 9:00 am - 5:00 pm   Friday 9:00 am - 5:00 pm","latitude":"43.778698","longitude":"-79.417406"},{"source":"yellow page","service_name":"Korean Translations","category":"translation","phone":"416-862-2080","address":"25 King Ave, York, ON N0A 1R0","postalcode":"N0A 1R0","website":" ","working_hour":"","latitude":"43.737097","longitude":"-79.443087"},{"source":"yellow page","service_name":"Accent Translations","category":"translation","phone":"4166377791","address":"3500 Dufferin St, North York, ON M3K 1N2","postalcode":"M3K 1N2","website":"http://www.accenttranslations.net","working_hour":"Monday 9:00 am - 5:00 pm   Tuesday 9:00 am - 5:00 pm   Wednesday 9:00 am - 5:00 pm   Thursday 9:00 am - 5:00 pm   Friday 9:00 am - 5:00 pm","latitude":"43.729472","longitude":"-79.458314"},{"source":"yellow page","service_name":"ATIO-certified Translator (Chinese)","category":"translation","phone":"647-470-2846","address":"5799 Yonge St, North York, ON M2M 3V3","postalcode":"M2M 3V3","website":" ","working_hour":"","latitude":"43.78523","longitude":"-79.416898"},{"source":"yellow page","service_name":"Edentext 1","category":"translation","phone":"416-663-3336","address":"312 Dolomite Dr, North York, ON M3J 2N2","postalcode":"M3J 2N2","website":" ","working_hour":"Monday 8:00 am - 5:00 pm   Tuesday 8:00 am - 5:00 pm   Wednesday 8:00 am - 5:00 pm   Thursday 8:00 am - 5:00 pm   Friday 8:00 am - 5:00 pm","latitude":"43.779689","longitude":"-79.475017"},{"source":"yellow page","service_name":"Dussault Translation Ltd","category":"translation","phone":"416-227-0304","address":"4950 Yonge St, North York, ON M2N 6K1","postalcode":"M2N 6K1","website":"http://www.dussault-translation.com","working_hour":"","latitude":"43.764949","longitude":"-79.411866"},{"source":"yellow page","service_name":"All Linguex Translations","category":"translation","phone":"","address":"7 Lorraine Dr, ON M2N 2E3","postalcode":"M2N 2E3","website":" ","working_hour":"","latitude":"43.778698","longitude":"-79.417406"},{"source":"yellow page","service_name":"Interpretation And Translation Cnsltnts","category":"translation","phone":"905-660-7225","address":"220 Viceroy Rd, Concord, ON L4K 3C2","postalcode":"L4K 3C2","website":" ","working_hour":"","latitude":"43.788287","longitude":"-79.473271"},{"source":"yellow page","service_name":"NG Languages","category":"translation","phone":"416-856-5285","address":"130 Neptune Dr, North York, ON M6A 1X5","postalcode":"M6A 1X5","website":" ","working_hour":"","latitude":"43.730207","longitude":"-79.441255"},{"source":"yellow page","service_name":"Omnicom Translations Inc.","category":"translation","phone":"416-227-0750","address":"4950 Yonge St, Toronto, ON M2N 6K1","postalcode":"M2N 6K1","website":" ","working_hour":"","latitude":"43.764949","longitude":"-79.411866"},{"source":"yellow page","service_name":"DocsBase Certified Translation Agency","category":"translation","phone":"6478751474","address":"200-5700 Yonge St, North York, ON M2M 4K2","postalcode":"M2M 4K2","website":"http://www.docsbase.ca","working_hour":"24/7 Hotline","latitude":"43.78072","longitude":"-79.415865"},{"source":"yellow page","service_name":"Abacus Translation Services","category":"translation","phone":"4165287421","address":"1 Rowntree Rd, Etobicoke, ON M9V 5G7","postalcode":"M9V 5G7","website":" ","working_hour":"","latitude":"43.7511331","longitude":"-79.5837599"},{"source":"yellow page","service_name":"Technovate Translations","category":"translation","phone":"416-222-2896","address":"604-40 Sheppard Ave W, North York, ON M2N 6K9","postalcode":"M2N 6K9","website":"http://www.technovatetranslations.com","working_hour":"","latitude":"43.761098","longitude":"-79.412826"},{"source":"yellow page","service_name":"Keylingo Translations","category":"translation","phone":"416-479-5477","address":"5600-100 King St, Toronto, ON M9N 1L3","postalcode":"M9N 1L3","website":" ","working_hour":"","latitude":"43.705718","longitude":"-79.515903"},{"source":"yellow page","service_name":"North York Translation & Notarization Services","category":"translation","phone":"416-229-2910","address":"4915 Bathurst St, Toronto, ON M2R 1X9","postalcode":"M2R 1X9","website":" ","working_hour":"","latitude":"43.772692","longitude":"-79.44261"},{"source":"yellow page","service_name":"Lost In Translation","category":"translation","phone":"705-791-6897","address":"ON","postalcode":"","website":" ","working_hour":"","latitude":"","longitude":""},{"source":"yellow page","service_name":"AGL French Translations","category":"translation","phone":"705-734-1344","address":"ON","postalcode":"","website":"http://agl-french-translations.barriedirect.info","working_hour":"","latitude":"","longitude":""},{"source":"yellow page","service_name":"FitStyle Creative","category":"translation","phone":"705-279-1845","address":"ON","postalcode":"","website":" ","working_hour":"","latitude":"","longitude":""},{"source":"yellow page","service_name":"Plush Text Communications","category":"translation","phone":"705-812-2619","address":"ON","postalcode":"","website":" ","working_hour":"","latitude":"","longitude":""},{"source":"yellow page","service_name":"IPS International Professional Services","category":"translation","phone":"905-790-3308","address":"80 Wilmont Crt, Brampton, ON L6X 4Z7","postalcode":"L6X 4Z7","website":"http://best-translators.com","working_hour":"","latitude":"43.678181","longitude":"-79.811657"},{"source":"yellow page","service_name":"MGK ENglish French Translation Services","category":"translation","phone":"519-835-8488","address":"71 Candlewood Dr, Guelph, ON N1K 1T7","postalcode":"N1K 1T7","website":" ","working_hour":"","latitude":"43.526572","longitude":"-80.275815"},{"source":"yellow page","service_name":"Singh Rajinder","category":"translation","phone":"905-781-7878","address":"1625 Steeles Ave E, Brampton, ON L6T 4T7","postalcode":"L6T 4T7","website":" ","working_hour":"","latitude":"43.69778","longitude":"-79.697915"},{"source":"yellow page","service_name":"Anuvaad","category":"translation","phone":"416-300-6698","address":"7 Grand River Crt, Brampton, ON L6S 2J8","postalcode":"L6S 2J8","website":"http://anuvaad.com/","working_hour":"","latitude":"43.731976","longitude":"-79.719915"},{"source":"yellow page","service_name":"Tradens","category":"translation","phone":"905-216-8258","address":"7 Bramhall Cir, Brampton, ON L6V 2G3","postalcode":"L6V 2G3","website":" ","working_hour":"","latitude":"43.7107114","longitude":"-79.7515765"},{"source":"yellow page","service_name":"Punjabi Translations","category":"translation","phone":"9057836578","address":"200 County Court Blvd, Brampton, ON L6W 4K7","postalcode":"L6W 4K7","website":" ","working_hour":"Monday 8:00 am - 5:00 pm   Tuesday 8:00 am - 5:00 pm   Wednesday 8:00 am - 5:00 pm   Thursday 8:00 am - 5:00 pm   Friday 8:00 am - 5:00 pm","latitude":"43.659556","longitude":"-79.722323"},{"source":"yellow page","service_name":"Universal Interpreter Services","category":"translation","phone":"905-970-0661","address":"6 Fandor Way, Brampton, ON L7A 2G6","postalcode":"L7A 2G6","website":"http://www.uiservices.ca","working_hour":"","latitude":"43.690549","longitude":"-79.815354"},{"source":"yellow page","service_name":"Able Translations Ltd","category":"translation","phone":"905-502-0000","address":"5749 Coopers Ave, Mississauga, ON L4Z 1R9","postalcode":"L4Z 1R9","website":" ","working_hour":"","latitude":"43.632534","longitude":"-79.660175"},{"source":"yellow page","service_name":"Romanian Translators D T","category":"translation","phone":"905-457-6955","address":"38 Kirk Dr, Brampton, ON L6X 4E5","postalcode":"L6X 4E5","website":" ","working_hour":"Monday 9:00 am - 12:00 pm   Tuesday 9:00 am - 12:00 pm   Wednesday 9:00 am - 12:00 pm   Thursday 9:00 am - 12:00 pm   Friday 9:00 am - 12:00 pm","latitude":"43.678923","longitude":"-79.791416"},{"source":"yellow page","service_name":"Interlingua Translation Services Inc","category":"translation","phone":"416-880-2884","address":"6393 Western Skies Way, Mississauga, ON L5W 1H5","postalcode":"L5W 1H5","website":" ","working_hour":"","latitude":"43.628706","longitude":"-79.713613"},{"source":"yellow page","service_name":"Latin Canadian Enterprise","category":"translation","phone":"905-319-9591","address":"2289 Fairview St, Burlington, ON L7R 2E3","postalcode":"L7R 2E3","website":" ","working_hour":"","latitude":"43.343285","longitude":"-79.802596"},{"source":"yellow page","service_name":"Beaumont Translations","category":"translation","phone":"905-827-0827","address":"1359 Saddler Cir, Oakville, ON L6M 2X6","postalcode":"L6M 2X6","website":" ","working_hour":"Monday 9:00 am - 12:00 pm    2:00 pm - 6:00 pm   Tuesday 9:00 am - 12:00 pm    2:00 pm - 6:00 pm   Wednesday 9:00 am - 12:00 pm    2:00 pm - 6:00 pm   Thursday 9:00 am - 12:00 pm    2:00 pm - 6:00 pm   Friday 9:00 am - 12:00 pm    2:00 pm - 6:00 pm","latitude":"43.42954","longitude":"-79.740353"},{"source":"yellow page","service_name":"LK Transportation & Translation Corp","category":"translation","phone":"2893376966","address":"4218 Fuller Cres, Burlington, ON L7M 0M4","postalcode":"L7M 0M4","website":" ","working_hour":"","latitude":"43.3986631","longitude":"-79.821609"},{"source":"yellow page","service_name":"ABC Spanish","category":"translation","phone":"905-577-1585","address":"92 Stroud Rd, Hamilton, ON L8S 1Z9","postalcode":"L8S 1Z9","website":"http://www.abcspanish.ca/","working_hour":"Monday 9:00 am - 5:00 pm   Tuesday 9:00 am - 5:00 pm   Wednesday 9:00 am - 5:00 pm   Thursday 9:00 am - 5:00 pm   Friday 9:00 am - 5:00 pm","latitude":"43.255344","longitude":"-79.915969"},{"source":"yellow page","service_name":"Pendleton Translation Ltd","category":"translation","phone":"905-636-1663","address":"310 Main St E, Milton, ON L9T 1P4","postalcode":"L9T 1P4","website":"http://pendletontranslations.com","working_hour":"","latitude":"43.515446","longitude":"-79.880706"},{"source":"yellow page","service_name":"Vice-Versa Translations","category":"translation","phone":"905-465-9899","address":"1134 Old Oak Dr, Oakville, ON L6M 3K7","postalcode":"L6M 3K7","website":" ","working_hour":"Monday 9:00 am - 6:00 pm   Tuesday 9:00 am - 6:00 pm   Wednesday 9:00 am - 6:00 pm   Thursday 9:00 am - 6:00 pm   Friday 9:00 am - 6:00 pm","latitude":"43.45083","longitude":"-79.730294"},{"source":"yellow page","service_name":"Accu Translation Services Ltd","category":"translation","phone":"905-639-0323","address":"5100 South Service Rd, Burlington, ON L7L 5H4","postalcode":"L7L 5H4","website":"http://accutranslation.com","working_hour":"","latitude":"43.383968","longitude":"-79.768102"},{"source":"yellow page","service_name":"Connecting Worlds Translations","category":"translation","phone":"905-246-3497","address":"Niagara Falls, ON","postalcode":"","website":" ","working_hour":"","latitude":"","longitude":""},{"source":"yellow page","service_name":"Solid Linguistics","category":"translation","phone":"289-407-1778","address":"8182 Paddock Trail Dr, Niagara Falls, ON L2H 1X3","postalcode":"L2H 1X3","website":" ","working_hour":"","latitude":"43.100482","longitude":"-79.134772"},{"source":"yellow page","service_name":"Alkadi Translation","category":"translation","phone":"905-708-9008","address":"6585 Flora Crt, Niagara Falls, ON L2H 0A8","postalcode":"L2H 0A8","website":" ","working_hour":"","latitude":"43.0796712","longitude":"-79.1400524"},{"source":"yellow page","service_name":"Salwan Alkadi Arabic-Eng Translation","category":"translation","phone":"905-708-9008","address":"6585 Flora Crt, Niagara Falls, ON L2H 0A8","postalcode":"L2H 0A8","website":" ","working_hour":"","latitude":"43.0796712","longitude":"-79.1400524"},{"source":"yellow page","service_name":"Aeris Language Solutions","category":"translation","phone":"9053711116","address":"8012 Spring Blossom Dr, Niagara Falls, ON L2H 3G7","postalcode":"L2H 3G7","website":"http://aerislanguagesolutions.com","working_hour":"","latitude":"43.08995","longitude":"-79.131262"},{"source":"yellow page","service_name":"CC Translation","category":"translation","phone":"289-927-4846","address":"ON","postalcode":"","website":"http://www.cctranslation.ca/","working_hour":"Monday 9:00 am - 5:00 pm   Tuesday 9:00 am - 5:00 pm   Wednesday 9:00 am - 5:00 pm   Thursday 9:00 am - 5:00 pm   Friday 9:00 am - 5:00 pm   We Are Available 24/7","latitude":"","longitude":""},{"source":"yellow page","service_name":"AMJ Translation Services","category":"translation","phone":"905-977-0472","address":"21 Edna Ave RR 3, Hannon, ON L0R 1P0","postalcode":"L0R 1P0","website":" ","working_hour":"","latitude":"43.176803","longitude":"-79.808231"},{"source":"yellow page","service_name":"M E P Services inc","category":"translation","phone":"9056277771","address":"82 Dundas St, Dundas, ON L9H 1A2","postalcode":"L9H 1A2","website":" ","working_hour":"","latitude":"43.264407","longitude":"-79.946575"},{"source":"yellow page","service_name":"ICI International Conference Interpreters","category":"translation","phone":"9053387888","address":"112 Trelawn Ave, Oakville, ON L6J 4R2","postalcode":"L6J 4R2","website":"http://www.conferenceinterpreters.ca","working_hour":"","latitude":"43.465034","longitude":"-79.648328"},{"source":"yellow page","service_name":"911 Interpreters Inc","category":"translation","phone":"905-842-2911","address":"1226 White Oaks Blvd, Oakville, ON L6H 2B9","postalcode":"L6H 2B9","website":" ","working_hour":"","latitude":"43.467793","longitude":"-79.689127"},{"source":"yellow page","service_name":"Bilingual Productions Limited","category":"translation","phone":"905-643-8883","address":"720 S Service Rd, Hamilton, ON L8E 5S7","postalcode":"L8E 5S7","website":"http://www.bilproductions.com","working_hour":"","latitude":"43.22833","longitude":"-79.692365"},{"source":"yellow page","service_name":"Hamilton Cultural Interpreting Services","category":"translation","phone":"905-528-9515","address":"225 King William St, Hamilton, ON L8R 1B1","postalcode":"L8R 1B1","website":" ","working_hour":"","latitude":"43.255338","longitude":"-79.860858"},{"source":"yellow page","service_name":"Chartrand Translation Service","category":"translation","phone":"905-825-9269","address":"2357 Bridge Rd, Oakville, ON L6L 2G9","postalcode":"L6L 2G9","website":" ","working_hour":"24 hours a day - 7 days a week","latitude":"43.404778","longitude":"-79.723274"},{"source":"yellow page","service_name":"Pro Active Translations Inc","category":"translation","phone":"905-842-0667","address":"1226 White Oaks Blvd, Oakville, ON L6H 2B9","postalcode":"L6H 2B9","website":"http://www.proactivetranslations.com","working_hour":"","latitude":"43.467793","longitude":"-79.689127"},{"source":"yellow page","service_name":"911 Interpreters","category":"translation","phone":"9055827738","address":"1226 White Oaks Blvd, Oakville, ON L6H 2B9","postalcode":"L6H 2B9","website":" ","working_hour":"","latitude":"43.467793","longitude":"-79.689127"},{"source":"yellow page","service_name":"Girard Translation Service","category":"translation","phone":"9055478704","address":"198 Wentworth St S, Hamilton, ON L8N 2Z4","postalcode":"L8N 2Z4","website":"http://girardtranslation.ca/","working_hour":"Monday 9:00 am - 5:00 pm   Tuesday 9:00 am - 5:00 pm   Wednesday 9:00 am - 5:00 pm   Thursday 9:00 am - 5:00 pm   Friday 9:00 am - 5:00 pm","latitude":"43.246318","longitude":"-79.85148"},{"source":"yellow page","service_name":"All Spanish-English Translation Services","category":"translation","phone":"905-847-8906","address":"471 Vanguard Cres, Oakville, ON L6L 5G6","postalcode":"L6L 5G6","website":"http://www.asets.ca","working_hour":"Monday 9:00 am - 9:00 pm   Tuesday 9:00 am - 9:00 pm   Wednesday 9:00 am - 9:00 pm   Thursday 9:00 am - 9:00 pm   Friday 9:00 am - 9:00 pm","latitude":"43.405301","longitude":"-79.723555"},{"source":"yellow page","service_name":"Languages Etcetera","category":"translation","phone":"905-825-3600","address":"1155 North Service Rd W, Oakville, ON L6M 3E3","postalcode":"L6M 3E3","website":" ","working_hour":"","latitude":"43.435282","longitude":"-79.714084"},{"source":"yellow page","service_name":"ITS Hamilton","category":"translation","phone":"9055277045","address":"110-100 Main St E, Hamilton, ON L8N 3W4","postalcode":"L8N 3W4","website":"http://www.itshamilton.com","working_hour":"","latitude":"43.25428","longitude":"-79.865155"},{"source":"yellow page","service_name":"Kashani Translation Services","category":"translation","phone":"416-447-2642","address":"1708-75 Graydon Hall Dr, North York, ON M3A 3M5","postalcode":"M3A 3M5","website":" ","working_hour":"","latitude":"43.764722","longitude":"-79.344332"},{"source":"yellow page","service_name":"Bonin Communications","category":"translation","phone":"416-495-1025","address":"150 Consumers Rd, North York, ON M2J 1P9","postalcode":"M2J 1P9","website":" ","working_hour":"Monday 9:00 am - 7:00 pm   Tuesday 9:00 am - 7:00 pm   Wednesday 9:00 am - 7:00 pm   Thursday 9:00 am - 7:00 pm   Friday 9:00 am - 7:00 pm   Saturday 10:00 am - 7:00 pm","latitude":"43.7742807","longitude":"-79.3314936"},{"source":"yellow page","service_name":"Amm Arabic Translation","category":"translation","phone":"416-759-4334","address":"1919 Lawrence Ave E, Scarborough, ON M1R 2Y6","postalcode":"M1R 2Y6","website":" ","working_hour":"","latitude":"43.744176","longitude":"-79.300357"},{"source":"yellow page","service_name":"IMJ Services","category":"translation","phone":"416-502-9611","address":"21 Cheryl Shepway, North York, ON M2J 4R5","postalcode":"M2J 4R5","website":"http://www.imjservices.com","working_hour":"","latitude":"43.772315","longitude":"-79.362701"},{"source":"yellow page","service_name":"Kim C Translation","category":"translation","phone":"647-233-4093","address":"1002-25 Leith Hill Rd, North York, ON M2J 1Z1","postalcode":"M2J 1Z1","website":"http://kimctranslation.com/","working_hour":"Monday 9:00 am - 5:00 pm   Tuesday 9:00 am - 5:00 pm   Wednesday 9:00 am - 5:00 pm   Thursday 9:00 am - 5:00 pm   Friday 9:00 am - 5:00 pm   From 9 to 5 EST","latitude":"43.776737","longitude":"-79.349725"},{"source":"yellow page","service_name":"AMM Arabic Translation & Interpretation Services","category":"translation","phone":"416-759-4334","address":"1919 Lawrence Ave E, Scarborough, ON M1R 2Y6","postalcode":"M1R 2Y6","website":"http://www.ammtranslation.com","working_hour":"","latitude":"43.744176","longitude":"-79.300357"},{"source":"yellow page","service_name":"Integrated Consulting Services","category":"translation","phone":"416-391-2286","address":"1315 Lawrence Ave E, North York, ON M3A 3R3","postalcode":"M3A 3R3","website":" ","working_hour":"","latitude":"43.740881","longitude":"-79.323073"},{"source":"yellow page","service_name":"Technovate Translations","category":"translation","phone":"416-222-2896","address":"202-4850 Yonge St, North York, ON M2N 5N2","postalcode":"M2N 5N2","website":" ","working_hour":"","latitude":"43.762613","longitude":"-79.411296"},{"source":"yellow page","service_name":"Allspeed Translations & Consultants Inc","category":"translation","phone":"416-483-9978","address":"133-C Finch Av E, North York, ON M2N 0H7","postalcode":"M2N 0H7","website":"http://www.allspeedtranslations.com","working_hour":"","latitude":"43.767595","longitude":"-79.410077"},{"source":"yellow page","service_name":"Parvizian Immigration & Translation Services Inc","category":"translation","phone":"416-730-0709","address":"900-45 Sheppard Ave E, North York, ON M2N 5W9","postalcode":"M2N 5W9","website":" ","working_hour":"Monday 9:00 am - 5:00 pm   Tuesday 9:00 am - 5:00 pm   Wednesday 9:00 am - 5:00 pm   Thursday 9:00 am - 5:00 pm   Friday 9:00 am - 5:00 pm   Appointments Available: Saturday.","latitude":"43.7622771","longitude":"-79.4075386"},{"source":"yellow page","service_name":"Fully Accredited Korean Interpreter","category":"translation","phone":"416-898-0096","address":"78 Harrison Garden Blvd, North York, ON M2N 7E2","postalcode":"M2N 7E2","website":" ","working_hour":"","latitude":"43.75638","longitude":"-79.407144"},{"source":"yellow page","service_name":"Global Translations & Interpreters Services Inc","category":"translation","phone":"905-852-6100","address":"","postalcode":"","website":" ","working_hour":"","latitude":"","longitude":""},{"source":"yellow page","service_name":"Crolang Croatian Language Services","category":"translation","phone":"905-471-0996","address":"ON","postalcode":"","website":"http://www.crolang.com","working_hour":"","latitude":"","longitude":""},{"source":"yellow page","service_name":"Translation Services","category":"translation","phone":"9057617366","address":"ON","postalcode":"","website":" ","working_hour":"","latitude":"43.651893","longitude":"-79.381713"},{"source":"yellow page","service_name":"Aberdeen Languages Services Ltd","category":"translation","phone":"905-881-9318","address":"ON","postalcode":"","website":"http://www.aberdeenlanguages.com","working_hour":"","latitude":"","longitude":""},{"source":"yellow page","service_name":"Real Transcripts","category":"translation","phone":"416-500-9200","address":"ON","postalcode":"","website":" ","working_hour":"","latitude":"","longitude":""},{"source":"yellow page","service_name":"Certified Translator","category":"translation","phone":"905-709-0062","address":"ON","postalcode":"","website":" ","working_hour":"","latitude":"","longitude":""},{"source":"yellow page","service_name":"Abco International Translators and Interpreters","category":"translation","phone":"416-359-0873","address":"808-8 King St, Toronto, ON M4R 1R4","postalcode":"M4R 1R4","website":" ","working_hour":"","latitude":"43.7016707","longitude":"-79.5204641"},{"source":"yellow page","service_name":"Weston Translators","category":"translation","phone":"4162476579","address":"2095 Weston, York, ON M9N 1X7","postalcode":"M9N 1X7","website":" ","working_hour":"","latitude":"43.702144","longitude":"-79.523188"},{"source":"yellow page","service_name":"AILIA Language Industry Association","category":"translation","phone":"819-595-3849","address":"25 Rockcastle Dr, Toronto, ON M9R 2V2","postalcode":"M9R 2V2","website":" ","working_hour":"Monday 9:00 am - 5:00 pm   Tuesday 9:00 am - 5:00 pm   Wednesday 9:00 am - 5:00 pm   Thursday 9:00 am - 5:00 pm   Friday 9:00 am - 5:00 pm","latitude":"43.68278","longitude":"-79.547235"},{"source":"yellow page","service_name":"Translations.ca","category":"translation","phone":"647-691-0763","address":"25 Rockcastle Dr, Toronto, ON M9R 2V2","postalcode":"M9R 2V2","website":" ","working_hour":"Monday 9:00 am - 5:00 pm   Tuesday 9:00 am - 5:00 pm   Wednesday 9:00 am - 5:00 pm   Thursday 9:00 am - 5:00 pm   Friday 9:00 am - 5:00 pm","latitude":"43.68278","longitude":"-79.547235"},{"source":"yellow page","service_name":"Fitzgerald & Dionne","category":"translation","phone":"416-324-9596","address":"44 Victoria Blvd, Toronto, ON M6M 2C1","postalcode":"M6M 2C1","website":"http://www.danforthdentistry.com/","working_hour":"","latitude":"43.690087","longitude":"-79.494289"},{"source":"yellow page","service_name":"Language Marketplace","category":"translation","phone":"9058964316","address":"365 Watline Ave, Mississauga, ON L4Z 1P3","postalcode":"L4Z 1P3","website":" ","working_hour":"","latitude":"43.627958","longitude":"-79.66261"},{"source":"yellow page","service_name":"Express International Translations Inc","category":"translation","phone":"4164102021","address":"100-1671 Saltdene Terr, Mississauga, ON L4W 2E3","postalcode":"L4W 2E3","website":" ","working_hour":"Monday 9:00 am - 9:00 pm   Tuesday 9:00 am - 9:00 pm   Wednesday 9:00 am - 9:00 pm   Thursday 9:00 am - 9:00 pm   Friday 9:00 am - 9:00 pm   Saturday 9:00 am - 5:00 pm","latitude":"43.629952","longitude":"-79.596661"},{"source":"yellow page","service_name":"Ina Nicolae","category":"translation","phone":"416-620-7707","address":"627 The West Mall, Etobicoke, ON M9C 4X5","postalcode":"M9C 4X5","website":" ","working_hour":"","latitude":"43.655988","longitude":"-79.571001"},{"source":"yellow page","service_name":"Keylingo Translations","category":"translation","phone":"9053612857","address":"8-2425 Matheson Blvd E, Mississauga, ON L4W 5K4","postalcode":"L4W 5K4","website":" ","working_hour":"","latitude":"43.65729","longitude":"-79.604439"},{"source":"yellow page","service_name":"French Express Translations & Interpretations","category":"translation","phone":"416-410-2021","address":"100-1671 Saltdene Terr, Mississauga, ON L4W 2E3","postalcode":"L4W 2E3","website":"http://www.translationenglishtofrench.com","working_hour":"Monday 8:00 am - 6:00 pm   Tuesday 8:00 am - 6:00 pm   Wednesday 8:00 am - 6:00 pm   Thursday 8:00 am - 6:00 pm   Friday 8:00 am - 6:00 pm   Weekends By Appointment Only","latitude":"43.629952","longitude":"-79.596661"},{"source":"yellow page","service_name":"Language Marketplace","category":"translation","phone":"9058968428","address":"101-1055 Place Canadian, Mississauga, ON L4W 0C2","postalcode":"L4W 0C2","website":"http://www.languagemarketplace.ca/","working_hour":"Monday 8:00 am - 6:00 pm   Tuesday 8:00 am - 6:00 pm   Wednesday 8:00 am - 6:00 pm   Thursday 8:00 am - 6:00 pm   Friday 8:00 am - 6:00 pm","latitude":"43.6261157","longitude":"-79.6279434"},{"source":"yellow page","service_name":"The Interpreters' Group Inc","category":"translation","phone":"416-233-8280","address":"4946 Dundas St W, Etobicoke, ON M9A 1B7","postalcode":"M9A 1B7","website":"http://theinterpretersgroup.com","working_hour":"","latitude":"43.648097","longitude":"-79.529357"},{"source":"yellow page","service_name":"Diligence Translation Services Inc","category":"translation","phone":"416-239-3156","address":"25 Mabelle Ave, Etobicoke, ON M9A 4Y1","postalcode":"M9A 4Y1","website":" ","working_hour":"","latitude":"43.645912","longitude":"-79.527033"},{"source":"yellow page","service_name":"CWO Translations","category":"translation","phone":"416-233-3220","address":"106-5343 Dundas St W, Etobicoke, ON M9B 6K5","postalcode":"M9B 6K5","website":" ","working_hour":"","latitude":"43.636691","longitude":"-79.539544"},{"source":"yellow page","service_name":"A Translation Services Inc","category":"translation","phone":"416-766-8318","address":"46 Langmuir Cres, York, ON M6S 2A7","postalcode":"M6S 2A7","website":"http://www.narvali.com/","working_hour":"Monday 9:00 am - 12:00 pm   Tuesday 9:00 am - 12:00 pm   Wednesday 9:00 am - 12:00 pm   Thursday 9:00 am - 12:00 pm   Friday 9:00 am - 12:00 pm","latitude":"43.654746","longitude":"-79.495313"},{"source":"yellow page","service_name":"A2Z Translation & Interpreting Services","category":"translation","phone":"416-847-0102","address":"4945A Dundas St W, Toronto, ON M9A 1B6","postalcode":"M9A 1B6","website":" ","working_hour":"Monday 8:00 am - 10:00 pm   Tuesday 8:00 am - 10:00 pm   Wednesday 8:00 am - 10:00 pm   Thursday 8:00 am - 10:00 pm   Friday 8:00 am - 10:00 pm   Saturday 8:00 am - 10:00 pm   Sunday 8:00 am - 10:00 pm","latitude":"43.648133","longitude":"-79.5293083"},{"source":"yellow page","service_name":"Tamari Translations & ImmigrationServices","category":"translation","phone":"905-270-9991","address":"918 Dundas St E, Mississauga, ON L4Y 4H9","postalcode":"L4Y 4H9","website":"http://certifiedtranslationservices.org","working_hour":"","latitude":"43.599289","longitude":"-79.59492"},{"source":"yellow page","service_name":"Olszowa Ewa","category":"translation","phone":"4168773304","address":"3320 Fieldgate Dr, Mississauga, ON L4X 2J2","postalcode":"L4X 2J2","website":"http://prawojazdyontario.com","working_hour":"","latitude":"43.622844","longitude":"-79.587132"},{"source":"yellow page","service_name":"GTA Translation","category":"translation","phone":"1-800-399-9795","address":"439 Wallenberg Cres, Mississauga, ON L5B 3M2","postalcode":"L5B 3M2","website":" ","working_hour":"Monday 8:00 am - 7:00 pm   Tuesday 8:00 am - 7:00 pm   Wednesday 8:00 am - 7:00 pm   Thursday 8:00 am - 7:00 pm   Friday 8:00 am - 7:00 pm   Saturday 8:00 am - 7:00 pm   Sunday 8:00 am - 7:00 pm","latitude":"43.584038","longitude":"-79.647757"},{"source":"yellow page","service_name":"Carte Blanche Translation","category":"translation","phone":"416-251-8952","address":"51 Long Branch Ave, Etobicoke, ON M8W 3J1","postalcode":"M8W 3J1","website":"http://carteblanchetranslation.ca","working_hour":"","latitude":"43.592059","longitude":"-79.532966"},{"source":"yellow page","service_name":"Strategic Languages","category":"translation","phone":"416-871-9778","address":"80 Birmingham St, Etobicoke, ON M8V 3W6","postalcode":"M8V 3W6","website":" ","working_hour":"Monday 8:30 am - 7:30 pm   Tuesday 8:30 am - 7:30 pm   Wednesday 8:30 am - 7:30 pm   Thursday 8:30 am - 7:30 pm   Friday 8:30 am - 7:30 pm   Saturday 10:00 am - 6:00 pm   Sunday 12:00 am - 11:59 pm","latitude":"43.603548","longitude":"-79.504902"},{"source":"yellow page","service_name":"Paradise Interpretation Services","category":"translation","phone":"647-887-7267","address":"2001-350 Webb Dr, Mississauga, ON L5B 3W4","postalcode":"L5B 3W4","website":" ","working_hour":"","latitude":"43.585038","longitude":"-79.642198"},{"source":"yellow page","service_name":"On Korean Work","category":"translation","phone":"905-279-3030","address":"157 Dundas St E, Mississauga, ON L5A 1W8","postalcode":"L5A 1W8","website":" ","working_hour":"","latitude":"43.583776","longitude":"-79.61234"},{"source":"yellow page","service_name":"Strategic Languages Inc","category":"translation","phone":"416-614-6933","address":"80 Birmingham St, Etobicoke, ON M8V 3W6","postalcode":"M8V 3W6","website":" ","working_hour":"","latitude":"43.603548","longitude":"-79.504902"},{"source":"yellow page","service_name":"Mags Translation","category":"translation","phone":"905-268-0092","address":"3195 Erindale Station Rd, Mississauga, ON L5C 1Y5","postalcode":"L5C 1Y5","website":" ","working_hour":"Monday 10:00 am - 5:00 pm   Tuesday 10:00 am - 5:00 pm   Wednesday 10:00 am - 5:00 pm   Thursday 10:00 am - 5:00 pm   Friday 10:00 am - 5:00 pm","latitude":"43.561034","longitude":"-79.648056"},{"source":"yellow page","service_name":"Galaxy Translations","category":"translation","phone":"9057819022","address":"3-126 Lakeshore Rd W, Mississauga, ON L5H 1G1","postalcode":"L5H 1G1","website":"http://galaxytranslations.ca","working_hour":"","latitude":"43.549318","longitude":"-79.588233"},{"source":"yellow page","service_name":"M V A Interpreting","category":"translation","phone":"4162335649","address":"2733 Lake Shore Blvd W, Etobicoke, ON M8V 1G9","postalcode":"M8V 1G9","website":"http://www.mostvaluable.com","working_hour":"Monday 9:00 am - 12:00 pm   Tuesday 9:00 am - 12:00 pm   Wednesday 9:00 am - 12:00 pm   Thursday 9:00 am - 12:00 pm   Friday 9:00 am - 12:00 pm","latitude":"43.6023397","longitude":"-79.4981213"},{"source":"yellow page","service_name":"TCI","category":"translation","phone":"9056079825","address":"4392 Treetop Crt, Mississauga, ON L5L 3M7","postalcode":"L5L 3M7","website":" ","working_hour":"","latitude":"43.550364","longitude":"-79.699024"},{"source":"yellow page","service_name":"J L D Translation Specialists","category":"translation","phone":"905-820-0044","address":"3279 Charlebrook Crt, Mississauga, ON L5L 5B4","postalcode":"L5L 5B4","website":" ","working_hour":"Monday 9:00 am - 5:00 pm   Tuesday 9:00 am - 5:00 pm   Wednesday 9:00 am - 5:00 pm   Thursday 9:00 am - 5:00 pm   Friday 9:00 am - 5:00 pm","latitude":"43.52528","longitude":"-79.700246"},{"source":"yellow page","service_name":"Accent on French","category":"translation","phone":"905-510-3333","address":"Mississauga, ON","postalcode":"","website":"http://accentonfrench.com","working_hour":"Monday 8:00 am - 7:00 pm   Tuesday 8:00 am - 7:00 pm   Wednesday 8:00 am - 7:00 pm   Thursday 8:00 am - 5:00 pm   Friday 8:00 am - 5:00 pm   Saturday 8:00 am - 3:00 pm","latitude":"43.514181","longitude":"-79.627828"},{"source":"yellow page","service_name":"Lee Network","category":"translation","phone":"905-569-6975","address":"3950 Erin Centre Blvd, Mississauga, ON L5M 0A5","postalcode":"L5M 0A5","website":" ","working_hour":"","latitude":"43.540396","longitude":"-79.739126"},{"source":"yellow page","service_name":"CA Translation Services","category":"translation","phone":"416-253-8869","address":"2323 Lake Shore Blvd W, Etobicoke, ON M8V 1B8","postalcode":"M8V 1B8","website":"http://www.catranslationservices.com","working_hour":"Monday 9:00 am - 5:00 pm   Tuesday 9:00 am - 5:00 pm   Wednesday 9:00 am - 5:00 pm   Thursday 9:00 am - 5:00 pm   Friday 9:00 am - 5:00 pm","latitude":"43.6172884","longitude":"-79.4873742"},{"source":"yellow page","service_name":"Habdank Communications","category":"translation","phone":"416-538-9677","address":"2519 Lake Shore Blvd W, Etobicoke, ON M8V 1E3","postalcode":"M8V 1E3","website":" ","working_hour":"","latitude":"43.610642","longitude":"-79.490171"},{"source":"yellow page","service_name":"Contexto Translations","category":"translation","phone":"905-580-9684","address":"Toronto, ON M4M 2V7","postalcode":"M4M 2V7","website":" ","working_hour":"","latitude":"43.661991","longitude":"-79.337691"},{"source":"yellow page","service_name":"Spanish & French Translation","category":"translation","phone":"4168865368","address":"ON","postalcode":"","website":" ","working_hour":"","latitude":"43.651893","longitude":"-79.381713"},{"source":"yellow page","service_name":"ABCO International Translators and Interpreters","category":"translation","phone":"647-495-8313","address":"808-8 King St E, Toronto, ON M5C 1B5","postalcode":"M5C 1B5","website":" ","working_hour":"Monday 9:00 am - 5:00 pm   Tuesday 9:00 am - 5:00 pm   Wednesday 9:00 am - 5:00 pm   Thursday 9:00 am - 5:00 pm   Friday 9:00 am - 5:00 pm   Appointment Only   Emergency Appointments Available","latitude":"43.649223","longitude":"-79.377542"},{"source":"yellow page","service_name":"Translirica","category":"translation","phone":"519-503-2370","address":"ON","postalcode":"","website":"http://translatica.pl/","working_hour":"Monday 8:00 am - 5:00 pm   Tuesday 8:00 am - 5:00 pm   Wednesday 8:00 am - 5:00 pm   Thursday 8:00 am - 5:00 pm   Friday 8:00 am - 5:00 pm","latitude":"","longitude":""},{"source":"yellow page","service_name":"Hungarian Translation Services","category":"translation","phone":"4169198208","address":"33 Woodstream Ave, Toronto, ON","postalcode":"","website":" ","working_hour":"","latitude":"","longitude":""},{"source":"yellow page","service_name":"Lemoine Lingua Translations","category":"translation","phone":"416-831-9117","address":"ON","postalcode":"","website":" ","working_hour":"","latitude":"","longitude":""},{"source":"yellow page","service_name":"Girard Translation Service","category":"translation","phone":"905-547-0054","address":"ON","postalcode":"","website":" ","working_hour":"","latitude":"","longitude":""},{"source":"yellow page","service_name":"Sadie Scapillato Translation & Editing","category":"translation","phone":"289-880-3759","address":"","postalcode":"","website":" ","working_hour":"","latitude":"","longitude":""},{"source":"yellow page","service_name":"Textronics Language Services","category":"translation","phone":"416-422-5010","address":"35 Westbourne Ave, Scarborough, ON M1L 2Y1","postalcode":"M1L 2Y1","website":"http://textronics.com","working_hour":"","latitude":"43.701793","longitude":"-79.289653"},{"source":"yellow page","service_name":"Assibi Canada Services","category":"translation","phone":"416-265-2753","address":"2560 Kingston Rd, Scarborough, ON M1M 1L8","postalcode":"M1M 1L8","website":" ","working_hour":"","latitude":"43.712587","longitude":"-79.246959"},{"source":"yellow page","service_name":"iTranslate4U ca","category":"translation","phone":"416-705-5575","address":"612-2 Secord Ave, East York, ON M4C 2C3","postalcode":"M4C 2C3","website":"http://itranslate4u.ca","working_hour":"","latitude":"43.692854","longitude":"-79.301475"},{"source":"yellow page","service_name":"The Art Of Translation","category":"translation","phone":"4168337678","address":"327 Wolverleigh Blvd, Toronto, ON M4C 1S5","postalcode":"M4C 1S5","website":" ","working_hour":"","latitude":"43.686603","longitude":"-79.316755"},{"source":"yellow page","service_name":"Solution Hassen","category":"translation","phone":"416-686-8505","address":"2017 Danforth Ave, Toronto, ON M4C 1J7","postalcode":"M4C 1J7","website":" ","working_hour":"Appointment Only","latitude":"43.685376","longitude":"-79.314239"},{"source":"yellow page","service_name":"Matte Hugette","category":"translation","phone":"4164834662","address":"9 Wren Crt, North York, ON M3C 2G8","postalcode":"M3C 2G8","website":"http://www.french-translations.ca","working_hour":"","latitude":"43.728322","longitude":"-79.343089"},{"source":"yellow page","service_name":"In French Professional Translations","category":"translation","phone":"647-379-8299","address":"403 Sammon Ave, East York, ON M4J 2A9","postalcode":"M4J 2A9","website":" ","working_hour":"","latitude":"43.687529","longitude":"-79.331622"},{"source":"yellow page","service_name":"Translators & Interpreters","category":"translation","phone":"416-817-0538","address":"25 Bellhaven Rd, Toronto, ON M4L 3J4","postalcode":"M4L 3J4","website":"http://www.capitatranslationinterpreting.com/","working_hour":"Monday 9:00 am - 12:00 pm   Tuesday 9:00 am - 12:00 pm   Wednesday 9:00 am - 12:00 pm   Thursday 9:00 am - 12:00 pm   Friday 9:00 am - 12:00 pm","latitude":"43.675635","longitude":"-79.312954"},{"source":"yellow page","service_name":"Nocel & Translation Associates Inc","category":"translation","phone":"416-425-6479","address":"95 Thorncliffe Park Dr, East York, ON M4H 1L7","postalcode":"M4H 1L7","website":" ","working_hour":"","latitude":"43.706885","longitude":"-79.343343"},{"source":"yellow page","service_name":"66 Translations Inc","category":"translation","phone":"416-466-4766","address":"970 Queen St E, Toronto, ON M4M 1J8","postalcode":"M4M 1J8","website":" ","working_hour":"","latitude":"43.660994","longitude":"-79.340383"},{"source":"yellow page","service_name":"Cosmos Translation & Interpretation Inc","category":"translation","phone":"4164631216","address":"437 Danforth Ave, Toronto, ON M4K 1P1","postalcode":"M4K 1P1","website":" ","working_hour":"","latitude":"43.677788","longitude":"-79.350748"},{"source":"yellow page","service_name":"Amero Communications","category":"translation","phone":"416-466-6035","address":"1833 Gerrard St E, Toronto, ON M4L 2B6","postalcode":"M4L 2B6","website":"http://www.amerocommunications.com","working_hour":"","latitude":"43.678858","longitude":"-79.313909"},{"source":"yellow page","service_name":"Dessie Parascevas Consulting & Translations","category":"translation","phone":"416-406-2501","address":"717 Pape Ave, Toronto, ON M4K 3S9","postalcode":"M4K 3S9","website":" ","working_hour":"Appointment Only","latitude":"43.679202","longitude":"-79.344979"},{"source":"yellow page","service_name":"Grecian Connections Translation","category":"translation","phone":"4167064958","address":"505 Danforth Ave, Toronto, ON M4K 1P5","postalcode":"M4K 1P5","website":" ","working_hour":"","latitude":"43.678103","longitude":"-79.349045"},{"source":"yellow page","service_name":"Spanish Connects","category":"translation","phone":"4168377148","address":"3-706 Danforth Ave, Toronto, ON M4J 1L1","postalcode":"M4J 1L1","website":"http://www.spanishconnects.com","working_hour":"Monday 9:00 am - 12:00 pm    2:00 pm - 6:00 pm   Tuesday 9:00 am - 12:00 pm    2:00 pm - 6:00 pm   Wednesday 9:00 am - 12:00 pm    2:00 pm - 6:00 pm   Thursday 9:00 am - 12:00 pm    2:00 pm - 6:00 pm   Friday 9:00 am - 12:00 pm    2:00 pm - 6:00 pm","latitude":"43.679195","longitude":"-79.34344"},{"source":"yellow page","service_name":"JMA Inc","category":"translation","phone":"416-482-9633","address":"26 Ronan Ave, Toronto, ON M4N 2X9","postalcode":"M4N 2X9","website":" ","working_hour":"","latitude":"43.727744","longitude":"-79.39427"},{"source":"yellow page","service_name":"Metro-Quebec Translation","category":"translation","phone":"416-256-9515","address":"28 William Carson Cres, Toronto, ON M2P 2H1","postalcode":"M2P 2H1","website":" ","working_hour":"","latitude":"43.749554","longitude":"-79.406462"},{"source":"yellow page","service_name":"Concorde French Communications Ltd","category":"translation","phone":"416-488-5905","address":"501-2323 Yonge St, Toronto, ON M4P 2C9","postalcode":"M4P 2C9","website":" ","working_hour":"Monday 9:00 am - 7:00 pm   Tuesday 9:00 am - 7:00 pm   Wednesday 9:00 am - 7:00 pm   Thursday 9:00 am - 7:00 pm   Friday 9:00 am - 7:00 pm   Saturday 10:00 am - 7:00 pm","latitude":"43.708255","longitude":"-79.398707"},{"source":"yellow page","service_name":"R & R International Translation Specialists","category":"translation","phone":"416-716-6933","address":"ON M5N 2X2","postalcode":"M5N 2X2","website":"http://www.rr-translations.com","working_hour":"","latitude":"43.720007","longitude":"-79.416461"},{"source":"yellow page","service_name":"Publicite Services Inc","category":"translation","phone":"416-324-8773","address":"234 Eglinton Av E, Toronto, ON M4P 1K2","postalcode":"M4P 1K2","website":"http://www.publiciteservices.com","working_hour":"","latitude":"43.708191","longitude":"-79.391233"},{"source":"yellow page","service_name":"Total Translations","category":"translation","phone":"416-447-2577","address":"444-20 Eglinton Ave E, Toronto, ON M4P 1A9","postalcode":"M4P 1A9","website":" ","working_hour":"","latitude":"43.706924","longitude":"-79.397515"},{"source":"yellow page","service_name":"FoodLink French Translation","category":"translation","phone":"416-782-4949","address":"1611-3000 Dufferin St, Toronto, ON M6B 3T6","postalcode":"M6B 3T6","website":" ","working_hour":"","latitude":"43.711196","longitude":"-79.454115"},{"source":"yellow page","service_name":"All Correct","category":"translation","phone":"647-472-3777","address":"119 Spadina Ave, M6E 3J3","postalcode":"M6E 3J3","website":" ","working_hour":"","latitude":"43.689525","longitude":"-79.443962"},{"source":"yellow page","service_name":"Holt French Translating Ltd","category":"translation","phone":"4169249379","address":"95 Alberta Ave, Toronto, ON M6H 2R7","postalcode":"M6H 2R7","website":" ","working_hour":"Appointment only","latitude":"43.677775","longitude":"-79.432762"},{"source":"yellow page","service_name":"Great Translations 24-7","category":"translation","phone":"416-877-2550","address":"207-3416 Dundas St W, York, ON M6S 2S1","postalcode":"M6S 2S1","website":" ","working_hour":"","latitude":"43.6656229","longitude":"-79.4849031"},{"source":"yellow page","service_name":"Middle East Consultants","category":"translation","phone":"4163620304","address":"368 Queen St E, Toronto, ON M5A 1T1","postalcode":"M5A 1T1","website":"http://www.150languages.com","working_hour":"Monday 12:00 pm - 7:00 pm   Tuesday 12:00 pm - 7:00 pm   Wednesday 12:00 pm - 7:00 pm   Thursday 12:00 pm - 7:00 pm   Friday 12:00 pm - 7:00 pm","latitude":"43.655771","longitude":"-79.363733"},{"source":"yellow page","service_name":"Lozano Translations","category":"translation","phone":"437-347-4601","address":"Toronto, ON M5A 1S3","postalcode":"M5A 1S3","website":" ","working_hour":"","latitude":"43.654811","longitude":"-79.368745"},{"source":"yellow page","service_name":"Key Translation Agency","category":"translation","phone":"4164657754","address":"23 Grant St, Toronto, ON M4M 2H4","postalcode":"M4M 2H4","website":" ","working_hour":"","latitude":"43.659933","longitude":"-79.348805"},{"source":"yellow page","service_name":"Paiement-Canuel Integrated","category":"translation","phone":"416-923-6777","address":"179 Carlton St, Toronto, ON M5A 2K3","postalcode":"M5A 2K3","website":"http://paiementconsultants.com","working_hour":"Appointment Only","latitude":"43.663457","longitude":"-79.371683"},{"source":"yellow page","service_name":"Bilingual Target Bilingue","category":"translation","phone":"416-920-9622","address":"200-45 St Clair Ave W, Toronto, ON M4V 1K9","postalcode":"M4V 1K9","website":"http://www.bilingualjobs.ca","working_hour":"Monday 9:00 am - 5:00 pm   Tuesday 9:00 am - 5:00 pm   Wednesday 9:00 am - 5:00 pm   Thursday 9:00 am - 5:00 pm   Friday 9:00 am - 5:00 pm   Saturday 9:00 am - 5:00 pm   Sunday 10:00 am - 4:00 pm","latitude":"43.68773","longitude":"-79.395559"},{"source":"yellow page","service_name":"Arcand Translation Services","category":"translation","phone":"416-921-9644","address":"212-1 Rosedale Rd, Toronto, ON M4W 2P1","postalcode":"M4W 2P1","website":" ","working_hour":"","latitude":"43.674629","longitude":"-79.383865"},{"source":"yellow page","service_name":"Cesar Vasquez Translations","category":"translation","phone":"647-928-0597","address":"2902-40 Pleasant Blvd, Toronto, ON M4T 1J9","postalcode":"M4T 1J9","website":" ","working_hour":"Monday 9:00 am - 12:00 pm   Tuesday 9:00 am - 12:00 pm   Wednesday 9:00 am - 12:00 pm   Thursday 9:00 am - 12:00 pm   Friday 9:00 am - 12:00 pm","latitude":"43.6873664","longitude":"-79.3926525"},{"source":"yellow page","service_name":"Beauroy Muriel","category":"translation","phone":"416-476-4079","address":"605-110 St Clair Ave W, Toronto, ON M4V 1N4","postalcode":"M4V 1N4","website":" ","working_hour":"Monday 9:00 am - 12:00 pm   Tuesday 9:00 am - 12:00 pm   Wednesday 9:00 am - 12:00 pm   Thursday 9:00 am - 12:00 pm   Friday 9:00 am - 12:00 pm","latitude":"43.6869268","longitude":"-79.4002224"},{"source":"yellow page","service_name":"Esprit International","category":"translation","phone":"416-925-6500","address":"1010-50 Rosehill Avenue, Toronto, ON M4T 1G6","postalcode":"M4T 1G6","website":"http://www.espritint.com","working_hour":"Monday 8:30 am - 6:00 pm   Tuesday 8:30 am - 6:00 pm   Wednesday 8:30 am - 6:00 pm   Thursday 8:30 am - 6:00 pm   Friday 8:30 am - 6:00 pm   Saturday 12:00 pm - 5:00 pm","latitude":"43.686737","longitude":"-79.390903"},{"source":"yellow page","service_name":"Roland Translations Inc","category":"translation","phone":"416-787-4226","address":"21 St Clair Ave E, Toronto, ON M4T 1L9","postalcode":"M4T 1L9","website":"http://rolandtranslations.com","working_hour":"","latitude":"43.688357","longitude":"-79.392938"},{"source":"yellow page","service_name":"AAA Translation Agency Ltd","category":"translation","phone":"647-477-7523","address":"600-920 Yonge St, Toronto, ON M4W 3C7","postalcode":"M4W 3C7","website":"http://www.translationagency.com","working_hour":"","latitude":"43.674226","longitude":"-79.388438"},{"source":"yellow page","service_name":"All Languages Ltd","category":"translation","phone":"226-270-9073","address":"421 Bloor St E, Toronto, ON M4W 3Y3","postalcode":"M4W 3Y3","website":"https://www.alllanguages.com/en/quotesandorders","working_hour":"Monday 8:30 am - 5:30 pm   Tuesday 8:30 am - 5:30 pm   Wednesday 8:30 am - 5:30 pm   Thursday 8:30 am - 5:30 pm   Friday 8:30 am - 5:30 pm","latitude":"43.672295","longitude":"-79.377163"},{"source":"yellow page","service_name":"Globato Canada","category":"translation","phone":"416-999-7893","address":"ON M5A 3X1","postalcode":"M5A 3X1","website":" ","working_hour":"","latitude":"43.656913","longitude":"-79.370243"},{"source":"yellow page","service_name":"Blue Book Translation","category":"translation","phone":"416-925-2735","address":"805-277 St. George St, Toronto, ON M5R 2R1","postalcode":"M5R 2R1","website":"http://www.bluebooktranslation.com","working_hour":"","latitude":"43.673762","longitude":"-79.402741"},{"source":"yellow page","service_name":"PNF Korean Services","category":"translation","phone":"416-588-6122","address":"15 Barton Ave, Toronto, ON M5R 1G9","postalcode":"M5R 1G9","website":" ","working_hour":"","latitude":"43.668196","longitude":"-79.41203"},{"source":"yellow page","service_name":"Translation Experts","category":"translation","phone":"8889819695","address":"807-94 Cumberland St, Toronto, ON M5R 1A3","postalcode":"M5R 1A3","website":"http://www.translationexpert.com","working_hour":"","latitude":"43.670374","longitude":"-79.390678"},{"source":"yellow page","service_name":"A A A L International Language Inc","category":"translation","phone":"416-968-2002","address":"94 Cumberland St, Toronto, ON M5R 1A3","postalcode":"M5R 1A3","website":" ","working_hour":"Appointment Only","latitude":"43.670374","longitude":"-79.390678"},{"source":"yellow page","service_name":"Just Languages Interpretation & Translation Ltd","category":"translation","phone":"416-998-3780","address":"1509-30 Charles St W, Toronto, ON M4Y 1R5","postalcode":"M4Y 1R5","website":" ","working_hour":"","latitude":"43.668603","longitude":"-79.386743"},{"source":"yellow page","service_name":"Canada-International Translation","category":"translation","phone":"416-921-7185","address":"344 Bloor St W, Toronto, ON M5S 3A7","postalcode":"M5S 3A7","website":"http://www.canadatranslation.com","working_hour":"Monday 10:00 am - 5:00 pm   Tuesday 10:00 am - 5:00 pm   Wednesday 10:00 am - 5:00 pm   Thursday 10:00 am - 5:00 pm   Friday 10:00 am - 3:00 pm","latitude":"43.666531","longitude":"-79.404465"},{"source":"yellow page","service_name":"Canada Intl Translation","category":"translation","phone":"416-921-7185","address":"344 Bloor St W, Toronto, ON M5S 3A7","postalcode":"M5S 3A7","website":"http://www.canadatranslation.com","working_hour":"","latitude":"43.666531","longitude":"-79.404465"},{"source":"yellow page","service_name":"AAAL International Languages Inc","category":"translation","phone":"4169441345","address":"ON M5R 1A3","postalcode":"M5R 1A3","website":"http://aaal-international-languages-inc.business-services.directory.yorkville.tel","working_hour":"Monday 10:00 am - 3:00 pm   Tuesday 10:00 am - 3:00 pm   Wednesday 10:00 am - 3:00 pm   Thursday 10:00 am - 3:00 pm   Friday 10:00 am - 3:00 pm","latitude":"43.670473","longitude":"-79.39079"},{"source":"yellow page","service_name":"Labrecque Louis","category":"translation","phone":"647-505-3723","address":"100 Wellesley St E, Toronto, ON M4Y 1H5","postalcode":"M4Y 1H5","website":" ","working_hour":"","latitude":"43.666127","longitude":"-79.379024"},{"source":"yellow page","service_name":"Multi-Media Transcription","category":"translation","phone":"4169773489","address":"98 Granby St, Toronto, ON M5B 1J1","postalcode":"M5B 1J1","website":" ","working_hour":"Monday 9:00 am - 5:00 pm   Tuesday 9:00 am - 5:00 pm   Wednesday 9:00 am - 5:00 pm   Thursday 9:00 am - 5:00 pm   Friday 9:00 am - 5:00 pm","latitude":"43.661393","longitude":"-79.378423"},{"source":"yellow page","service_name":"Henel Communications Inc","category":"translation","phone":"416-598-5051","address":"86 Gerrard St E, Toronto, ON M5B 2J1","postalcode":"M5B 2J1","website":" ","working_hour":"Appointment Only","latitude":"43.659953","longitude":"-79.377801"},{"source":"yellow page","service_name":"Uno Spanish Services","category":"translation","phone":"416-866-8811","address":"79 King St E, Toronto, ON M5C 1G3","postalcode":"M5C 1G3","website":"http://www.unoss.ca","working_hour":"Monday 9:00 am - 9:00 pm   Tuesday 9:00 am - 9:00 pm   Wednesday 9:00 am - 9:00 pm   Thursday 9:00 am - 9:00 pm   Friday 9:00 am - 9:00 pm   Saturday 1:00 pm - 7:00 pm","latitude":"43.649714","longitude":"-79.375289"},{"source":"yellow page","service_name":"Translations.com","category":"translation","phone":"416-703-0051","address":"330 Bay St, Toronto, ON M5H 2S8","postalcode":"M5H 2S8","website":"http://www.translationexpert.com","working_hour":"Appointment Only","latitude":"43.650176","longitude":"-79.380909"},{"source":"yellow page","service_name":"Abco Translators And Interpreters","category":"translation","phone":"647-558-0249","address":"808-8 King St E, Toronto, ON M5C 1B5","postalcode":"M5C 1B5","website":"http://www.abcotranslations.com","working_hour":"","latitude":"43.649223","longitude":"-79.377542"},{"source":"yellow page","service_name":"Canada Translation Services","category":"translation","phone":"4162761433","address":"ON","postalcode":"","website":" ","working_hour":"","latitude":"43.651893","longitude":"-79.381713"},{"source":"yellow page","service_name":"Javed Persian Translator","category":"translation","phone":"4168168050","address":"ON","postalcode":"","website":" ","working_hour":"","latitude":"43.651893","longitude":"-79.381713"},{"source":"yellow page","service_name":"Lexi-Tech International","category":"translation","phone":"4164896060","address":"Toronto, Toronto, ON","postalcode":"","website":"http://www.lexitech.ca","working_hour":"","latitude":"43.651893","longitude":"-79.381713"},{"source":"yellow page","service_name":"A Barrett Interpreter","category":"translation","phone":"4162205889","address":"ON","postalcode":"","website":" ","working_hour":"","latitude":"43.651893","longitude":"-79.381713"},{"source":"yellow page","service_name":"Transperfect Translations","category":"translation","phone":"416-703-0050","address":"330 Bay St, Toronto, ON M5H 2S8","postalcode":"M5H 2S8","website":"http://www.transperfect.com","working_hour":"Monday 9:00 am - 5:00 pm   Tuesday 9:00 am - 5:00 pm   Wednesday 9:00 am - 5:00 pm   Thursday 9:00 am - 5:00 pm   Friday 9:00 am - 5:00 pm","latitude":"43.650176","longitude":"-79.380909"},{"source":"yellow page","service_name":"Lingua Greca Translations","category":"translation","phone":"4165690156","address":"2201-250 Yonge St, Toronto, ON M5B 2L7","postalcode":"M5B 2L7","website":" ","working_hour":"Monday 9:00 am - 5:00 pm   Tuesday 9:00 am - 5:00 pm   Wednesday 9:00 am - 5:00 pm   Thursday 9:00 am - 5:00 pm   Friday 9:00 am - 5:00 pm","latitude":"43.6546074","longitude":"-79.3802125"},{"source":"yellow page","service_name":"Translation Service","category":"translation","phone":"4168385264","address":"ON","postalcode":"","website":" ","working_hour":"","latitude":"43.651893","longitude":"-79.381713"},{"source":"yellow page","service_name":"Andrew C Dawrant Chinese Conference Interpreter & Translator","category":"translation","phone":"4168781580","address":"40 Gerrard St E, Toronto, ON M5B 2E8","postalcode":"M5B 2E8","website":" ","working_hour":"Appointment only","latitude":"43.6593576","longitude":"-79.3807926"},{"source":"yellow page","service_name":"AK Language Services","category":"translation","phone":"416-792-2986","address":"5700-100 King Street West First Canadian Pl, Toronto, ON M5X 1C1","postalcode":"M5X 1C1","website":"http://www.aklanguageservices.com","working_hour":"24 Hours A Day - 7 Days A Week","latitude":"43.64889","longitude":"-79.38216"},{"source":"yellow page","service_name":"Archi-Voice Co Ltd","category":"translation","phone":"9053240212","address":"1801-1 Yonge St, Toronto, ON M5E 1E5","postalcode":"M5E 1E5","website":"http://www.archi-voice.co.jp/_eng/","working_hour":"","latitude":"43.642465","longitude":"-79.374991"},{"source":"yellow page","service_name":"CNW Group","category":"translation","phone":"416-863-9350","address":"88 Queens Quay W, Toronto, ON M5J 0B8","postalcode":"M5J 0B8","website":"http://www.newswire.ca","working_hour":"","latitude":"43.6412281","longitude":"-79.376648"},{"source":"yellow page","service_name":"Cpw Inc","category":"translation","phone":"6473517048","address":"1823-2 Carlton St, Toronto, ON M5B 1J3","postalcode":"M5B 1J3","website":" ","working_hour":"","latitude":"43.661416","longitude":"-79.382907"},{"source":"yellow page","service_name":"Language Marketplace Inc.","category":"translation","phone":"416-596-8585","address":"1801-1 Yonge St, Toronto, ON M5E 1W7","postalcode":"M5E 1W7","website":"http://www.languagemarketplace.ca","working_hour":"Monday 8:00 am - 6:00 pm   Tuesday 8:00 am - 6:00 pm   Wednesday 8:00 am - 6:00 pm   Thursday 8:00 am - 6:00 pm   Friday 8:00 am - 6:00 pm","latitude":"43.642465","longitude":"-79.374991"},{"source":"yellow page","service_name":"Global Paragon Translation Service","category":"translation","phone":"416-598-3366","address":"291 Spadina Ave, Toronto, ON M5T 2E6","postalcode":"M5T 2E6","website":" ","working_hour":"Monday 11:00 am - 6:00 pm   Tuesday 11:00 am - 6:00 pm   Wednesday 11:00 am - 6:00 pm   Thursday 11:00 am - 6:00 pm   Friday 11:00 am - 6:00 pm","latitude":"43.653405","longitude":"-79.398144"},{"source":"yellow page","service_name":"All Correct Group","category":"translation","phone":"647-472-3777","address":"119 Spadina Ave, Toronto, ON M5V 2L1","postalcode":"M5V 2L1","website":" ","working_hour":"","latitude":"43.647062","longitude":"-79.395157"},{"source":"yellow page","service_name":"Torchia Communications Lt","category":"translation","phone":"416-341-9928","address":"130 Spadina Ave, Toronto, ON M5V 2L4","postalcode":"M5V 2L4","website":" ","working_hour":"Monday 9:00 am - 7:00 pm   Tuesday 9:00 am - 7:00 pm   Wednesday 9:00 am - 7:00 pm   Thursday 9:00 am - 7:00 pm   Friday 9:00 am - 7:00 pm   Saturday 10:00 am - 7:00 pm","latitude":"43.647702","longitude":"-79.396084"},{"source":"yellow page","service_name":"Swift Translation Solutions","category":"translation","phone":"647-478-3885","address":"10-1990 Bloor St W, Toronto, ON M6P 3L1","postalcode":"M6P 3L1","website":" ","working_hour":"","latitude":"43.652762","longitude":"-79.468882"},{"source":"yellow page","service_name":"Nautilus Translation Ltd","category":"translation","phone":"416-233-5867","address":"20 Brule Gdns, Toronto, ON M6S 4J2","postalcode":"M6S 4J2","website":"http://nautilustranslation.ca","working_hour":"Monday 9:00 am - 5:00 pm   Tuesday 9:00 am - 5:00 pm   Wednesday 9:00 am - 5:00 pm   Thursday 9:00 am - 5:00 pm   Friday 9:00 am - 5:00 pm","latitude":"43.644609","longitude":"-79.48815"},{"source":"yellow page","service_name":"Labelle Translations Ltd","category":"translation","phone":"416-251-7667","address":"2269 Lake Shore Blvd W, Etobicoke, ON M8V 3X6","postalcode":"M8V 3X6","website":" ","working_hour":"Monday 9:00 am - 12:00 pm   Tuesday 9:00 am - 12:00 pm   Wednesday 9:00 am - 12:00 pm   Thursday 9:00 am - 12:00 pm   Friday 9:00 am - 12:00 pm","latitude":"43.6200477","longitude":"-79.4850385"},{"source":"yellow page","service_name":"Dialogos Translation Services","category":"translation","phone":"4167635821","address":"1 Ripley Ave, Toronto, ON M6S 4Z6","postalcode":"M6S 4Z6","website":" ","working_hour":"","latitude":"43.637047","longitude":"-79.474579"},{"source":"yellow page","service_name":"Anta Translation Services","category":"translation","phone":"416-766-4921","address":"2230 Bloor St W, Toronto, ON M6S 1N6","postalcode":"M6S 1N6","website":"http://translationservicetoronto.com","working_hour":"Monday 10:00 am - 7:00 pm   Tuesday 10:00 am - 7:00 pm   Wednesday 10:00 am - 7:00 pm   Thursday 10:00 am - 7:00 pm   Friday 10:00 am - 7:00 pm   Saturday 10:00 am - 7:00 pm","latitude":"43.651041","longitude":"-79.476684"},{"source":"yellow page","service_name":"Dominion Translation","category":"translation","phone":"416-586-0089","address":"414-401 Richmond St W, Toronto, ON M5V 3A8","postalcode":"M5V 3A8","website":"http://dominiontranslation.com/","working_hour":"Monday 8:30 am - 5:00 pm   Tuesday 8:30 am - 5:00 pm   Wednesday 8:30 am - 5:00 pm   Thursday 8:30 am - 5:00 pm   Friday 8:30 am - 5:00 pm","latitude":"43.648052","longitude":"-79.394859"},{"source":"yellow page","service_name":"German Translation Service","category":"translation","phone":"647-360-3965","address":"15 Howland Ave, Toronto, ON M5R 3B2","postalcode":"M5R 3B2","website":"http://www.gertranstoronto.com","working_hour":"","latitude":"43.666239","longitude":"-79.408898"},{"source":"yellow page","service_name":"Sudarshana Japanese Services","category":"translation","phone":"416-921-1965","address":"720 Spadina Ave, Toronto, ON M5S 2T9","postalcode":"M5S 2T9","website":"http://www.sudarshana.com","working_hour":"Monday 9:00 am - 12:00 pm   Tuesday 9:00 am - 12:00 pm   Wednesday 9:00 am - 12:00 pm   Thursday 9:00 am - 12:00 pm   Friday 9:00 am - 12:00 pm","latitude":"43.6655323","longitude":"-79.403225"},{"source":"yellow page","service_name":"Japan Communications Ltd","category":"translation","phone":"416-593-6118","address":"401-460 Richmond St W, Toronto, ON M5V 1Y1","postalcode":"M5V 1Y1","website":" ","working_hour":"Monday 9:00 am - 5:00 pm   Tuesday 9:00 am - 5:00 pm   Wednesday 9:00 am - 5:00 pm   Thursday 9:00 am - 5:00 pm   Friday 9:00 am - 5:00 pm","latitude":"43.647678","longitude":"-79.397668"},{"source":"yellow page","service_name":"Spanish English Translations","category":"translation","phone":"416-760-6017","address":"104 Beatrice St, Toronto, ON M6J 2T3","postalcode":"M6J 2T3","website":" ","working_hour":"Monday 9:00 am - 12:00 pm   Tuesday 9:00 am - 12:00 pm   Wednesday 9:00 am - 12:00 pm   Thursday 9:00 am - 12:00 pm   Friday 9:00 am - 12:00 pm","latitude":"43.653247","longitude":"-79.416012"},{"source":"yellow page","service_name":"Prince Mountain Translation Service","category":"translation","phone":"416-977-8688","address":"222 Spadina Ave, Toronto, ON M5T 3B3","postalcode":"M5T 3B3","website":" ","working_hour":"","latitude":"43.651018","longitude":"-79.397461"},{"source":"yellow page","service_name":"Italian Scientific & Technical Translations","category":"translation","phone":"416-925-8570","address":"48 Oxford St, Toronto, ON M5T 1N9","postalcode":"M5T 1N9","website":"http://www.cez.com","working_hour":"","latitude":"43.656265","longitude":"-79.401812"},{"source":"yellow page","service_name":"Royal Edu And Immigration","category":"translation","phone":"4165362002","address":"2340 Dundas St W, Toronto, ON M6P 4A9","postalcode":"M6P 4A9","website":" ","working_hour":"","latitude":"43.656698","longitude":"-79.452522"},{"source":"yellow page","service_name":"Korean Service Centre","category":"translation","phone":"416-531-0884","address":"609 Bloor St W, Toronto, ON M6G 1K5","postalcode":"M6G 1K5","website":" ","working_hour":"Monday 9:00 am - 12:00 pm   Tuesday 9:00 am - 12:00 pm   Wednesday 9:00 am - 12:00 pm   Thursday 9:00 am - 12:00 pm   Friday 9:00 am - 12:00 pm","latitude":"43.664688","longitude":"-79.413256"},{"source":"yellow page","service_name":"Toronto Hanin Community Services","category":"translation","phone":"416-588-0377","address":"731 Bloor St W, Toronto, ON M6G 1L5","postalcode":"M6G 1L5","website":" ","working_hour":"Monday 9:00 am - 12:00 pm   Tuesday 9:00 am - 12:00 pm   Wednesday 9:00 am - 12:00 pm   Thursday 9:00 am - 12:00 pm   Friday 9:00 am - 12:00 pm","latitude":"43.663522","longitude":"-79.418575"},{"source":"yellow page","service_name":"A Better World Is Possible","category":"translation","phone":"647-238-7929","address":"1204-21 Maynard Ave, Toronto, ON M6K 2Z8","postalcode":"M6K 2Z8","website":" ","working_hour":"","latitude":"43.63808","longitude":"-79.437737"},{"source":"yellow page","service_name":"Genesis Translation Service","category":"translation","phone":"416-588-4450","address":"910 Queen St W, Toronto, ON M6J 1G6","postalcode":"M6J 1G6","website":"http://genesistranslation.com","working_hour":"","latitude":"43.644856","longitude":"-79.415635"},{"source":"yellow page","service_name":"Six Nation Language Commi","category":"translation","phone":"905-765-5595","address":"50 Generations, Caledonia, ON N0A 1M0","postalcode":"N0A 1M0","website":" ","working_hour":"","latitude":"43.088637","longitude":"-80.104849"},{"source":"yellow page","service_name":"On-Target Translation Services","category":"translation","phone":"519-650-1999","address":"831 Laurel St, Cambridge, ON N3H 3Z6","postalcode":"N3H 3Z6","website":"http://www.ontargettranslationservices.com","working_hour":"Monday 9:00 am - 6:00 pm   Tuesday 9:00 am - 6:00 pm   Wednesday 9:00 am - 6:00 pm   Thursday 9:00 am - 6:00 pm   Friday 9:00 am - 5:00 pm","latitude":"43.3941","longitude":"-80.353246"},{"source":"yellow page","service_name":"A M S Translations","category":"translation","phone":"519-886-4681","address":"468 Anndale Rd, Waterloo, ON N2K 1W8","postalcode":"N2K 1W8","website":"http://www.amstranslations.com","working_hour":"","latitude":"43.495813","longitude":"-80.513766"},{"source":"yellow page","service_name":"2-Tone Translations","category":"translation","phone":"519-885-7212","address":"418 Forestlawn Rd, Waterloo, ON N2K 2J6","postalcode":"N2K 2J6","website":" ","working_hour":"","latitude":"43.501426","longitude":"-80.498048"},{"source":"yellow page","service_name":"D & S Translations Services","category":"translation","phone":"5197472070","address":"333 Daleview Pl, Waterloo, ON N2L 5M5","postalcode":"N2L 5M5","website":" ","working_hour":"","latitude":"43.486656","longitude":"-80.565748"},{"source":"yellow page","service_name":"Allan B Kearney Interpreting Svcs","category":"translation","phone":"5197720233","address":"90 Peter St, Kitchener, ON N2G 3J9","postalcode":"N2G 3J9","website":" ","working_hour":"Appointment only","latitude":"43.443791","longitude":"-80.489608"},{"source":"yellow page","service_name":"Velickovski Zsivca Bobbie Interpreter & Consultant","category":"translation","phone":"519-579-8504","address":"14 Erie Ave, Kitchener, ON N2C 1M8","postalcode":"N2C 1M8","website":" ","working_hour":"","latitude":"43.427773","longitude":"-80.462236"},{"source":"yellow page","service_name":"Publi-Relex","category":"translation","phone":"519-433-6467","address":"604 Waterloo St, London, ON N6B 2R3","postalcode":"N6B 2R3","website":" ","working_hour":"","latitude":"42.9923","longitude":"-81.245843"},{"source":"yellow page","service_name":"TCI","category":"translation","phone":"5194344334","address":"5-246 Maitland St, London, ON N6B 2Y2","postalcode":"N6B 2Y2","website":" ","working_hour":"","latitude":"42.9825131","longitude":"-81.2344522"},{"source":"yellow page","service_name":"Rephrase Language Services","category":"translation","phone":"5197209903","address":"50 Ruffian Rd, Brantford, ON N3P 1R6","postalcode":"N3P 1R6","website":" ","working_hour":"Monday 9:00 am - 6:00 pm   Tuesday 9:00 am - 6:00 pm   Wednesday 9:00 am - 6:00 pm   Thursday 9:00 am - 6:00 pm   Friday 9:00 am - 6:00 pm","latitude":"43.18298","longitude":"-80.226244"},{"source":"yellow page","service_name":"Languagenet.net","category":"translation","phone":"226-289-2021","address":"515-724 Fanshawe Park Rd E, London, ON N5X 2L8","postalcode":"N5X 2L8","website":"http://languagenet.net","working_hour":"","latitude":"43.035953","longitude":"-81.251192"},{"source":"yellow page","service_name":"LUSO Community Services","category":"translation","phone":"5194521466","address":"1193 Oxford St E, London, ON N5Y 3M2","postalcode":"N5Y 3M2","website":"http://www.lusocentre.org","working_hour":"Monday 9:00 am - 5:00 pm   Tuesday 9:00 am - 5:00 pm   Wednesday 9:00 am - 5:00 pm   Thursday 9:00 am - 5:00 pm   Friday 9:00 am - 4:30 pm","latitude":"43.0070869","longitude":"-81.2134306"},{"source":"yellow page","service_name":"Across Languages","category":"translation","phone":"519-642-7247","address":"129 Wellington St, London, ON N6B 2K7","postalcode":"N6B 2K7","website":" ","working_hour":"","latitude":"42.976654","longitude":"-81.241219"},{"source":"yellow page","service_name":"Cross Cultural Learner Centre","category":"translation","phone":"226-270-8031","address":"505 Dundas St, London, ON N6B 1W4","postalcode":"N6B 1W4","website":"http://www.lcclc.org","working_hour":"Monday 8:30 am - 4:30 pm   Tuesday 8:30 am - 4:30 pm   Wednesday 8:30 am - 4:30 pm   Thursday 8:30 am - 4:30 pm   Friday 8:30 am - 4:30 pm","latitude":"42.987692","longitude":"-81.235607"},{"source":"yellow page","service_name":"WordFrog Inc","category":"translation","phone":"519-932-0897","address":"807 Silverfox Cres, London, ON N6G 0K2","postalcode":"N6G 0K2","website":" ","working_hour":"Monday 9:00 am - 5:00 pm   Tuesday 9:00 am - 5:00 pm   Wednesday 9:00 am - 5:00 pm   Thursday 9:00 am - 5:00 pm   Friday 9:00 am - 5:00 pm   ALL DAYS - Guaranteed Response Within 12 Hours","latitude":"43.023759","longitude":"-81.323296"},{"source":"yellow page","service_name":"Able Translation Services","category":"translation","phone":"519-859-6940","address":"London, ON","postalcode":"","website":" ","working_hour":"","latitude":"","longitude":""},{"source":"yellow page","service_name":"WordFrog Inc","category":"translation","phone":"519-932-0897","address":"","postalcode":"","website":" ","working_hour":"","latitude":"","longitude":""},{"source":"yellow page","service_name":"Denny Ann","category":"translation","phone":"519-495-6178","address":"ON","postalcode":"","website":" ","working_hour":"","latitude":"","longitude":""},{"source":"yellow page","service_name":"Polla Translation Services","category":"translation","phone":"519-657-0944","address":"ON","postalcode":"","website":" ","working_hour":"","latitude":"","longitude":""},{"source":"yellow page","service_name":"Dueck Citizenship And Immigration Svcs","category":"translation","phone":"519-322-8483","address":"114 Talbot St E, Leamington, ON N8H 1L5","postalcode":"N8H 1L5","website":" ","working_hour":"","latitude":"42.05406","longitude":"-82.595783"},{"source":"yellow page","service_name":"Multicultural Council of Windsor and Essex County","category":"translation","phone":"519-255-1127","address":"245 Janette Ave, Windsor, ON N9A 4Z2","postalcode":"N9A 4Z2","website":" ","working_hour":"Monday 8:30 am - 5:30 pm   Tuesday 8:30 am - 5:30 pm   Wednesday 8:30 am - 5:30 pm   Thursday 8:30 am - 5:30 pm   Friday 8:30 am - 5:30 pm","latitude":"42.316204","longitude":"-83.046316"},{"source":"yellow page","service_name":"Almohajer Aljadeed","category":"translation","phone":"5192589690","address":"2-956 Howard Ave, Windsor, ON N9A 1S5","postalcode":"N9A 1S5","website":"http://almohajer.com","working_hour":"Monday 9:00 am - 5:00 pm   Tuesday 9:00 am - 5:00 pm   Wednesday 9:00 am - 5:00 pm   Thursday 9:00 am - 5:00 pm   Friday 9:00 am - 5:00 pm","latitude":"42.312398","longitude":"-83.026337"},{"source":"yellow page","service_name":"WTB Language Group Inc","category":"translation","phone":"519-256-8897","address":"545 Ouellette Ave, Windsor, ON N9A 4J3","postalcode":"N9A 4J3","website":"http://www.wintranslation.com","working_hour":"","latitude":"42.314697","longitude":"-83.037205"},{"source":"yellow page","service_name":"Atoy Translation Interpretation and Language Services","category":"translation","phone":"519-817-6513","address":"ON","postalcode":"","website":" ","working_hour":"","latitude":"","longitude":""},{"source":"yellow page","service_name":"Atis Connects Arabic Translation & Interpreter Services","category":"translation","phone":"519-980-9525","address":"204-380 Pelissier St, Windsor, ON N9A 6W8","postalcode":"N9A 6W8","website":"http://atis-connects-arabic-and-windsor.windsordirect.info","working_hour":"Monday 9:00 am - 6:00 pm   Tuesday 9:00 am - 6:00 pm   Wednesday 9:00 am - 6:00 pm   Thursday 9:00 am - 6:00 pm   Friday 9:00 am - 6:00 pm","latitude":"42.3164328","longitude":"-83.0394655"},{"source":"yellow page","service_name":"LTC Translation Services","category":"translation","phone":"519-818-9206","address":"13039 Tecumseh Rd E, Windsor, ON N8N 3T4","postalcode":"N8N 3T4","website":" ","working_hour":"","latitude":"42.312165","longitude":"-82.873949"},{"source":"yellow page","service_name":"Kalaci Translations","category":"translation","phone":"519-991-5208","address":"ON","postalcode":"","website":"http://www.kalacitranslations.com","working_hour":"","latitude":"","longitude":""},{"source":"yellow page","service_name":"Artistic Translations","category":"translation","phone":"519-856-2648","address":"artistictranslations@on.aibn.com, Rockwood, ON N0B 2K0","postalcode":"N0B 2K0","website":" ","working_hour":"","latitude":"","longitude":""},{"source":"yellow page","service_name":"Certified Translation","category":"translation","phone":"519-746-3376","address":"Waterloo, ON L5B 2C9","postalcode":"L5B 2C9","website":" ","working_hour":"","latitude":"","longitude":""},{"source":"yellow page","service_name":"Huras Translations","category":"translation","phone":"519-580-1168","address":"Kitchener, ON","postalcode":"","website":" ","working_hour":"","latitude":"","longitude":""},{"source":"yellow page","service_name":"MoveMasters Inc","category":"translation","phone":"519-497-1068","address":"KITCHENER, ON","postalcode":"","website":" ","working_hour":"","latitude":"","longitude":""},{"source":"yellow page","service_name":"JP Translation","category":"translation","phone":"519-746-3376","address":"Waterloo, ON L5B 2C9","postalcode":"L5B 2C9","website":" ","working_hour":"","latitude":"","longitude":""},{"source":"yellow page","service_name":"TransCanada Translations","category":"translation","phone":"7055248907","address":"45 Inglewood Crt, Sudbury, ON P3A 5A3","postalcode":"P3A 5A3","website":"http://sudbury-translation-servi-sudbury.sudburydirect.info","working_hour":"","latitude":"46.527448","longitude":"-80.966123"},{"source":"yellow page","service_name":"Traduction Fidelis","category":"translation","phone":"819-333-9171","address":"2, av Gagnon, La Sarre, QC J9Z 2P1","postalcode":"J9Z 2P1","website":"http://traductionfidelis.com","working_hour":"","latitude":"48.793534","longitude":"-79.211823"},{"source":"yellow page","service_name":"Centre de Langues Boréal","category":"translation","phone":"819-797-9165","address":"54A av Principale, Rouyn-Noranda, QC J9X 4P2","postalcode":"J9X 4P2","website":" ","working_hour":"Monday 9:00 am - 4:00 pm   Tuesday 9:00 am - 4:00 pm   Wednesday 9:00 am - 4:00 pm   Thursday 9:00 am - 4:00 pm   Friday 10:00 am - 3:00 pm","latitude":"48.2413712","longitude":"-79.0200851"},{"source":"yellow page","service_name":"Traductions Papyrus Enr","category":"translation","phone":"819-797-1019","address":"486 place Garon, Rouyn-Noranda, QC J9X 5X5","postalcode":"J9X 5X5","website":" ","working_hour":"","latitude":"48.2352654","longitude":"-78.9851097"},{"source":"yellow page","service_name":"Les Traductions GHP Translation Services","category":"translation","phone":"705-360-1187","address":"2450 Airport Rd, Timmins, ON P4N 7C3","postalcode":"P4N 7C3","website":" ","working_hour":"","latitude":"48.5292571","longitude":"-81.3762933"},{"source":"yellow page","service_name":"Centre d'Education et de Formation pour Adultes","category":"translation","phone":"705-946-1565","address":"600 North St, Sault Ste Marie, ON P6B 2B9","postalcode":"P6B 2B9","website":"http://www.cefassm.com","working_hour":"Monday 9:00 am - 12:00 pm   Tuesday 9:00 am - 12:00 pm   Wednesday 9:00 am - 12:00 pm   Thursday 9:00 am - 12:00 pm   Friday 9:00 am - 12:00 pm","latitude":"46.53295","longitude":"-84.336568"},{"source":"yellow page","service_name":"ML Translation","category":"translation","phone":"7059499811","address":"76 Willowdale St, Sault Ste Marie, ON P6A 5Z4","postalcode":"P6A 5Z4","website":" ","working_hour":"","latitude":"46.515009","longitude":"-84.251236"},{"source":"yellow page","service_name":"Thunder Bay Multicultural Association","category":"translation","phone":"807-345-0551","address":"17 Court St N, Thunder Bay, ON P7A 4T4","postalcode":"P7A 4T4","website":"http://www.thunderbay.org/","working_hour":"Monday 9:00 am - 12:00 pm   Tuesday 9:00 am - 12:00 pm   Wednesday 9:00 am - 12:00 pm   Thursday 9:00 am - 12:00 pm   Friday 9:00 am - 12:00 pm","latitude":"48.436245","longitude":"-89.221471"},{"source":"yellow page","service_name":"Accueil Francophone de Thunder Bay","category":"translation","phone":"807-684-1940","address":"234 Van Norman St, Thunder Bay, ON P7A 4B8","postalcode":"P7A 4B8","website":"http://www.accueilfrancophone.com","working_hour":"","latitude":"48.436541","longitude":"-89.220269"},{"source":"yellow page","service_name":"Club Des Francophones","category":"translation","phone":"807-876-2887","address":"167 Centennial Dr, Longlac, ON P0T 2A0","postalcode":"P0T 2A0","website":" ","working_hour":"","latitude":"49.781545","longitude":"-86.535074"},{"source":"yellow page","service_name":"Interpreter Access Service","category":"translation","phone":"807-468-9443","address":"136 Main St S, Kenora, ON P9N 1S9","postalcode":"P9N 1S9","website":"http://kenoramulticultural.com","working_hour":"","latitude":"49.7672132","longitude":"-94.4903936"},{"source":"yellow page","service_name":"Traduction Sens Caché","category":"translation","phone":"705-332-1128","address":"ON","postalcode":"","website":" ","working_hour":"","latitude":"","longitude":""}]}